{
"type": "FeatureCollection",
"name": "bicycle",
"crs": { "type": "name", "properties": { "name": "urn:ogc:def:crs:EPSG::32637" } },
"features": [
{ "type": "Feature", "properties": { "fid": 1504, "amenity": "bicycle_rental", "name": "Велостанция" }, "geometry": { "type": "Point", "coordinates": [ 417092.694646201911382, 6183918.168624759651721 ] } },
{ "type": "Feature", "properties": { "fid": 1516, "amenity": "bicycle_rental", "name": "Bosco sport" }, "geometry": { "type": "Point", "coordinates": [ 414462.573774327640422, 6187702.218189825303853 ] } },
{ "type": "Feature", "properties": { "fid": 381, "amenity": "bicycle_parking", "name": null }, "geometry": { "type": "Point", "coordinates": [ 417247.655516223923769, 6183520.450434849597514 ] } },
{ "type": "Feature", "properties": { "fid": 384, "amenity": "bicycle_rental", "name": "Драйв-Прокат" }, "geometry": { "type": "Point", "coordinates": [ 414481.148522253381088, 6187307.191052662208676 ] } },
{ "type": "Feature", "properties": { "fid": 444, "amenity": "bicycle_parking", "name": null }, "geometry": { "type": "Point", "coordinates": [ 413857.361924871918745, 6186005.485185859724879 ] } },
{ "type": "Feature", "properties": { "fid": 565, "amenity": "bicycle_parking", "name": null }, "geometry": { "type": "Point", "coordinates": [ 413464.541234253207222, 6187314.02592714689672 ] } },
{ "type": "Feature", "properties": { "fid": 577, "amenity": "bicycle_parking", "name": null }, "geometry": { "type": "Point", "coordinates": [ 416564.631674010423012, 6189622.720385258086026 ] } },
{ "type": "Feature", "properties": { "fid": 618, "amenity": "bicycle_parking", "name": null }, "geometry": { "type": "Point", "coordinates": [ 414677.92734227020992, 6185555.384983585216105 ] } },
{ "type": "Feature", "properties": { "fid": 619, "amenity": "bicycle_parking", "name": null }, "geometry": { "type": "Point", "coordinates": [ 413313.469307215709705, 6183990.05663073901087 ] } },
{ "type": "Feature", "properties": { "fid": 621, "amenity": "bicycle_parking", "name": null }, "geometry": { "type": "Point", "coordinates": [ 414176.124678421241697, 6186717.911072412505746 ] } },
{ "type": "Feature", "properties": { "fid": 623, "amenity": "bicycle_rental", "name": null }, "geometry": { "type": "Point", "coordinates": [ 414880.459281848045066, 6187168.073624121025205 ] } },
{ "type": "Feature", "properties": { "fid": 657, "amenity": "bicycle_rental", "name": null }, "geometry": { "type": "Point", "coordinates": [ 416453.025707141845487, 6184022.391721423715353 ] } },
{ "type": "Feature", "properties": { "fid": 736, "amenity": "bicycle_parking", "name": null }, "geometry": { "type": "Point", "coordinates": [ 417089.51665871811565, 6183547.823692835867405 ] } },
{ "type": "Feature", "properties": { "fid": 741, "amenity": "bicycle_rental", "name": null }, "geometry": { "type": "Point", "coordinates": [ 414183.85431613936089, 6182599.551588382571936 ] } },
{ "type": "Feature", "properties": { "fid": 742, "amenity": "bicycle_rental", "name": null }, "geometry": { "type": "Point", "coordinates": [ 413070.40734277991578, 6182628.822288506664336 ] } },
{ "type": "Feature", "properties": { "fid": 743, "amenity": "bicycle_rental", "name": null }, "geometry": { "type": "Point", "coordinates": [ 413237.436329445918091, 6183062.148051653988659 ] } },
{ "type": "Feature", "properties": { "fid": 744, "amenity": "bicycle_rental", "name": null }, "geometry": { "type": "Point", "coordinates": [ 413620.356912400806323, 6183148.765424310229719 ] } },
{ "type": "Feature", "properties": { "fid": 745, "amenity": "bicycle_rental", "name": null }, "geometry": { "type": "Point", "coordinates": [ 414379.665589672629721, 6183182.170781944878399 ] } },
{ "type": "Feature", "properties": { "fid": 746, "amenity": "bicycle_rental", "name": null }, "geometry": { "type": "Point", "coordinates": [ 413276.219844462524634, 6183303.930409993976355 ] } },
{ "type": "Feature", "properties": { "fid": 747, "amenity": "bicycle_rental", "name": null }, "geometry": { "type": "Point", "coordinates": [ 414030.859591491811443, 6183381.418790461495519 ] } },
{ "type": "Feature", "properties": { "fid": 748, "amenity": "bicycle_rental", "name": null }, "geometry": { "type": "Point", "coordinates": [ 412830.649211213923991, 6183520.138471718877554 ] } },
{ "type": "Feature", "properties": { "fid": 749, "amenity": "bicycle_rental", "name": null }, "geometry": { "type": "Point", "coordinates": [ 413234.116440121433698, 6183854.955223374068737 ] } },
{ "type": "Feature", "properties": { "fid": 750, "amenity": "bicycle_rental", "name": null }, "geometry": { "type": "Point", "coordinates": [ 414163.580792220309377, 6186400.324053045362234 ] } },
{ "type": "Feature", "properties": { "fid": 759, "amenity": "bicycle_rental", "name": null }, "geometry": { "type": "Point", "coordinates": [ 414748.939617528347299, 6187468.540968913584948 ] } },
{ "type": "Feature", "properties": { "fid": 766, "amenity": "bicycle_rental", "name": null }, "geometry": { "type": "Point", "coordinates": [ 413210.378784117288888, 6185035.998615315183997 ] } },
{ "type": "Feature", "properties": { "fid": 775, "amenity": "bicycle_rental", "name": null }, "geometry": { "type": "Point", "coordinates": [ 413287.983033413009252, 6183957.501615832559764 ] } },
{ "type": "Feature", "properties": { "fid": 776, "amenity": "bicycle_rental", "name": null }, "geometry": { "type": "Point", "coordinates": [ 414552.941238980623893, 6185587.93488896638155 ] } },
{ "type": "Feature", "properties": { "fid": 777, "amenity": "bicycle_rental", "name": null }, "geometry": { "type": "Point", "coordinates": [ 414724.374356536020059, 6186830.89497031737119 ] } },
{ "type": "Feature", "properties": { "fid": 778, "amenity": "bicycle_rental", "name": null }, "geometry": { "type": "Point", "coordinates": [ 413765.475171905360185, 6187100.298496496863663 ] } },
{ "type": "Feature", "properties": { "fid": 779, "amenity": "bicycle_rental", "name": null }, "geometry": { "type": "Point", "coordinates": [ 412949.762986673507839, 6187124.705386390909553 ] } },
{ "type": "Feature", "properties": { "fid": 780, "amenity": "bicycle_rental", "name": null }, "geometry": { "type": "Point", "coordinates": [ 413369.85897317272611, 6187395.892705560661852 ] } },
{ "type": "Feature", "properties": { "fid": 781, "amenity": "bicycle_rental", "name": null }, "geometry": { "type": "Point", "coordinates": [ 414653.160828747902997, 6188372.262632430531085 ] } },
{ "type": "Feature", "properties": { "fid": 782, "amenity": "bicycle_rental", "name": null }, "geometry": { "type": "Point", "coordinates": [ 415696.443083096062765, 6188426.008420914411545 ] } },
{ "type": "Feature", "properties": { "fid": 783, "amenity": "bicycle_rental", "name": null }, "geometry": { "type": "Point", "coordinates": [ 414616.76569265651051, 6188805.301818734966218 ] } },
{ "type": "Feature", "properties": { "fid": 828, "amenity": "bicycle_parking", "name": null }, "geometry": { "type": "Point", "coordinates": [ 417158.301093701040372, 6184015.927498193457723 ] } },
{ "type": "Feature", "properties": { "fid": 862, "amenity": "bicycle_parking", "name": null }, "geometry": { "type": "Point", "coordinates": [ 416713.867962252697907, 6184507.817251552827656 ] } },
{ "type": "Feature", "properties": { "fid": 863, "amenity": "bicycle_parking", "name": null }, "geometry": { "type": "Point", "coordinates": [ 416933.984170530922711, 6183862.556236641481519 ] } },
{ "type": "Feature", "properties": { "fid": 864, "amenity": "bicycle_parking", "name": null }, "geometry": { "type": "Point", "coordinates": [ 416863.776710744481534, 6183919.138280646875501 ] } },
{ "type": "Feature", "properties": { "fid": 865, "amenity": "bicycle_parking", "name": null }, "geometry": { "type": "Point", "coordinates": [ 416700.502094230381772, 6183997.354617699980736 ] } },
{ "type": "Feature", "properties": { "fid": 870, "amenity": "bicycle_rental", "name": null }, "geometry": { "type": "Point", "coordinates": [ 414414.753488235524856, 6187275.893166807480156 ] } },
{ "type": "Feature", "properties": { "fid": 871, "amenity": "bicycle_rental", "name": null }, "geometry": { "type": "Point", "coordinates": [ 415264.350960950832814, 6187725.410913251340389 ] } },
{ "type": "Feature", "properties": { "fid": 872, "amenity": "bicycle_rental", "name": null }, "geometry": { "type": "Point", "coordinates": [ 414690.637140976265073, 6189499.155730033293366 ] } },
{ "type": "Feature", "properties": { "fid": 936, "amenity": "bicycle_parking", "name": null }, "geometry": { "type": "Point", "coordinates": [ 413869.068184769479558, 6188393.832952585071325 ] } },
{ "type": "Feature", "properties": { "fid": 937, "amenity": "bicycle_parking", "name": null }, "geometry": { "type": "Point", "coordinates": [ 413845.456883693288546, 6188419.840263093821704 ] } },
{ "type": "Feature", "properties": { "fid": 939, "amenity": "bicycle_parking", "name": null }, "geometry": { "type": "Point", "coordinates": [ 413403.78841728734551, 6188863.535755810327828 ] } },
{ "type": "Feature", "properties": { "fid": 955, "amenity": "bicycle_parking", "name": null }, "geometry": { "type": "Point", "coordinates": [ 414574.303375004965346, 6188246.870560829527676 ] } },
{ "type": "Feature", "properties": { "fid": 1080, "amenity": "bicycle_rental", "name": null }, "geometry": { "type": "Point", "coordinates": [ 414223.811013095313683, 6187646.97324052080512 ] } },
{ "type": "Feature", "properties": { "fid": 1324, "amenity": "bicycle_parking", "name": null }, "geometry": { "type": "Point", "coordinates": [ 412598.630974673433229, 6186065.442198502831161 ] } },
{ "type": "Feature", "properties": { "fid": 1413, "amenity": "bicycle_rental", "name": null }, "geometry": { "type": "Point", "coordinates": [ 416775.401029157161247, 6182865.229657466523349 ] } },
{ "type": "Feature", "properties": { "fid": 1444, "amenity": "bicycle_rental", "name": null }, "geometry": { "type": "Point", "coordinates": [ 416374.043383344484027, 6185791.334625237621367 ] } },
{ "type": "Feature", "properties": { "fid": 1459, "amenity": "bicycle_repair_station", "name": null }, "geometry": { "type": "Point", "coordinates": [ 416994.699580787797458, 6184355.637486066669226 ] } },
{ "type": "Feature", "properties": { "fid": 1519, "amenity": "bicycle_parking", "name": null }, "geometry": { "type": "Point", "coordinates": [ 414658.85918858833611, 6187835.905665346421301 ] } },
{ "type": "Feature", "properties": { "fid": 1548, "amenity": "bicycle_parking", "name": null }, "geometry": { "type": "Point", "coordinates": [ 416021.279492291505449, 6182943.307407001033425 ] } },
{ "type": "Feature", "properties": { "fid": 1649, "amenity": "bicycle_parking", "name": null }, "geometry": { "type": "Point", "coordinates": [ 414482.133140419784468, 6188131.015757400542498 ] } },
{ "type": "Feature", "properties": { "fid": 1736, "amenity": "bicycle_rental", "name": "Good Bike" }, "geometry": { "type": "Point", "coordinates": [ 413413.104182142531499, 6187635.305324649438262 ] } },
{ "type": "Feature", "properties": { "fid": 1748, "amenity": "bicycle_parking", "name": null }, "geometry": { "type": "Point", "coordinates": [ 413350.863184026035015, 6187528.550333430990577 ] } },
{ "type": "Feature", "properties": { "fid": 1783, "amenity": "bicycle_parking", "name": null }, "geometry": { "type": "Point", "coordinates": [ 414938.134520808060188, 6187699.166764797642827 ] } },
{ "type": "Feature", "properties": { "fid": 1789, "amenity": "bicycle_parking", "name": null }, "geometry": { "type": "Point", "coordinates": [ 416524.140570921823382, 6184374.187363164499402 ] } },
{ "type": "Feature", "properties": { "fid": 1791, "amenity": "bicycle_parking", "name": null }, "geometry": { "type": "Point", "coordinates": [ 416525.304109231918119, 6184373.385729417204857 ] } },
{ "type": "Feature", "properties": { "fid": 1792, "amenity": "bicycle_parking", "name": null }, "geometry": { "type": "Point", "coordinates": [ 416243.340705395909026, 6185770.176318177953362 ] } },
{ "type": "Feature", "properties": { "fid": 1793, "amenity": "bicycle_parking", "name": null }, "geometry": { "type": "Point", "coordinates": [ 416189.895353651256301, 6186231.010467944666743 ] } },
{ "type": "Feature", "properties": { "fid": 1799, "amenity": "bicycle_parking", "name": null }, "geometry": { "type": "Point", "coordinates": [ 413757.193291389965452, 6188576.538937354460359 ] } },
{ "type": "Feature", "properties": { "fid": 1802, "amenity": "bicycle_parking", "name": null }, "geometry": { "type": "Point", "coordinates": [ 413098.618165301391855, 6182654.742376537062228 ] } },
{ "type": "Feature", "properties": { "fid": 1886, "amenity": "bicycle_parking", "name": null }, "geometry": { "type": "Point", "coordinates": [ 413215.533386799448635, 6187729.896030214615166 ] } },
{ "type": "Feature", "properties": { "fid": 1999, "amenity": "bicycle_parking", "name": null }, "geometry": { "type": "Point", "coordinates": [ 413217.072140024858527, 6187833.733073831535876 ] } },
{ "type": "Feature", "properties": { "fid": 2006, "amenity": "bicycle_parking", "name": null }, "geometry": { "type": "Point", "coordinates": [ 413236.806432635465171, 6187877.367973405867815 ] } },
{ "type": "Feature", "properties": { "fid": 2008, "amenity": "bicycle_parking", "name": null }, "geometry": { "type": "Point", "coordinates": [ 413219.95232292090077, 6187953.563211445696652 ] } },
{ "type": "Feature", "properties": { "fid": 2026, "amenity": "bicycle_parking", "name": null }, "geometry": { "type": "Point", "coordinates": [ 413223.031769020599313, 6188027.923531174659729 ] } },
{ "type": "Feature", "properties": { "fid": 2132, "amenity": "bicycle_parking", "name": null }, "geometry": { "type": "Point", "coordinates": [ 412680.997102238005027, 6187616.650466521270573 ] } },
{ "type": "Feature", "properties": { "fid": 2133, "amenity": "bicycle_parking", "name": null }, "geometry": { "type": "Point", "coordinates": [ 412772.755529150657821, 6187588.753715888597071 ] } },
{ "type": "Feature", "properties": { "fid": 2139, "amenity": "bicycle_parking", "name": null }, "geometry": { "type": "Point", "coordinates": [ 413253.668350571941119, 6187991.385496796108782 ] } },
{ "type": "Feature", "properties": { "fid": 2234, "amenity": "bicycle_parking", "name": null }, "geometry": { "type": "Point", "coordinates": [ 413362.710698981652968, 6185054.942827889695764 ] } },
{ "type": "Feature", "properties": { "fid": 2260, "amenity": "bicycle_parking", "name": null }, "geometry": { "type": "Point", "coordinates": [ 413473.335891703201924, 6188184.223534592427313 ] } },
{ "type": "Feature", "properties": { "fid": 2261, "amenity": "bicycle_parking", "name": null }, "geometry": { "type": "Point", "coordinates": [ 413415.703516579349525, 6188064.951793177053332 ] } },
{ "type": "Feature", "properties": { "fid": 2275, "amenity": "bicycle_rental", "name": null }, "geometry": { "type": "Point", "coordinates": [ 414465.289715803228319, 6183802.301066128537059 ] } },
{ "type": "Feature", "properties": { "fid": 2291, "amenity": "bicycle_parking", "name": null }, "geometry": { "type": "Point", "coordinates": [ 416290.14408255397575, 6182905.856824705377221 ] } },
{ "type": "Feature", "properties": { "fid": 2325, "amenity": "bicycle_rental", "name": null }, "geometry": { "type": "Point", "coordinates": [ 415293.940477743977681, 6187582.314466608688235 ] } },
{ "type": "Feature", "properties": { "fid": 2326, "amenity": "bicycle_rental", "name": null }, "geometry": { "type": "Point", "coordinates": [ 415221.929775784316007, 6187617.11889149621129 ] } },
{ "type": "Feature", "properties": { "fid": 2327, "amenity": "bicycle_rental", "name": null }, "geometry": { "type": "Point", "coordinates": [ 415036.974746226798743, 6187164.304091152735054 ] } },
{ "type": "Feature", "properties": { "fid": 2328, "amenity": "bicycle_rental", "name": null }, "geometry": { "type": "Point", "coordinates": [ 418133.634869779809378, 6183940.334460492245853 ] } },
{ "type": "Feature", "properties": { "fid": 2329, "amenity": "bicycle_rental", "name": null }, "geometry": { "type": "Point", "coordinates": [ 417683.797215383907314, 6183701.801205385476351 ] } },
{ "type": "Feature", "properties": { "fid": 2330, "amenity": "bicycle_rental", "name": null }, "geometry": { "type": "Point", "coordinates": [ 417220.56433165515773, 6183401.884413414634764 ] } },
{ "type": "Feature", "properties": { "fid": 2331, "amenity": "bicycle_rental", "name": null }, "geometry": { "type": "Point", "coordinates": [ 416972.884168951888569, 6183116.536860334686935 ] } },
{ "type": "Feature", "properties": { "fid": 2332, "amenity": "bicycle_rental", "name": null }, "geometry": { "type": "Point", "coordinates": [ 417114.152324064227287, 6183766.637830692343414 ] } },
{ "type": "Feature", "properties": { "fid": 2333, "amenity": "bicycle_rental", "name": null }, "geometry": { "type": "Point", "coordinates": [ 416196.864306055358611, 6187016.591857900843024 ] } },
{ "type": "Feature", "properties": { "fid": 2334, "amenity": "bicycle_rental", "name": null }, "geometry": { "type": "Point", "coordinates": [ 416417.202003430400509, 6183690.601757236756384 ] } },
{ "type": "Feature", "properties": { "fid": 2335, "amenity": "bicycle_rental", "name": null }, "geometry": { "type": "Point", "coordinates": [ 415981.930949997156858, 6183799.881875075399876 ] } },
{ "type": "Feature", "properties": { "fid": 2336, "amenity": "bicycle_rental", "name": null }, "geometry": { "type": "Point", "coordinates": [ 416211.76423214643728, 6183385.057791826315224 ] } },
{ "type": "Feature", "properties": { "fid": 2337, "amenity": "bicycle_rental", "name": null }, "geometry": { "type": "Point", "coordinates": [ 414815.126370993675664, 6186813.526650155894458 ] } },
{ "type": "Feature", "properties": { "fid": 2338, "amenity": "bicycle_rental", "name": null }, "geometry": { "type": "Point", "coordinates": [ 413281.613096997258253, 6186793.798466418869793 ] } },
{ "type": "Feature", "properties": { "fid": 2339, "amenity": "bicycle_rental", "name": null }, "geometry": { "type": "Point", "coordinates": [ 415199.138089686923195, 6186513.497439532540739 ] } },
{ "type": "Feature", "properties": { "fid": 2340, "amenity": "bicycle_rental", "name": null }, "geometry": { "type": "Point", "coordinates": [ 414675.274050803040154, 6186171.70060417521745 ] } },
{ "type": "Feature", "properties": { "fid": 2341, "amenity": "bicycle_rental", "name": null }, "geometry": { "type": "Point", "coordinates": [ 415623.467446780065075, 6185909.271025096066296 ] } },
{ "type": "Feature", "properties": { "fid": 2342, "amenity": "bicycle_rental", "name": null }, "geometry": { "type": "Point", "coordinates": [ 415119.738726729585323, 6185136.935851782560349 ] } },
{ "type": "Feature", "properties": { "fid": 2343, "amenity": "bicycle_rental", "name": null }, "geometry": { "type": "Point", "coordinates": [ 414734.399619497882668, 6183205.373591804876924 ] } },
{ "type": "Feature", "properties": { "fid": 2344, "amenity": "bicycle_rental", "name": null }, "geometry": { "type": "Point", "coordinates": [ 414615.544921719585545, 6185540.324800862930715 ] } },
{ "type": "Feature", "properties": { "fid": 2345, "amenity": "bicycle_rental", "name": null }, "geometry": { "type": "Point", "coordinates": [ 414519.813774379901588, 6184844.444338247179985 ] } },
{ "type": "Feature", "properties": { "fid": 2346, "amenity": "bicycle_rental", "name": null }, "geometry": { "type": "Point", "coordinates": [ 414300.390364996390417, 6183597.451623894274235 ] } },
{ "type": "Feature", "properties": { "fid": 2348, "amenity": "bicycle_parking", "name": null }, "geometry": { "type": "Point", "coordinates": [ 414243.517949612578377, 6188194.841776272282004 ] } },
{ "type": "Feature", "properties": { "fid": 2426, "amenity": "bicycle_parking", "name": null }, "geometry": { "type": "Point", "coordinates": [ 416902.245957370148972, 6183203.417144807055593 ] } },
{ "type": "Feature", "properties": { "fid": 2476, "amenity": "bicycle_parking", "name": null }, "geometry": { "type": "Point", "coordinates": [ 416236.67128271330148, 6183034.664781928062439 ] } },
{ "type": "Feature", "properties": { "fid": 2479, "amenity": "bicycle_parking", "name": null }, "geometry": { "type": "Point", "coordinates": [ 414235.57684974122094, 6188454.488735823892057 ] } },
{ "type": "Feature", "properties": { "fid": 2480, "amenity": "bicycle_parking", "name": null }, "geometry": { "type": "Point", "coordinates": [ 414247.260053361358587, 6188464.232493917457759 ] } },
{ "type": "Feature", "properties": { "fid": 2482, "amenity": "bicycle_parking", "name": null }, "geometry": { "type": "Point", "coordinates": [ 417857.071497289231047, 6183146.293852226808667 ] } },
{ "type": "Feature", "properties": { "fid": 2505, "amenity": "bicycle_parking", "name": null }, "geometry": { "type": "Point", "coordinates": [ 415593.097976001910865, 6188634.871991467662156 ] } },
{ "type": "Feature", "properties": { "fid": 2533, "amenity": "bicycle_parking", "name": null }, "geometry": { "type": "Point", "coordinates": [ 417095.156949389900547, 6183397.073577824980021 ] } },
{ "type": "Feature", "properties": { "fid": 2534, "amenity": "bicycle_parking", "name": null }, "geometry": { "type": "Point", "coordinates": [ 417119.00766801123973, 6183406.114279107190669 ] } },
{ "type": "Feature", "properties": { "fid": 2539, "amenity": "bicycle_parking", "name": null }, "geometry": { "type": "Point", "coordinates": [ 414681.247654891107231, 6189520.470192751847208 ] } },
{ "type": "Feature", "properties": { "fid": 2559, "amenity": "bicycle_parking", "name": null }, "geometry": { "type": "Point", "coordinates": [ 413964.832425650034565, 6183811.66292133089155 ] } },
{ "type": "Feature", "properties": { "fid": 2576, "amenity": "bicycle_parking", "name": null }, "geometry": { "type": "Point", "coordinates": [ 416726.963534853304736, 6187894.405645254068077 ] } },
{ "type": "Feature", "properties": { "fid": 2583, "amenity": "bicycle_parking", "name": null }, "geometry": { "type": "Point", "coordinates": [ 414230.562231439515017, 6188502.513802755624056 ] } },
{ "type": "Feature", "properties": { "fid": 2660, "amenity": "bicycle_parking", "name": null }, "geometry": { "type": "Point", "coordinates": [ 413114.045221478387248, 6182615.525446813553572 ] } },
{ "type": "Feature", "properties": { "fid": 2667, "amenity": "bicycle_parking", "name": null }, "geometry": { "type": "Point", "coordinates": [ 416674.392877784441225, 6188927.658792911097407 ] } },
{ "type": "Feature", "properties": { "fid": 2673, "amenity": "bicycle_parking", "name": null }, "geometry": { "type": "Point", "coordinates": [ 414406.535818072617985, 6188075.074114544317126 ] } },
{ "type": "Feature", "properties": { "fid": 2681, "amenity": "bicycle_rental", "name": "Крути Педали" }, "geometry": { "type": "Point", "coordinates": [ 416784.517672090325505, 6183883.563297401182353 ] } },
{ "type": "Feature", "properties": { "fid": 2682, "amenity": "bicycle_parking", "name": null }, "geometry": { "type": "Point", "coordinates": [ 414536.352159211528488, 6188313.912855479866266 ] } },
{ "type": "Feature", "properties": { "fid": 2727, "amenity": "bicycle_parking", "name": null }, "geometry": { "type": "Point", "coordinates": [ 412865.431047417107038, 6188023.793794269673526 ] } },
{ "type": "Feature", "properties": { "fid": 2735, "amenity": "bicycle_parking", "name": null }, "geometry": { "type": "Point", "coordinates": [ 412568.884828044567257, 6183093.787198506295681 ] } },
{ "type": "Feature", "properties": { "fid": 2838, "amenity": "bicycle_parking", "name": null }, "geometry": { "type": "Point", "coordinates": [ 413404.776993113395292, 6188075.367471949197352 ] } },
{ "type": "Feature", "properties": { "fid": 2938, "amenity": "bicycle_parking", "name": null }, "geometry": { "type": "Point", "coordinates": [ 415963.807620989624411, 6183081.246905608102679 ] } },
{ "type": "Feature", "properties": { "fid": 3008, "amenity": "bicycle_rental", "name": null }, "geometry": { "type": "Point", "coordinates": [ 413325.13150490768021, 6186732.378416435793042 ] } },
{ "type": "Feature", "properties": { "fid": 3009, "amenity": "bicycle_parking", "name": null }, "geometry": { "type": "Point", "coordinates": [ 414771.397029790445231, 6185602.899097804911435 ] } },
{ "type": "Feature", "properties": { "fid": 3012, "amenity": "bicycle_parking", "name": null }, "geometry": { "type": "Point", "coordinates": [ 415593.369907153421082, 6189029.202671852894127 ] } },
{ "type": "Feature", "properties": { "fid": 3045, "amenity": "bicycle_parking", "name": null }, "geometry": { "type": "Point", "coordinates": [ 415981.717792780662421, 6187023.436041573993862 ] } },
{ "type": "Feature", "properties": { "fid": 3046, "amenity": "bicycle_parking", "name": null }, "geometry": { "type": "Point", "coordinates": [ 414254.18145714700222, 6182620.78435465041548 ] } },
{ "type": "Feature", "properties": { "fid": 3078, "amenity": "bicycle_parking", "name": null }, "geometry": { "type": "Point", "coordinates": [ 413566.047443938674405, 6186522.186602649278939 ] } },
{ "type": "Feature", "properties": { "fid": 3084, "amenity": "bicycle_parking", "name": null }, "geometry": { "type": "Point", "coordinates": [ 414350.086656840401702, 6186550.880432784557343 ] } },
{ "type": "Feature", "properties": { "fid": 3086, "amenity": "bicycle_parking", "name": null }, "geometry": { "type": "Point", "coordinates": [ 416455.101195481955074, 6187934.266999431885779 ] } },
{ "type": "Feature", "properties": { "fid": 3148, "amenity": "bicycle_parking", "name": null }, "geometry": { "type": "Point", "coordinates": [ 417857.704930789128412, 6183137.331543329171836 ] } },
{ "type": "Feature", "properties": { "fid": 3170, "amenity": "bicycle_parking", "name": null }, "geometry": { "type": "Point", "coordinates": [ 413154.579540029284544, 6188450.788316584192216 ] } },
{ "type": "Feature", "properties": { "fid": 3171, "amenity": "bicycle_parking", "name": null }, "geometry": { "type": "Point", "coordinates": [ 413116.973795175203122, 6188278.428299910388887 ] } },
{ "type": "Feature", "properties": { "fid": 3243, "amenity": "bicycle_parking", "name": null }, "geometry": { "type": "Point", "coordinates": [ 415614.030975827598013, 6183157.52699447888881 ] } },
{ "type": "Feature", "properties": { "fid": 3365, "amenity": "bicycle_parking", "name": null }, "geometry": { "type": "Point", "coordinates": [ 412664.379556372936349, 6187503.743105100467801 ] } },
{ "type": "Feature", "properties": { "fid": 3465, "amenity": "bicycle_parking", "name": null }, "geometry": { "type": "Point", "coordinates": [ 415911.975668771076016, 6186915.733678807504475 ] } },
{ "type": "Feature", "properties": { "fid": 3502, "amenity": "bicycle_parking", "name": null }, "geometry": { "type": "Point", "coordinates": [ 414328.065007175027858, 6190030.497225410304964 ] } },
{ "type": "Feature", "properties": { "fid": 3503, "amenity": "bicycle_parking", "name": null }, "geometry": { "type": "Point", "coordinates": [ 414355.171235201647505, 6189985.174927820451558 ] } },
{ "type": "Feature", "properties": { "fid": 3530, "amenity": "bicycle_parking", "name": null }, "geometry": { "type": "Point", "coordinates": [ 414219.214716441580094, 6182798.548233079724014 ] } },
{ "type": "Feature", "properties": { "fid": 3531, "amenity": "bicycle_parking", "name": null }, "geometry": { "type": "Point", "coordinates": [ 414192.574934216972906, 6182549.683843277394772 ] } },
{ "type": "Feature", "properties": { "fid": 3627, "amenity": "bicycle_rental", "name": null }, "geometry": { "type": "Point", "coordinates": [ 413900.337096139206551, 6187857.543351711705327 ] } },
{ "type": "Feature", "properties": { "fid": 3676, "amenity": "bicycle_parking", "name": null }, "geometry": { "type": "Point", "coordinates": [ 414320.90404405631125, 6183343.548452897928655 ] } },
{ "type": "Feature", "properties": { "fid": 3709, "amenity": "bicycle_parking", "name": null }, "geometry": { "type": "Point", "coordinates": [ 414593.60171251592692, 6183072.73508966062218 ] } },
{ "type": "Feature", "properties": { "fid": 3759, "amenity": "bicycle_parking", "name": null }, "geometry": { "type": "Point", "coordinates": [ 414612.896738506387919, 6185499.086347036063671 ] } },
{ "type": "Feature", "properties": { "fid": 3775, "amenity": "bicycle_parking", "name": null }, "geometry": { "type": "Point", "coordinates": [ 415180.950625024619512, 6186080.99902843311429 ] } },
{ "type": "Feature", "properties": { "fid": 3804, "amenity": "bicycle_rental", "name": null }, "geometry": { "type": "Point", "coordinates": [ 416067.715563239937183, 6186157.916231584735215 ] } },
{ "type": "Feature", "properties": { "fid": 3886, "amenity": "bicycle_parking", "name": null }, "geometry": { "type": "Point", "coordinates": [ 415644.959742268547416, 6183229.108847170136869 ] } },
{ "type": "Feature", "properties": { "fid": 3891, "amenity": "bicycle_rental", "name": null }, "geometry": { "type": "Point", "coordinates": [ 414845.639263516524807, 6189792.468551458790898 ] } },
{ "type": "Feature", "properties": { "fid": 3892, "amenity": "bicycle_repair_station", "name": null }, "geometry": { "type": "Point", "coordinates": [ 416789.162230116548017, 6183881.782189374789596 ] } },
{ "type": "Feature", "properties": { "fid": 3896, "amenity": "bicycle_parking", "name": null }, "geometry": { "type": "Point", "coordinates": [ 415963.252266832161695, 6183054.484259285964072 ] } },
{ "type": "Feature", "properties": { "fid": 3897, "amenity": "bicycle_parking", "name": null }, "geometry": { "type": "Point", "coordinates": [ 415938.363906675309408, 6183086.392521367408335 ] } },
{ "type": "Feature", "properties": { "fid": 3899, "amenity": "bicycle_parking", "name": null }, "geometry": { "type": "Point", "coordinates": [ 416043.278302813938353, 6183111.39304780960083 ] } },
{ "type": "Feature", "properties": { "fid": 3918, "amenity": "bicycle_parking", "name": null }, "geometry": { "type": "Point", "coordinates": [ 414345.641631983511616, 6189944.116867924109101 ] } },
{ "type": "Feature", "properties": { "fid": 3926, "amenity": "bicycle_parking", "name": null }, "geometry": { "type": "Point", "coordinates": [ 414250.102368165855296, 6189914.278044999577105 ] } },
{ "type": "Feature", "properties": { "fid": 3986, "amenity": "bicycle_parking", "name": null }, "geometry": { "type": "Point", "coordinates": [ 414207.467722824192606, 6190123.981200411915779 ] } },
{ "type": "Feature", "properties": { "fid": 3988, "amenity": "bicycle_parking", "name": null }, "geometry": { "type": "Point", "coordinates": [ 414346.270348683348857, 6189905.574422093108296 ] } },
{ "type": "Feature", "properties": { "fid": 3989, "amenity": "bicycle_parking", "name": null }, "geometry": { "type": "Point", "coordinates": [ 414096.293150005454663, 6189927.955522212199867 ] } },
{ "type": "Feature", "properties": { "fid": 4005, "amenity": "bicycle_parking", "name": null }, "geometry": { "type": "Point", "coordinates": [ 414202.259253022028133, 6189918.453336101956666 ] } },
{ "type": "Feature", "properties": { "fid": 4008, "amenity": "bicycle_parking", "name": null }, "geometry": { "type": "Point", "coordinates": [ 414268.913825526251458, 6190192.42215880472213 ] } },
{ "type": "Feature", "properties": { "fid": 4019, "amenity": "bicycle_parking", "name": null }, "geometry": { "type": "Point", "coordinates": [ 414167.840980959474109, 6189921.506061460822821 ] } },
{ "type": "Feature", "properties": { "fid": 4020, "amenity": "bicycle_parking", "name": null }, "geometry": { "type": "Point", "coordinates": [ 414261.776504018169362, 6189999.423256874084473 ] } },
{ "type": "Feature", "properties": { "fid": 4021, "amenity": "bicycle_parking", "name": null }, "geometry": { "type": "Point", "coordinates": [ 414287.117109657498077, 6189948.769521905109286 ] } },
{ "type": "Feature", "properties": { "fid": 4022, "amenity": "bicycle_parking", "name": null }, "geometry": { "type": "Point", "coordinates": [ 414333.304781727259979, 6189977.146287050098181 ] } },
{ "type": "Feature", "properties": { "fid": 4033, "amenity": "bicycle_rental", "name": null }, "geometry": { "type": "Point", "coordinates": [ 414335.16845006053336, 6182808.506090186536312 ] } },
{ "type": "Feature", "properties": { "fid": 4197, "amenity": "bicycle_rental", "name": null }, "geometry": { "type": "Point", "coordinates": [ 414692.214610373950563, 6187674.417341836728156 ] } },
{ "type": "Feature", "properties": { "fid": 4290, "amenity": "bicycle_parking", "name": null }, "geometry": { "type": "Point", "coordinates": [ 414386.567275841254741, 6188549.872665772214532 ] } },
{ "type": "Feature", "properties": { "fid": 4291, "amenity": "bicycle_parking", "name": null }, "geometry": { "type": "Point", "coordinates": [ 414383.28690002206713, 6188513.511571199633181 ] } },
{ "type": "Feature", "properties": { "fid": 4292, "amenity": "bicycle_parking", "name": null }, "geometry": { "type": "Point", "coordinates": [ 417168.834585291915573, 6183954.632423557341099 ] } },
{ "type": "Feature", "properties": { "fid": 4312, "amenity": "bicycle_parking", "name": null }, "geometry": { "type": "Point", "coordinates": [ 416923.633773978450336, 6184122.42703827470541 ] } },
{ "type": "Feature", "properties": { "fid": 4319, "amenity": "bicycle_parking", "name": null }, "geometry": { "type": "Point", "coordinates": [ 417043.770309038169216, 6184256.512583379633725 ] } },
{ "type": "Feature", "properties": { "fid": 4358, "amenity": "bicycle_parking", "name": null }, "geometry": { "type": "Point", "coordinates": [ 417695.448186027992051, 6183102.530760261230171 ] } },
{ "type": "Feature", "properties": { "fid": 4379, "amenity": "bicycle_parking", "name": null }, "geometry": { "type": "Point", "coordinates": [ 414572.371625191473868, 6183515.969652844592929 ] } },
{ "type": "Feature", "properties": { "fid": 4404, "amenity": "bicycle_parking", "name": null }, "geometry": { "type": "Point", "coordinates": [ 417139.243529307306744, 6184098.503260442987084 ] } },
{ "type": "Feature", "properties": { "fid": 4430, "amenity": "bicycle_parking", "name": null }, "geometry": { "type": "Point", "coordinates": [ 416227.241030715813395, 6183987.421717641875148 ] } },
{ "type": "Feature", "properties": { "fid": 4431, "amenity": "bicycle_parking", "name": null }, "geometry": { "type": "Point", "coordinates": [ 416115.526197571540251, 6184195.583082772791386 ] } },
{ "type": "Feature", "properties": { "fid": 4487, "amenity": "bicycle_parking", "name": null }, "geometry": { "type": "Point", "coordinates": [ 416387.376892126805615, 6184107.481960932724178 ] } },
{ "type": "Feature", "properties": { "fid": 4566, "amenity": "bicycle_parking", "name": null }, "geometry": { "type": "Point", "coordinates": [ 417117.882245017797686, 6183754.710732433013618 ] } },
{ "type": "Feature", "properties": { "fid": 4636, "amenity": "bicycle_parking", "name": null }, "geometry": { "type": "Point", "coordinates": [ 417092.484354138316121, 6183574.818568232469261 ] } },
{ "type": "Feature", "properties": { "fid": 4820, "amenity": "bicycle_parking", "name": null }, "geometry": { "type": "Point", "coordinates": [ 416700.336575515335426, 6184484.988310479559004 ] } },
{ "type": "Feature", "properties": { "fid": 4834, "amenity": "bicycle_rental", "name": null }, "geometry": { "type": "Point", "coordinates": [ 416234.518541521392763, 6186181.589252531528473 ] } },
{ "type": "Feature", "properties": { "fid": 4915, "amenity": "bicycle_parking", "name": null }, "geometry": { "type": "Point", "coordinates": [ 416405.929989402880892, 6184231.0726348021999 ] } },
{ "type": "Feature", "properties": { "fid": 4922, "amenity": "bicycle_parking", "name": null }, "geometry": { "type": "Point", "coordinates": [ 416306.43905016744975, 6184356.769994436763227 ] } },
{ "type": "Feature", "properties": { "fid": 4932, "amenity": "bicycle_parking", "name": null }, "geometry": { "type": "Point", "coordinates": [ 416408.31345701625105, 6184097.193353176116943 ] } },
{ "type": "Feature", "properties": { "fid": 4933, "amenity": "bicycle_parking", "name": null }, "geometry": { "type": "Point", "coordinates": [ 416408.73974095878657, 6184098.487635248340666 ] } },
{ "type": "Feature", "properties": { "fid": 4952, "amenity": "bicycle_rental", "name": null }, "geometry": { "type": "Point", "coordinates": [ 417082.035908318357542, 6183771.325300662778318 ] } },
{ "type": "Feature", "properties": { "fid": 4953, "amenity": "bicycle_parking", "name": null }, "geometry": { "type": "Point", "coordinates": [ 416658.210491122212261, 6184496.494874547235668 ] } },
{ "type": "Feature", "properties": { "fid": 4957, "amenity": "bicycle_parking", "name": null }, "geometry": { "type": "Point", "coordinates": [ 414857.527118272730149, 6188253.379460152238607 ] } },
{ "type": "Feature", "properties": { "fid": 4958, "amenity": "bicycle_parking", "name": null }, "geometry": { "type": "Point", "coordinates": [ 413530.464300403546076, 6188371.381841637194157 ] } },
{ "type": "Feature", "properties": { "fid": 4959, "amenity": "bicycle_parking", "name": null }, "geometry": { "type": "Point", "coordinates": [ 413616.010446236701682, 6188422.222989410161972 ] } },
{ "type": "Feature", "properties": { "fid": 4960, "amenity": "bicycle_parking", "name": null }, "geometry": { "type": "Point", "coordinates": [ 413679.929108213458676, 6188480.420753273181617 ] } },
{ "type": "Feature", "properties": { "fid": 4961, "amenity": "bicycle_rental", "name": null }, "geometry": { "type": "Point", "coordinates": [ 413530.054301444324665, 6188391.03916132170707 ] } },
{ "type": "Feature", "properties": { "fid": 4962, "amenity": "bicycle_parking", "name": null }, "geometry": { "type": "Point", "coordinates": [ 413524.782604290521704, 6188326.819778276607394 ] } },
{ "type": "Feature", "properties": { "fid": 4963, "amenity": "bicycle_parking", "name": null }, "geometry": { "type": "Point", "coordinates": [ 413526.497435075812973, 6188286.819338511675596 ] } },
{ "type": "Feature", "properties": { "fid": 4964, "amenity": "bicycle_parking", "name": null }, "geometry": { "type": "Point", "coordinates": [ 413578.147861375822686, 6188301.765059556812048 ] } },
{ "type": "Feature", "properties": { "fid": 4965, "amenity": "bicycle_parking", "name": null }, "geometry": { "type": "Point", "coordinates": [ 413696.74916021944955, 6188548.618546044453979 ] } },
{ "type": "Feature", "properties": { "fid": 4966, "amenity": "bicycle_parking", "name": null }, "geometry": { "type": "Point", "coordinates": [ 413930.03684775106376, 6188277.04344089794904 ] } },
{ "type": "Feature", "properties": { "fid": 4967, "amenity": "bicycle_parking", "name": null }, "geometry": { "type": "Point", "coordinates": [ 414028.448002864141017, 6188301.286390514113009 ] } },
{ "type": "Feature", "properties": { "fid": 4968, "amenity": "bicycle_parking", "name": null }, "geometry": { "type": "Point", "coordinates": [ 414021.661224549286999, 6188295.220073915086687 ] } },
{ "type": "Feature", "properties": { "fid": 4969, "amenity": "bicycle_parking", "name": null }, "geometry": { "type": "Point", "coordinates": [ 414391.905661086260807, 6188090.336219689808786 ] } },
{ "type": "Feature", "properties": { "fid": 4970, "amenity": "bicycle_parking", "name": null }, "geometry": { "type": "Point", "coordinates": [ 414286.615167234092951, 6188562.957628678530455 ] } },
{ "type": "Feature", "properties": { "fid": 4971, "amenity": "bicycle_parking", "name": null }, "geometry": { "type": "Point", "coordinates": [ 414410.453223210002761, 6187990.366865906864405 ] } },
{ "type": "Feature", "properties": { "fid": 4972, "amenity": "bicycle_parking", "name": null }, "geometry": { "type": "Point", "coordinates": [ 414496.711410738178529, 6188278.045803466811776 ] } },
{ "type": "Feature", "properties": { "fid": 4974, "amenity": "bicycle_parking", "name": null }, "geometry": { "type": "Point", "coordinates": [ 414457.579484705638606, 6188304.533823206089437 ] } },
{ "type": "Feature", "properties": { "fid": 4975, "amenity": "bicycle_parking", "name": null }, "geometry": { "type": "Point", "coordinates": [ 414320.554915364540648, 6188478.380432785488665 ] } },
{ "type": "Feature", "properties": { "fid": 4976, "amenity": "bicycle_parking", "name": null }, "geometry": { "type": "Point", "coordinates": [ 414299.729038937017322, 6188547.791864015161991 ] } },
{ "type": "Feature", "properties": { "fid": 4977, "amenity": "bicycle_parking", "name": null }, "geometry": { "type": "Point", "coordinates": [ 414306.891130033414811, 6188540.236002393066883 ] } },
{ "type": "Feature", "properties": { "fid": 4978, "amenity": "bicycle_parking", "name": null }, "geometry": { "type": "Point", "coordinates": [ 414110.588898788031656, 6188673.269392554648221 ] } },
{ "type": "Feature", "properties": { "fid": 4979, "amenity": "bicycle_parking", "name": null }, "geometry": { "type": "Point", "coordinates": [ 413849.817779441713355, 6188794.778860935010016 ] } },
{ "type": "Feature", "properties": { "fid": 4981, "amenity": "bicycle_parking", "name": null }, "geometry": { "type": "Point", "coordinates": [ 413836.589973804890178, 6188816.705837669782341 ] } },
{ "type": "Feature", "properties": { "fid": 4983, "amenity": "bicycle_parking", "name": null }, "geometry": { "type": "Point", "coordinates": [ 413980.69523122056853, 6188808.957239107228816 ] } },
{ "type": "Feature", "properties": { "fid": 4984, "amenity": "bicycle_parking", "name": null }, "geometry": { "type": "Point", "coordinates": [ 413727.134152276383247, 6188786.920563276857138 ] } },
{ "type": "Feature", "properties": { "fid": 4985, "amenity": "bicycle_parking", "name": null }, "geometry": { "type": "Point", "coordinates": [ 413493.422632662230171, 6188943.515902496874332 ] } },
{ "type": "Feature", "properties": { "fid": 4986, "amenity": "bicycle_parking", "name": null }, "geometry": { "type": "Point", "coordinates": [ 413156.087805591290817, 6188892.069179692305624 ] } },
{ "type": "Feature", "properties": { "fid": 4987, "amenity": "bicycle_parking", "name": null }, "geometry": { "type": "Point", "coordinates": [ 412672.379491993400734, 6187506.409748292528093 ] } },
{ "type": "Feature", "properties": { "fid": 4988, "amenity": "bicycle_parking", "name": null }, "geometry": { "type": "Point", "coordinates": [ 413407.470231009996496, 6189026.233117219991982 ] } },
{ "type": "Feature", "properties": { "fid": 4989, "amenity": "bicycle_parking", "name": null }, "geometry": { "type": "Point", "coordinates": [ 413089.327837829012424, 6188781.278348371386528 ] } },
{ "type": "Feature", "properties": { "fid": 4993, "amenity": "bicycle_parking", "name": null }, "geometry": { "type": "Point", "coordinates": [ 416095.487599419313483, 6183286.776879554614425 ] } },
{ "type": "Feature", "properties": { "fid": 5003, "amenity": "bicycle_parking", "name": null }, "geometry": { "type": "Point", "coordinates": [ 417094.283956750994548, 6182761.992204739712179 ] } },
{ "type": "Feature", "properties": { "fid": 5033, "amenity": "bicycle_parking", "name": null }, "geometry": { "type": "Point", "coordinates": [ 413970.790155576833058, 6188711.05299464892596 ] } },
{ "type": "Feature", "properties": { "fid": 5079, "amenity": "bicycle_parking", "name": null }, "geometry": { "type": "Point", "coordinates": [ 413563.267226975993253, 6188783.270867250859737 ] } },
{ "type": "Feature", "properties": { "fid": 5172, "amenity": "bicycle_parking", "name": null }, "geometry": { "type": "Point", "coordinates": [ 416732.049498869571835, 6183692.89225946366787 ] } }
]
}
