{
"type": "FeatureCollection",
"name": "cars_infrastructure",
"crs": { "type": "name", "properties": { "name": "urn:ogc:def:crs:EPSG::32637" } },
"features": [
{ "type": "Feature", "properties": { "fid": 1154, "addr:housenumber": "40", "addr:street": "Сельскохозяйственная улица", "amenity": "fuel", "name": "Шелл" }, "geometry": { "type": "Point", "coordinates": [ 414070.285285066347569, 6190043.420529403723776 ] } },
{ "type": "Feature", "properties": { "fid": 1169, "addr:housenumber": "вл13А", "addr:street": "улица Академика Королёва", "amenity": "fuel", "name": "Роснефть" }, "geometry": { "type": "Point", "coordinates": [ 413435.476964474190027, 6187023.733592263422906 ] } },
{ "type": "Feature", "properties": { "fid": 1170, "addr:housenumber": null, "addr:street": null, "amenity": "fuel", "name": "ЕКА" }, "geometry": { "type": "Point", "coordinates": [ 417820.811587858130224, 6183052.816178567707539 ] } },
{ "type": "Feature", "properties": { "fid": 1205, "addr:housenumber": "2Г с1", "addr:street": "улица Сокольнический Вал", "amenity": "fuel", "name": "Газпромнефть" }, "geometry": { "type": "Point", "coordinates": [ 415598.799138616013806, 6183885.41052211727947 ] } },
{ "type": "Feature", "properties": { "fid": 1259, "addr:housenumber": "вл1", "addr:street": "1-я Мытищинская улица", "amenity": "fuel", "name": "Лукойл" }, "geometry": { "type": "Point", "coordinates": [ 414743.067386634706054, 6184363.453038775362074 ] } },
{ "type": "Feature", "properties": { "fid": 1270, "addr:housenumber": "36", "addr:street": "Трифоновская улица", "amenity": "fuel", "name": "Лукойл Аи-95" }, "geometry": { "type": "Point", "coordinates": [ 413786.147616500093136, 6183409.546861120499671 ] } },
{ "type": "Feature", "properties": { "fid": 1362, "addr:housenumber": null, "addr:street": null, "amenity": "fuel", "name": "Shell" }, "geometry": { "type": "Point", "coordinates": [ 417910.700886290054768, 6185878.932516010478139 ] } },
{ "type": "Feature", "properties": { "fid": 1372, "addr:housenumber": "94", "addr:street": "проспект Мира", "amenity": "fuel", "name": "Роснефть" }, "geometry": { "type": "Point", "coordinates": [ 414411.969611946959049, 6184074.221193850040436 ] } },
{ "type": "Feature", "properties": { "fid": 1463, "addr:housenumber": "10", "addr:street": "17-й проезд Марьиной Рощи", "amenity": "fuel", "name": "Лукойл" }, "geometry": { "type": "Point", "coordinates": [ 413072.374246224353556, 6185812.77448526583612 ] } },
{ "type": "Feature", "properties": { "fid": 1476, "addr:housenumber": null, "addr:street": null, "amenity": "fuel", "name": "Нефтьмагистраль" }, "geometry": { "type": "Point", "coordinates": [ 415563.411448932543863, 6188016.339257623068988 ] } },
{ "type": "Feature", "properties": { "fid": 1491, "addr:housenumber": "Вл3", "addr:street": "Рижская площадь", "amenity": "fuel", "name": "Shell" }, "geometry": { "type": "Point", "coordinates": [ 414348.885875040548854, 6183919.547570420429111 ] } },
{ "type": "Feature", "properties": { "fid": 1650, "addr:housenumber": null, "addr:street": null, "amenity": "fuel", "name": "Роснефть" }, "geometry": { "type": "Point", "coordinates": [ 417571.405444297823124, 6190058.271079588681459 ] } },
{ "type": "Feature", "properties": { "fid": 1927, "addr:housenumber": null, "addr:street": null, "amenity": "fuel", "name": null }, "geometry": { "type": "Point", "coordinates": [ 412547.298004313488491, 6183979.514382613822818 ] } },
{ "type": "Feature", "properties": { "fid": 1978, "addr:housenumber": "2", "addr:street": "улица Докукина", "amenity": "fuel", "name": "Лукойл" }, "geometry": { "type": "Point", "coordinates": [ 415885.771506042801775, 6188833.092856405302882 ] } },
{ "type": "Feature", "properties": { "fid": 1, "addr:housenumber": null, "addr:street": null, "amenity": "fuel", "name": "BP Марьина Роща" }, "geometry": { "type": "Point", "coordinates": [ 413286.341278415580746, 6185173.39348479360342 ] } },
{ "type": "Feature", "properties": { "fid": 2, "addr:housenumber": null, "addr:street": null, "amenity": "fuel", "name": "Лукойл" }, "geometry": { "type": "Point", "coordinates": [ 413638.838598705420736, 6182874.303310631774366 ] } },
{ "type": "Feature", "properties": { "fid": 3, "addr:housenumber": "142", "addr:street": "улица Проспект Мира", "amenity": "fuel", "name": "Роснефть" }, "geometry": { "type": "Point", "coordinates": [ 414876.004658574587665, 6186851.596245713531971 ] } },
{ "type": "Feature", "properties": { "fid": 5, "addr:housenumber": null, "addr:street": null, "amenity": "fuel", "name": "Роснефть" }, "geometry": { "type": "Point", "coordinates": [ 413493.486089751124382, 6190156.331404852680862 ] } },
{ "type": "Feature", "properties": { "fid": 7, "addr:housenumber": null, "addr:street": null, "amenity": "fuel", "name": "Роснефть" }, "geometry": { "type": "Point", "coordinates": [ 414594.434053438249975, 6188918.948949184268713 ] } },
{ "type": "Feature", "properties": { "fid": 8, "addr:housenumber": null, "addr:street": null, "amenity": "fuel", "name": "Газпромнефть" }, "geometry": { "type": "Point", "coordinates": [ 412649.056921815848909, 6185879.156834466382861 ] } },
{ "type": "Feature", "properties": { "fid": 9, "addr:housenumber": null, "addr:street": null, "amenity": "fuel", "name": "ЕКА" }, "geometry": { "type": "Point", "coordinates": [ 417161.863986395474058, 6186604.518300666473806 ] } },
{ "type": "Feature", "properties": { "fid": 10, "addr:housenumber": null, "addr:street": null, "amenity": "fuel", "name": "Роснефть" }, "geometry": { "type": "Point", "coordinates": [ 413324.002689388697036, 6186687.480743645690382 ] } },
{ "type": "Feature", "properties": { "fid": 11, "addr:housenumber": null, "addr:street": null, "amenity": "fuel", "name": "Газпромнефть" }, "geometry": { "type": "Point", "coordinates": [ 413461.074853487021755, 6185294.758885017596185 ] } },
{ "type": "Feature", "properties": { "fid": 13, "addr:housenumber": null, "addr:street": null, "amenity": "fuel", "name": "Лукойл" }, "geometry": { "type": "Point", "coordinates": [ 415393.902007705008145, 6186071.988422964699566 ] } },
{ "type": "Feature", "properties": { "fid": 28, "addr:housenumber": null, "addr:street": null, "amenity": "fuel", "name": "ЕКА" }, "geometry": { "type": "Point", "coordinates": [ 416172.670833183976356, 6187024.595926909707487 ] } },
{ "type": "Feature", "properties": { "fid": 29, "addr:housenumber": null, "addr:street": null, "amenity": "fuel", "name": "ТрансАЗС" }, "geometry": { "type": "Point", "coordinates": [ 416273.485189851140603, 6182831.123473561368883 ] } },
{ "type": "Feature", "properties": { "fid": 131, "addr:housenumber": null, "addr:street": null, "amenity": "fuel", "name": "Shell" }, "geometry": { "type": "Point", "coordinates": [ 414803.57767502090428, 6183650.283890869468451 ] } },
{ "type": "Feature", "properties": { "fid": 137, "addr:housenumber": null, "addr:street": null, "amenity": "fuel", "name": "Лукойл" }, "geometry": { "type": "Point", "coordinates": [ 415823.904297653120011, 6189594.716045399196446 ] } },
{ "type": "Feature", "properties": { "fid": 187, "addr:housenumber": "20", "addr:street": "проезд Серебрякова", "amenity": "fuel", "name": "Газпромнефть" }, "geometry": { "type": "Point", "coordinates": [ 416685.892836831975728, 6189862.607855666428804 ] } },
{ "type": "Feature", "properties": { "fid": 195, "addr:housenumber": null, "addr:street": null, "amenity": "fuel", "name": "Газпромнефть" }, "geometry": { "type": "Point", "coordinates": [ 417278.978549191553611, 6186414.581362004391849 ] } },
{ "type": "Feature", "properties": { "fid": 276, "addr:housenumber": null, "addr:street": null, "amenity": "fuel", "name": "ЕКА" }, "geometry": { "type": "Point", "coordinates": [ 413279.256326991657261, 6185887.626262225210667 ] } },
{ "type": "Feature", "properties": { "fid": 1051, "addr:housenumber": null, "addr:street": null, "amenity": "fuel", "name": "Роснефть" }, "geometry": { "type": "Point", "coordinates": [ 414201.69783162989188, 6187105.542824518866837 ] } },
{ "type": "Feature", "properties": { "fid": 3173, "addr:housenumber": null, "addr:street": null, "amenity": "fuel", "name": "Shell" }, "geometry": { "type": "Point", "coordinates": [ 415652.367048239742871, 6183710.66465656273067 ] } },
{ "type": "Feature", "properties": { "fid": 3779, "addr:housenumber": null, "addr:street": null, "amenity": "fuel", "name": "Газпромнефть" }, "geometry": { "type": "Point", "coordinates": [ 416985.497553360823076, 6190155.497815703041852 ] } },
{ "type": "Feature", "properties": { "fid": 4458, "addr:housenumber": null, "addr:street": null, "amenity": "fuel", "name": null }, "geometry": { "type": "Point", "coordinates": [ 412940.359279072959907, 6182586.283501939848065 ] } },
{ "type": "Feature", "properties": { "fid": 61, "addr:housenumber": null, "addr:street": null, "amenity": "car_wash", "name": null }, "geometry": { "type": "Point", "coordinates": [ 413612.981965668848716, 6182887.66434785630554 ] } },
{ "type": "Feature", "properties": { "fid": 113, "addr:housenumber": null, "addr:street": null, "amenity": "car_wash", "name": null }, "geometry": { "type": "Point", "coordinates": [ 416139.278870503650978, 6183349.274469316005707 ] } },
{ "type": "Feature", "properties": { "fid": 114, "addr:housenumber": null, "addr:street": null, "amenity": "car_wash", "name": null }, "geometry": { "type": "Point", "coordinates": [ 416004.940218050498515, 6183366.130696118809283 ] } },
{ "type": "Feature", "properties": { "fid": 189, "addr:housenumber": null, "addr:street": null, "amenity": "car_wash", "name": null }, "geometry": { "type": "Point", "coordinates": [ 416377.939604678540491, 6183457.032350205816329 ] } },
{ "type": "Feature", "properties": { "fid": 223, "addr:housenumber": null, "addr:street": null, "amenity": "car_wash", "name": null }, "geometry": { "type": "Point", "coordinates": [ 414652.235575617640279, 6186498.927093251608312 ] } },
{ "type": "Feature", "properties": { "fid": 238, "addr:housenumber": null, "addr:street": null, "amenity": "car_wash", "name": null }, "geometry": { "type": "Point", "coordinates": [ 414872.296199207659811, 6184975.951308958232403 ] } },
{ "type": "Feature", "properties": { "fid": 252, "addr:housenumber": null, "addr:street": null, "amenity": "car_wash", "name": null }, "geometry": { "type": "Point", "coordinates": [ 412922.361857132753357, 6183317.822715997695923 ] } },
{ "type": "Feature", "properties": { "fid": 268, "addr:housenumber": null, "addr:street": null, "amenity": "car_wash", "name": null }, "geometry": { "type": "Point", "coordinates": [ 414934.524128378892783, 6184446.684136969037354 ] } },
{ "type": "Feature", "properties": { "fid": 269, "addr:housenumber": null, "addr:street": null, "amenity": "car_wash", "name": null }, "geometry": { "type": "Point", "coordinates": [ 413027.962344973289873, 6185824.801269645802677 ] } },
{ "type": "Feature", "properties": { "fid": 275, "addr:housenumber": null, "addr:street": null, "amenity": "car_wash", "name": null }, "geometry": { "type": "Point", "coordinates": [ 413294.75727523304522, 6185897.547446392476559 ] } },
{ "type": "Feature", "properties": { "fid": 277, "addr:housenumber": null, "addr:street": null, "amenity": "car_wash", "name": null }, "geometry": { "type": "Point", "coordinates": [ 412675.378221273305826, 6182627.848910249769688 ] } },
{ "type": "Feature", "properties": { "fid": 293, "addr:housenumber": null, "addr:street": null, "amenity": "car_wash", "name": null }, "geometry": { "type": "Point", "coordinates": [ 418216.467984530027024, 6184665.464657661505044 ] } },
{ "type": "Feature", "properties": { "fid": 599, "addr:housenumber": null, "addr:street": null, "amenity": "car_wash", "name": null }, "geometry": { "type": "Point", "coordinates": [ 415518.333196662482806, 6185961.156345969066024 ] } },
{ "type": "Feature", "properties": { "fid": 637, "addr:housenumber": null, "addr:street": null, "amenity": "car_wash", "name": null }, "geometry": { "type": "Point", "coordinates": [ 414480.114960686711129, 6183109.30034701153636 ] } },
{ "type": "Feature", "properties": { "fid": 722, "addr:housenumber": null, "addr:street": null, "amenity": "car_wash", "name": null }, "geometry": { "type": "Point", "coordinates": [ 415562.426774977415334, 6187995.283107062801719 ] } },
{ "type": "Feature", "properties": { "fid": 729, "addr:housenumber": null, "addr:street": null, "amenity": "car_wash", "name": "Грейтек" }, "geometry": { "type": "Point", "coordinates": [ 412943.969104544608854, 6185664.505076411180198 ] } },
{ "type": "Feature", "properties": { "fid": 979, "addr:housenumber": null, "addr:street": null, "amenity": "car_wash", "name": null }, "geometry": { "type": "Point", "coordinates": [ 415853.165024377289228, 6187299.062628857791424 ] } },
{ "type": "Feature", "properties": { "fid": 1042, "addr:housenumber": null, "addr:street": null, "amenity": "car_wash", "name": null }, "geometry": { "type": "Point", "coordinates": [ 413291.192543510813266, 6183206.176851725205779 ] } },
{ "type": "Feature", "properties": { "fid": 1054, "addr:housenumber": null, "addr:street": null, "amenity": "car_rental", "name": "Avis" }, "geometry": { "type": "Point", "coordinates": [ 413387.863141675130464, 6186896.434304939582944 ] } },
{ "type": "Feature", "properties": { "fid": 1076, "addr:housenumber": null, "addr:street": null, "amenity": "car_wash", "name": null }, "geometry": { "type": "Point", "coordinates": [ 413734.721345702302642, 6187233.911362623795867 ] } },
{ "type": "Feature", "properties": { "fid": 1077, "addr:housenumber": null, "addr:street": null, "amenity": "car_wash", "name": null }, "geometry": { "type": "Point", "coordinates": [ 413102.808047880360391, 6184524.802765638567507 ] } },
{ "type": "Feature", "properties": { "fid": 1082, "addr:housenumber": null, "addr:street": null, "amenity": "car_wash", "name": "Star line" }, "geometry": { "type": "Point", "coordinates": [ 413525.269155975896865, 6186963.506150520406663 ] } },
{ "type": "Feature", "properties": { "fid": 1203, "addr:housenumber": null, "addr:street": null, "amenity": "car_wash", "name": null }, "geometry": { "type": "Point", "coordinates": [ 413442.926550397765823, 6187019.085839824751019 ] } },
{ "type": "Feature", "properties": { "fid": 1405, "addr:housenumber": null, "addr:street": null, "amenity": "car_wash", "name": null }, "geometry": { "type": "Point", "coordinates": [ 414995.633906651870348, 6185903.209581980481744 ] } },
{ "type": "Feature", "properties": { "fid": 1472, "addr:housenumber": null, "addr:street": null, "amenity": "car_wash", "name": null }, "geometry": { "type": "Point", "coordinates": [ 415744.487278325774241, 6186497.819632882252336 ] } },
{ "type": "Feature", "properties": { "fid": 1490, "addr:housenumber": null, "addr:street": null, "amenity": "car_wash", "name": null }, "geometry": { "type": "Point", "coordinates": [ 413198.964322434971109, 6182839.90860325936228 ] } },
{ "type": "Feature", "properties": { "fid": 1508, "addr:housenumber": null, "addr:street": null, "amenity": "car_wash", "name": null }, "geometry": { "type": "Point", "coordinates": [ 415279.262799332907889, 6187924.52532809227705 ] } },
{ "type": "Feature", "properties": { "fid": 1556, "addr:housenumber": "55", "addr:street": "Трифоновская улица", "amenity": "car_rental", "name": "Альфакар" }, "geometry": { "type": "Point", "coordinates": [ 414104.477620391407982, 6183492.890762260183692 ] } },
{ "type": "Feature", "properties": { "fid": 2376, "addr:housenumber": "2 с18", "addr:street": "Краснобогатырская улица", "amenity": "car_wash", "name": null }, "geometry": { "type": "Point", "coordinates": [ 417701.44955070503056, 6186400.469933615066111 ] } },
{ "type": "Feature", "properties": { "fid": 2378, "addr:housenumber": null, "addr:street": null, "amenity": "car_wash", "name": null }, "geometry": { "type": "Point", "coordinates": [ 416788.790060215920676, 6186756.901257175020874 ] } },
{ "type": "Feature", "properties": { "fid": 2379, "addr:housenumber": null, "addr:street": null, "amenity": "car_wash", "name": null }, "geometry": { "type": "Point", "coordinates": [ 418190.432956238277256, 6186268.100352673791349 ] } },
{ "type": "Feature", "properties": { "fid": 2423, "addr:housenumber": null, "addr:street": null, "amenity": "car_wash", "name": null }, "geometry": { "type": "Point", "coordinates": [ 413290.19377815205371, 6185165.679555022157729 ] } },
{ "type": "Feature", "properties": { "fid": 2477, "addr:housenumber": null, "addr:street": null, "amenity": "car_wash", "name": null }, "geometry": { "type": "Point", "coordinates": [ 416517.387300806120038, 6182650.505492264404893 ] } },
{ "type": "Feature", "properties": { "fid": 2478, "addr:housenumber": null, "addr:street": null, "amenity": "car_wash", "name": "Аквамарин" }, "geometry": { "type": "Point", "coordinates": [ 412957.706718221656047, 6183009.965638119727373 ] } },
{ "type": "Feature", "properties": { "fid": 2481, "addr:housenumber": null, "addr:street": null, "amenity": "car_wash", "name": null }, "geometry": { "type": "Point", "coordinates": [ 418069.864636072074063, 6186542.960428264923394 ] } },
{ "type": "Feature", "properties": { "fid": 2530, "addr:housenumber": null, "addr:street": null, "amenity": "car_wash", "name": "Быстро чисто" }, "geometry": { "type": "Point", "coordinates": [ 414961.492624991224147, 6189819.661922961473465 ] } },
{ "type": "Feature", "properties": { "fid": 2656, "addr:housenumber": null, "addr:street": null, "amenity": "car_wash", "name": null }, "geometry": { "type": "Point", "coordinates": [ 415427.404801888857037, 6183887.959545428864658 ] } },
{ "type": "Feature", "properties": { "fid": 3119, "addr:housenumber": null, "addr:street": null, "amenity": "car_wash", "name": null }, "geometry": { "type": "Point", "coordinates": [ 415813.991673586831894, 6189897.969038783572614 ] } },
{ "type": "Feature", "properties": { "fid": 3241, "addr:housenumber": "1", "addr:street": "улица Сергея Эйзенштейна", "amenity": "car_wash", "name": "МПАС" }, "geometry": { "type": "Point", "coordinates": [ 415188.557638804952148, 6187937.074416198767722 ] } },
{ "type": "Feature", "properties": { "fid": 3295, "addr:housenumber": null, "addr:street": null, "amenity": "car_wash", "name": null }, "geometry": { "type": "Point", "coordinates": [ 417066.622007253812626, 6183347.367040921933949 ] } },
{ "type": "Feature", "properties": { "fid": 3310, "addr:housenumber": null, "addr:street": null, "amenity": "car_wash", "name": null }, "geometry": { "type": "Point", "coordinates": [ 417850.158903118339367, 6184177.22753472160548 ] } },
{ "type": "Feature", "properties": { "fid": 3344, "addr:housenumber": null, "addr:street": null, "amenity": "car_wash", "name": null }, "geometry": { "type": "Point", "coordinates": [ 417726.488281446625479, 6182709.808998177759349 ] } },
{ "type": "Feature", "properties": { "fid": 3366, "addr:housenumber": null, "addr:street": null, "amenity": "car_wash", "name": null }, "geometry": { "type": "Point", "coordinates": [ 418086.626947297132574, 6182667.904182543978095 ] } },
{ "type": "Feature", "properties": { "fid": 3411, "addr:housenumber": null, "addr:street": null, "amenity": "car_wash", "name": null }, "geometry": { "type": "Point", "coordinates": [ 418222.890548111405224, 6184631.924659756012261 ] } },
{ "type": "Feature", "properties": { "fid": 3412, "addr:housenumber": null, "addr:street": null, "amenity": "car_wash", "name": null }, "geometry": { "type": "Point", "coordinates": [ 418221.108721352298744, 6184702.781620207242668 ] } },
{ "type": "Feature", "properties": { "fid": 3440, "addr:housenumber": null, "addr:street": null, "amenity": "car_wash", "name": null }, "geometry": { "type": "Point", "coordinates": [ 416140.348444255243521, 6183361.788878710009158 ] } },
{ "type": "Feature", "properties": { "fid": 3536, "addr:housenumber": null, "addr:street": null, "amenity": "car_wash", "name": null }, "geometry": { "type": "Point", "coordinates": [ 416798.810056007350795, 6182909.978516417555511 ] } },
{ "type": "Feature", "properties": { "fid": 3540, "addr:housenumber": null, "addr:street": null, "amenity": "car_wash", "name": "Авто-Полиш Детейлинг" }, "geometry": { "type": "Point", "coordinates": [ 415534.908507082960568, 6185989.856066935695708 ] } },
{ "type": "Feature", "properties": { "fid": 3610, "addr:housenumber": null, "addr:street": null, "amenity": "car_wash", "name": null }, "geometry": { "type": "Point", "coordinates": [ 417630.90547196980333, 6189693.601451265625656 ] } },
{ "type": "Feature", "properties": { "fid": 3745, "addr:housenumber": null, "addr:street": null, "amenity": "car_wash", "name": null }, "geometry": { "type": "Point", "coordinates": [ 414660.389334367937408, 6188899.626564525067806 ] } },
{ "type": "Feature", "properties": { "fid": 3782, "addr:housenumber": null, "addr:street": null, "amenity": "car_wash", "name": null }, "geometry": { "type": "Point", "coordinates": [ 416610.887404269014951, 6188792.006388491950929 ] } },
{ "type": "Feature", "properties": { "fid": 3783, "addr:housenumber": null, "addr:street": null, "amenity": "car_wash", "name": null }, "geometry": { "type": "Point", "coordinates": [ 416937.27287056366913, 6190224.641448611393571 ] } },
{ "type": "Feature", "properties": { "fid": 3925, "addr:housenumber": null, "addr:street": null, "amenity": "car_wash", "name": null }, "geometry": { "type": "Point", "coordinates": [ 415831.452660013164859, 6188881.421150462701917 ] } },
{ "type": "Feature", "properties": { "fid": 4191, "addr:housenumber": null, "addr:street": null, "amenity": "car_wash", "name": "Самомойка Pro" }, "geometry": { "type": "Point", "coordinates": [ 413445.747102486435324, 6190111.005958472378552 ] } },
{ "type": "Feature", "properties": { "fid": 4341, "addr:housenumber": null, "addr:street": null, "amenity": "car_wash", "name": null }, "geometry": { "type": "Point", "coordinates": [ 416311.602000224811491, 6183088.080916089005768 ] } }
]
}
