{
"type": "FeatureCollection",
"name": "food_places",
"crs": { "type": "name", "properties": { "name": "urn:ogc:def:crs:EPSG::32637" } },
"features": [
{ "type": "Feature", "properties": { "fid": 94, "addr:housenumber": "20", "addr:street": "Хованская улица", "amenity": "cafe", "name": "Мамма Италия" }, "geometry": { "type": "Point", "coordinates": [ 413715.517729534534737, 6187860.146048946306109 ] } },
{ "type": "Feature", "properties": { "fid": 709, "addr:housenumber": "119 с504", "addr:street": "проспект Мира", "amenity": "cafe", "name": "Старое место" }, "geometry": { "type": "Point", "coordinates": [ 413355.243538078968413, 6188838.951885527931154 ] } },
{ "type": "Feature", "properties": { "fid": 1140, "addr:housenumber": "119 с575", "addr:street": "проспект Мира", "amenity": "cafe", "name": "Баскин Роббинс" }, "geometry": { "type": "Point", "coordinates": [ 413600.148067899921443, 6188558.27286490239203 ] } },
{ "type": "Feature", "properties": { "fid": 1210, "addr:housenumber": "119 с529", "addr:street": "проспект Мира", "amenity": "cafe", "name": "Лагманная" }, "geometry": { "type": "Point", "coordinates": [ 413897.399065178411547, 6188151.50648074131459 ] } },
{ "type": "Feature", "properties": { "fid": 1249, "addr:housenumber": "1", "addr:street": "Песочная аллея", "amenity": "cafe", "name": "Сирень" }, "geometry": { "type": "Point", "coordinates": [ 416908.785389244614635, 6183880.041857513599098 ] } },
{ "type": "Feature", "properties": { "fid": 1256, "addr:housenumber": "119 с520", "addr:street": "проспект Мира", "amenity": "cafe", "name": "Южное" }, "geometry": { "type": "Point", "coordinates": [ 414251.296704437059816, 6187692.715023908764124 ] } },
{ "type": "Feature", "properties": { "fid": 1315, "addr:housenumber": "9 с10", "addr:street": "Графский переулок", "amenity": "cafe", "name": "Графский дворик" }, "geometry": { "type": "Point", "coordinates": [ 414944.632395189953968, 6184999.367095856927335 ] } },
{ "type": "Feature", "properties": { "fid": 1358, "addr:housenumber": "119 с503", "addr:street": "проспект Мира", "amenity": "cafe", "name": "Шашлычок" }, "geometry": { "type": "Point", "coordinates": [ 413408.249126484966837, 6188067.966956219635904 ] } },
{ "type": "Feature", "properties": { "fid": 1400, "addr:housenumber": "7А с18", "addr:street": "1-я Останкинская улица", "amenity": "cafe", "name": "Русский чай" }, "geometry": { "type": "Point", "coordinates": [ 413385.131318725994788, 6187920.406103512272239 ] } },
{ "type": "Feature", "properties": { "fid": 1466, "addr:housenumber": "1А с1", "addr:street": "1-я Останкинская улица", "amenity": "cafe", "name": "Пончики" }, "geometry": { "type": "Point", "coordinates": [ 413328.743572288134601, 6187378.16312977578491 ] } },
{ "type": "Feature", "properties": { "fid": 1502, "addr:housenumber": null, "addr:street": null, "amenity": "cafe", "name": "Спорт кафе" }, "geometry": { "type": "Point", "coordinates": [ 416226.879118260985706, 6183974.999589552171528 ] } },
{ "type": "Feature", "properties": { "fid": 1503, "addr:housenumber": null, "addr:street": null, "amenity": "cafe", "name": "Julius Meinl" }, "geometry": { "type": "Point", "coordinates": [ 417113.462896789307706, 6183804.35568224452436 ] } },
{ "type": "Feature", "properties": { "fid": 1505, "addr:housenumber": "5", "addr:street": "проезд Сокольнического Круга", "amenity": "cafe", "name": "Crafted Grill Bar" }, "geometry": { "type": "Point", "coordinates": [ 417142.750394603994209, 6184120.095917914994061 ] } },
{ "type": "Feature", "properties": { "fid": 1515, "addr:housenumber": null, "addr:street": null, "amenity": "cafe", "name": "Bread & Meat" }, "geometry": { "type": "Point", "coordinates": [ 414526.478128949005622, 6187630.361192423850298 ] } },
{ "type": "Feature", "properties": { "fid": 1519, "addr:housenumber": null, "addr:street": null, "amenity": "cafe", "name": "Едим стоя" }, "geometry": { "type": "Point", "coordinates": [ 414495.117134363739751, 6187666.252862565219402 ] } },
{ "type": "Feature", "properties": { "fid": 1520, "addr:housenumber": null, "addr:street": null, "amenity": "cafe", "name": "Дагестанская лавка" }, "geometry": { "type": "Point", "coordinates": [ 414510.951790044549853, 6187647.944933143444359 ] } },
{ "type": "Feature", "properties": { "fid": 1590, "addr:housenumber": null, "addr:street": null, "amenity": "cafe", "name": "Лебяжье" }, "geometry": { "type": "Point", "coordinates": [ 417586.463914227497298, 6184664.758608389645815 ] } },
{ "type": "Feature", "properties": { "fid": 1600, "addr:housenumber": "9Б", "addr:street": "Ярославская улица", "amenity": "cafe", "name": "Чебуречная" }, "geometry": { "type": "Point", "coordinates": [ 415206.532555412501097, 6186545.465404885821044 ] } },
{ "type": "Feature", "properties": { "fid": 1643, "addr:housenumber": "120 к1", "addr:street": "проспект Мира", "amenity": "cafe", "name": "Базилик" }, "geometry": { "type": "Point", "coordinates": [ 414698.784161556279287, 6186007.993316191248596 ] } },
{ "type": "Feature", "properties": { "fid": 1720, "addr:housenumber": null, "addr:street": null, "amenity": "cafe", "name": "Пян-се" }, "geometry": { "type": "Point", "coordinates": [ 413175.975880640966352, 6188540.545597123913467 ] } },
{ "type": "Feature", "properties": { "fid": 1764, "addr:housenumber": null, "addr:street": null, "amenity": "cafe", "name": "Монастырская трапезная" }, "geometry": { "type": "Point", "coordinates": [ 416315.68179387046257, 6182887.968459728173912 ] } },
{ "type": "Feature", "properties": { "fid": 1991, "addr:housenumber": null, "addr:street": null, "amenity": "cafe", "name": "Coffee Time" }, "geometry": { "type": "Point", "coordinates": [ 414274.19453956495272, 6190196.915476879104972 ] } },
{ "type": "Feature", "properties": { "fid": 2042, "addr:housenumber": null, "addr:street": null, "amenity": "cafe", "name": "Kaldi's coffee" }, "geometry": { "type": "Point", "coordinates": [ 416940.949213909392711, 6183915.342600253410637 ] } },
{ "type": "Feature", "properties": { "fid": 4, "addr:housenumber": null, "addr:street": null, "amenity": "cafe", "name": "Шоколадница" }, "geometry": { "type": "Point", "coordinates": [ 417150.128381323651411, 6183464.833514152094722 ] } },
{ "type": "Feature", "properties": { "fid": 21, "addr:housenumber": null, "addr:street": null, "amenity": "cafe", "name": "Кофе Хауз" }, "geometry": { "type": "Point", "coordinates": [ 417270.389703647815622, 6183466.971949175000191 ] } },
{ "type": "Feature", "properties": { "fid": 24, "addr:housenumber": null, "addr:street": null, "amenity": "cafe", "name": "Му-Му" }, "geometry": { "type": "Point", "coordinates": [ 417286.630471985088661, 6183473.987702281214297 ] } },
{ "type": "Feature", "properties": { "fid": 25, "addr:housenumber": null, "addr:street": null, "amenity": "cafe", "name": null }, "geometry": { "type": "Point", "coordinates": [ 417246.014705707202666, 6183525.190660053864121 ] } },
{ "type": "Feature", "properties": { "fid": 41, "addr:housenumber": null, "addr:street": null, "amenity": "cafe", "name": "Крепери де Пари" }, "geometry": { "type": "Point", "coordinates": [ 417059.885303105111234, 6183260.307399703189731 ] } },
{ "type": "Feature", "properties": { "fid": 85, "addr:housenumber": null, "addr:street": null, "amenity": "cafe", "name": "Му-Му" }, "geometry": { "type": "Point", "coordinates": [ 414664.763597358774859, 6185567.28838636726141 ] } },
{ "type": "Feature", "properties": { "fid": 92, "addr:housenumber": null, "addr:street": null, "amenity": "cafe", "name": "Шоколадница" }, "geometry": { "type": "Point", "coordinates": [ 414533.947740112431347, 6185613.546297337859869 ] } },
{ "type": "Feature", "properties": { "fid": 104, "addr:housenumber": null, "addr:street": null, "amenity": "cafe", "name": "Штолле" }, "geometry": { "type": "Point", "coordinates": [ 414670.794184217462316, 6185896.024704593233764 ] } },
{ "type": "Feature", "properties": { "fid": 115, "addr:housenumber": null, "addr:street": null, "amenity": "cafe", "name": "Шоколадница" }, "geometry": { "type": "Point", "coordinates": [ 414616.326960755104665, 6185485.103210366331041 ] } },
{ "type": "Feature", "properties": { "fid": 130, "addr:housenumber": null, "addr:street": null, "amenity": "cafe", "name": null }, "geometry": { "type": "Point", "coordinates": [ 417175.780449011945166, 6183352.253112270496786 ] } },
{ "type": "Feature", "properties": { "fid": 141, "addr:housenumber": null, "addr:street": null, "amenity": "cafe", "name": "Megapolis" }, "geometry": { "type": "Point", "coordinates": [ 413044.600935332186054, 6184589.023257477208972 ] } },
{ "type": "Feature", "properties": { "fid": 145, "addr:housenumber": null, "addr:street": null, "amenity": "cafe", "name": "Заря" }, "geometry": { "type": "Point", "coordinates": [ 417150.818411260144785, 6183455.959035009145737 ] } },
{ "type": "Feature", "properties": { "fid": 163, "addr:housenumber": null, "addr:street": null, "amenity": "cafe", "name": "Столовая" }, "geometry": { "type": "Point", "coordinates": [ 415276.721114270505495, 6189085.731570868752897 ] } },
{ "type": "Feature", "properties": { "fid": 183, "addr:housenumber": null, "addr:street": null, "amenity": "cafe", "name": null }, "geometry": { "type": "Point", "coordinates": [ 413549.373835314414464, 6190041.941087915562093 ] } },
{ "type": "Feature", "properties": { "fid": 193, "addr:housenumber": null, "addr:street": null, "amenity": "cafe", "name": null }, "geometry": { "type": "Point", "coordinates": [ 414636.483484204334673, 6185157.666627599857748 ] } },
{ "type": "Feature", "properties": { "fid": 202, "addr:housenumber": null, "addr:street": null, "amenity": "cafe", "name": "Дюплекс" }, "geometry": { "type": "Point", "coordinates": [ 417240.146190515428316, 6183608.260402357205749 ] } },
{ "type": "Feature", "properties": { "fid": 224, "addr:housenumber": null, "addr:street": null, "amenity": "cafe", "name": "Кулинарное чтиво" }, "geometry": { "type": "Point", "coordinates": [ 414636.990313234273344, 6186501.408962115645409 ] } },
{ "type": "Feature", "properties": { "fid": 225, "addr:housenumber": null, "addr:street": null, "amenity": "cafe", "name": "АндерСон" }, "geometry": { "type": "Point", "coordinates": [ 416027.086463939456735, 6182942.883451757952571 ] } },
{ "type": "Feature", "properties": { "fid": 229, "addr:housenumber": null, "addr:street": null, "amenity": "cafe", "name": "Маяк" }, "geometry": { "type": "Point", "coordinates": [ 413975.316433805041015, 6186083.923528159037232 ] } },
{ "type": "Feature", "properties": { "fid": 240, "addr:housenumber": null, "addr:street": null, "amenity": "cafe", "name": "LavAzza" }, "geometry": { "type": "Point", "coordinates": [ 415940.243146514869295, 6183024.337623981758952 ] } },
{ "type": "Feature", "properties": { "fid": 271, "addr:housenumber": null, "addr:street": null, "amenity": "cafe", "name": "Маренго" }, "geometry": { "type": "Point", "coordinates": [ 415125.34522194461897, 6185156.875838182866573 ] } },
{ "type": "Feature", "properties": { "fid": 272, "addr:housenumber": null, "addr:street": null, "amenity": "cafe", "name": "Буфет" }, "geometry": { "type": "Point", "coordinates": [ 415260.353659020620398, 6185078.359389284625649 ] } },
{ "type": "Feature", "properties": { "fid": 298, "addr:housenumber": null, "addr:street": null, "amenity": "cafe", "name": "Даблби" }, "geometry": { "type": "Point", "coordinates": [ 417218.418145674222615, 6183543.016132746823132 ] } },
{ "type": "Feature", "properties": { "fid": 305, "addr:housenumber": null, "addr:street": null, "amenity": "cafe", "name": "Кофеин" }, "geometry": { "type": "Point", "coordinates": [ 415561.552842904813588, 6189871.352374512702227 ] } },
{ "type": "Feature", "properties": { "fid": 313, "addr:housenumber": null, "addr:street": null, "amenity": "cafe", "name": null }, "geometry": { "type": "Point", "coordinates": [ 417929.761658242554404, 6186278.532979521900415 ] } },
{ "type": "Feature", "properties": { "fid": 378, "addr:housenumber": null, "addr:street": null, "amenity": "cafe", "name": "Coffee Bean" }, "geometry": { "type": "Point", "coordinates": [ 414603.408378134539817, 6188855.193959633819759 ] } },
{ "type": "Feature", "properties": { "fid": 548, "addr:housenumber": null, "addr:street": null, "amenity": "cafe", "name": "Чинар-А" }, "geometry": { "type": "Point", "coordinates": [ 416014.987312206707429, 6183708.279717088676989 ] } },
{ "type": "Feature", "properties": { "fid": 624, "addr:housenumber": null, "addr:street": null, "amenity": "cafe", "name": "Дон" }, "geometry": { "type": "Point", "coordinates": [ 413075.977685510588344, 6183630.099310869351029 ] } },
{ "type": "Feature", "properties": { "fid": 625, "addr:housenumber": null, "addr:street": null, "amenity": "cafe", "name": "Борго" }, "geometry": { "type": "Point", "coordinates": [ 417295.820188559009694, 6183723.710595272481441 ] } },
{ "type": "Feature", "properties": { "fid": 627, "addr:housenumber": null, "addr:street": null, "amenity": "cafe", "name": null }, "geometry": { "type": "Point", "coordinates": [ 412653.737365555949509, 6183506.615033284761012 ] } },
{ "type": "Feature", "properties": { "fid": 631, "addr:housenumber": null, "addr:street": null, "amenity": "cafe", "name": "Кофе Хауз" }, "geometry": { "type": "Point", "coordinates": [ 416115.236276396666653, 6189647.012926265597343 ] } },
{ "type": "Feature", "properties": { "fid": 632, "addr:housenumber": null, "addr:street": null, "amenity": "cafe", "name": "Шоколадница" }, "geometry": { "type": "Point", "coordinates": [ 416121.285739510320127, 6189682.564362515695393 ] } },
{ "type": "Feature", "properties": { "fid": 649, "addr:housenumber": null, "addr:street": null, "amenity": "cafe", "name": null }, "geometry": { "type": "Point", "coordinates": [ 417775.489413438888732, 6182484.733527092263103 ] } },
{ "type": "Feature", "properties": { "fid": 650, "addr:housenumber": null, "addr:street": null, "amenity": "cafe", "name": "Гриль-парк" }, "geometry": { "type": "Point", "coordinates": [ 416699.202220553066581, 6184427.1663389634341 ] } },
{ "type": "Feature", "properties": { "fid": 658, "addr:housenumber": null, "addr:street": null, "amenity": "cafe", "name": "Синьор Джуниор" }, "geometry": { "type": "Point", "coordinates": [ 416714.963811525434721, 6184021.857859135605395 ] } },
{ "type": "Feature", "properties": { "fid": 732, "addr:housenumber": null, "addr:street": null, "amenity": "cafe", "name": "ЧаЕ" }, "geometry": { "type": "Point", "coordinates": [ 416336.118974774377421, 6183979.456063046120107 ] } },
{ "type": "Feature", "properties": { "fid": 738, "addr:housenumber": null, "addr:street": null, "amenity": "cafe", "name": "Дубки" }, "geometry": { "type": "Point", "coordinates": [ 417227.737163555750158, 6184656.693362614139915 ] } },
{ "type": "Feature", "properties": { "fid": 757, "addr:housenumber": null, "addr:street": null, "amenity": "cafe", "name": "Либерто" }, "geometry": { "type": "Point", "coordinates": [ 412695.523321118787862, 6182566.025412252172828 ] } },
{ "type": "Feature", "properties": { "fid": 773, "addr:housenumber": null, "addr:street": null, "amenity": "cafe", "name": "Pizza? Si!" }, "geometry": { "type": "Point", "coordinates": [ 414358.66755199508043, 6183551.081878392025828 ] } },
{ "type": "Feature", "properties": { "fid": 774, "addr:housenumber": null, "addr:street": null, "amenity": "cafe", "name": "Point 242" }, "geometry": { "type": "Point", "coordinates": [ 413059.338418772036675, 6183145.340195656754076 ] } },
{ "type": "Feature", "properties": { "fid": 785, "addr:housenumber": null, "addr:street": null, "amenity": "cafe", "name": "Laziz" }, "geometry": { "type": "Point", "coordinates": [ 414375.541289006068837, 6183114.867029535584152 ] } },
{ "type": "Feature", "properties": { "fid": 787, "addr:housenumber": null, "addr:street": null, "amenity": "cafe", "name": "Брусника" }, "geometry": { "type": "Point", "coordinates": [ 414340.959447781497147, 6182841.310711942613125 ] } },
{ "type": "Feature", "properties": { "fid": 878, "addr:housenumber": null, "addr:street": null, "amenity": "cafe", "name": "Восточное" }, "geometry": { "type": "Point", "coordinates": [ 413871.394659875542857, 6188142.189256438054144 ] } },
{ "type": "Feature", "properties": { "fid": 905, "addr:housenumber": null, "addr:street": null, "amenity": "cafe", "name": "Гурман" }, "geometry": { "type": "Point", "coordinates": [ 413524.604753987689037, 6188890.904279041104019 ] } },
{ "type": "Feature", "properties": { "fid": 907, "addr:housenumber": null, "addr:street": null, "amenity": "cafe", "name": "Арлекин" }, "geometry": { "type": "Point", "coordinates": [ 414053.408743503154255, 6188070.758344249799848 ] } },
{ "type": "Feature", "properties": { "fid": 908, "addr:housenumber": null, "addr:street": null, "amenity": "cafe", "name": "Гюльчетай" }, "geometry": { "type": "Point", "coordinates": [ 414195.874214033305179, 6187857.564543914981186 ] } },
{ "type": "Feature", "properties": { "fid": 910, "addr:housenumber": "119 с614", "addr:street": "проспект Мира", "amenity": "cafe", "name": "Арцец" }, "geometry": { "type": "Point", "coordinates": [ 413966.561661323125008, 6187838.149820701219141 ] } },
{ "type": "Feature", "properties": { "fid": 912, "addr:housenumber": null, "addr:street": null, "amenity": "cafe", "name": "Пирожки" }, "geometry": { "type": "Point", "coordinates": [ 413965.519539288710803, 6187835.20921634696424 ] } },
{ "type": "Feature", "properties": { "fid": 938, "addr:housenumber": null, "addr:street": null, "amenity": "cafe", "name": "Ласточка" }, "geometry": { "type": "Point", "coordinates": [ 414163.792687047680374, 6188462.889249846339226 ] } },
{ "type": "Feature", "properties": { "fid": 957, "addr:housenumber": null, "addr:street": null, "amenity": "cafe", "name": "Галерея" }, "geometry": { "type": "Point", "coordinates": [ 414699.750060399645008, 6188250.268086217343807 ] } },
{ "type": "Feature", "properties": { "fid": 961, "addr:housenumber": null, "addr:street": null, "amenity": "cafe", "name": "Кафе для Вас" }, "geometry": { "type": "Point", "coordinates": [ 414921.510805522790179, 6187923.457383374683559 ] } },
{ "type": "Feature", "properties": { "fid": 962, "addr:housenumber": null, "addr:street": null, "amenity": "cafe", "name": "Alef" }, "geometry": { "type": "Point", "coordinates": [ 412730.957652736455202, 6183693.571745819412172 ] } },
{ "type": "Feature", "properties": { "fid": 1002, "addr:housenumber": null, "addr:street": null, "amenity": "cafe", "name": "Jinju" }, "geometry": { "type": "Point", "coordinates": [ 414326.675876128429081, 6182761.505147798918188 ] } },
{ "type": "Feature", "properties": { "fid": 1044, "addr:housenumber": null, "addr:street": null, "amenity": "cafe", "name": "Сити Пицца" }, "geometry": { "type": "Point", "coordinates": [ 415603.864584802824538, 6185916.999606392346323 ] } },
{ "type": "Feature", "properties": { "fid": 1058, "addr:housenumber": null, "addr:street": null, "amenity": "cafe", "name": "Good Mood" }, "geometry": { "type": "Point", "coordinates": [ 414447.32919816148933, 6186996.235009628348053 ] } },
{ "type": "Feature", "properties": { "fid": 1129, "addr:housenumber": null, "addr:street": null, "amenity": "cafe", "name": "Lavazza" }, "geometry": { "type": "Point", "coordinates": [ 413281.230890786799137, 6184274.837665195576847 ] } },
{ "type": "Feature", "properties": { "fid": 1251, "addr:housenumber": null, "addr:street": null, "amenity": "cafe", "name": null }, "geometry": { "type": "Point", "coordinates": [ 414169.862759491079487, 6186673.215165219269693 ] } },
{ "type": "Feature", "properties": { "fid": 1305, "addr:housenumber": null, "addr:street": null, "amenity": "cafe", "name": "Меркато" }, "geometry": { "type": "Point", "coordinates": [ 416908.588268005172722, 6184317.731209485791624 ] } },
{ "type": "Feature", "properties": { "fid": 1351, "addr:housenumber": null, "addr:street": null, "amenity": "cafe", "name": "Пион" }, "geometry": { "type": "Point", "coordinates": [ 416585.301161453186069, 6184382.975499296560884 ] } },
{ "type": "Feature", "properties": { "fid": 1450, "addr:housenumber": null, "addr:street": null, "amenity": "cafe", "name": "Шоколадница" }, "geometry": { "type": "Point", "coordinates": [ 413512.586043719551526, 6188328.510257313959301 ] } },
{ "type": "Feature", "properties": { "fid": 1456, "addr:housenumber": null, "addr:street": null, "amenity": "cafe", "name": "Кофе с собой" }, "geometry": { "type": "Point", "coordinates": [ 415118.752692739421036, 6185430.240507298149168 ] } },
{ "type": "Feature", "properties": { "fid": 1473, "addr:housenumber": null, "addr:street": null, "amenity": "cafe", "name": "Выпечка" }, "geometry": { "type": "Point", "coordinates": [ 414994.34010866418248, 6186541.4952920274809 ] } },
{ "type": "Feature", "properties": { "fid": 1480, "addr:housenumber": null, "addr:street": null, "amenity": "cafe", "name": "Кивин" }, "geometry": { "type": "Point", "coordinates": [ 413340.686094490170944, 6183993.376455017365515 ] } },
{ "type": "Feature", "properties": { "fid": 1481, "addr:housenumber": "58 с3", "addr:street": "улица Щепкина", "amenity": "cafe", "name": "Столовая" }, "geometry": { "type": "Point", "coordinates": [ 414078.98569201095961, 6183000.981006301008165 ] } },
{ "type": "Feature", "properties": { "fid": 1511, "addr:housenumber": "13А", "addr:street": "Ярославская улица", "amenity": "cafe", "name": "Сицилия" }, "geometry": { "type": "Point", "coordinates": [ 415063.254685686144512, 6186790.182058813981712 ] } },
{ "type": "Feature", "properties": { "fid": 1512, "addr:housenumber": null, "addr:street": null, "amenity": "cafe", "name": "Сокольническая застава" }, "geometry": { "type": "Point", "coordinates": [ 417414.807470037601888, 6183579.409508521668613 ] } },
{ "type": "Feature", "properties": { "fid": 1513, "addr:housenumber": null, "addr:street": null, "amenity": "cafe", "name": "Темп" }, "geometry": { "type": "Point", "coordinates": [ 414683.697326589783188, 6187621.148573316633701 ] } },
{ "type": "Feature", "properties": { "fid": 1515, "addr:housenumber": null, "addr:street": null, "amenity": "cafe", "name": "МакКафе" }, "geometry": { "type": "Point", "coordinates": [ 414660.113934585358948, 6187849.03966982010752 ] } },
{ "type": "Feature", "properties": { "fid": 1537, "addr:housenumber": null, "addr:street": null, "amenity": "cafe", "name": "Советские времена" }, "geometry": { "type": "Point", "coordinates": [ 415910.172077760798857, 6183067.20041498541832 ] } },
{ "type": "Feature", "properties": { "fid": 1540, "addr:housenumber": null, "addr:street": null, "amenity": "cafe", "name": null }, "geometry": { "type": "Point", "coordinates": [ 416104.808920697250869, 6183297.50657348241657 ] } },
{ "type": "Feature", "properties": { "fid": 1543, "addr:housenumber": null, "addr:street": null, "amenity": "cafe", "name": null }, "geometry": { "type": "Point", "coordinates": [ 416850.911755377775989, 6183172.026647941209376 ] } },
{ "type": "Feature", "properties": { "fid": 1558, "addr:housenumber": null, "addr:street": null, "amenity": "cafe", "name": "Столовая" }, "geometry": { "type": "Point", "coordinates": [ 414802.761996185057797, 6184302.440982127562165 ] } },
{ "type": "Feature", "properties": { "fid": 1567, "addr:housenumber": null, "addr:street": null, "amenity": "cafe", "name": "Столовая №1" }, "geometry": { "type": "Point", "coordinates": [ 414563.901625496218912, 6184873.133365705609322 ] } },
{ "type": "Feature", "properties": { "fid": 1647, "addr:housenumber": null, "addr:street": null, "amenity": "cafe", "name": "Хлебный дворик" }, "geometry": { "type": "Point", "coordinates": [ 414459.474553018342704, 6187429.074757138267159 ] } },
{ "type": "Feature", "properties": { "fid": 1656, "addr:housenumber": null, "addr:street": null, "amenity": "cafe", "name": "Coffee 2 go" }, "geometry": { "type": "Point", "coordinates": [ 413718.143760872073472, 6187150.980152472853661 ] } },
{ "type": "Feature", "properties": { "fid": 1657, "addr:housenumber": "119 с522", "addr:street": "улица Проспект Мира", "amenity": "cafe", "name": "Дельфин" }, "geometry": { "type": "Point", "coordinates": [ 413621.068383425066713, 6188438.353642383590341 ] } },
{ "type": "Feature", "properties": { "fid": 1663, "addr:housenumber": null, "addr:street": null, "amenity": "cafe", "name": "Лоза" }, "geometry": { "type": "Point", "coordinates": [ 413133.934530918078963, 6182937.839244353584945 ] } },
{ "type": "Feature", "properties": { "fid": 1761, "addr:housenumber": null, "addr:street": null, "amenity": "cafe", "name": "Кофе Хауз" }, "geometry": { "type": "Point", "coordinates": [ 413380.687413979147095, 6185053.68236730620265 ] } },
{ "type": "Feature", "properties": { "fid": 1780, "addr:housenumber": null, "addr:street": null, "amenity": "cafe", "name": "Таверна \"У околицы\"" }, "geometry": { "type": "Point", "coordinates": [ 414110.33206223952584, 6188786.493253227323294 ] } },
{ "type": "Feature", "properties": { "fid": 1981, "addr:housenumber": null, "addr:street": null, "amenity": "cafe", "name": null }, "geometry": { "type": "Point", "coordinates": [ 413222.010962126310915, 6188567.433680490590632 ] } },
{ "type": "Feature", "properties": { "fid": 2248, "addr:housenumber": null, "addr:street": null, "amenity": "cafe", "name": "Espressioni" }, "geometry": { "type": "Point", "coordinates": [ 413274.948199253180064, 6184273.01493068318814 ] } },
{ "type": "Feature", "properties": { "fid": 2272, "addr:housenumber": null, "addr:street": null, "amenity": "cafe", "name": "Долина" }, "geometry": { "type": "Point", "coordinates": [ 414072.95686119858874, 6188433.071648832410574 ] } },
{ "type": "Feature", "properties": { "fid": 2273, "addr:housenumber": null, "addr:street": null, "amenity": "cafe", "name": "Дом с хвостом" }, "geometry": { "type": "Point", "coordinates": [ 413697.701695102732629, 6188880.69776073563844 ] } },
{ "type": "Feature", "properties": { "fid": 2373, "addr:housenumber": "26", "addr:street": "улица Бориса Галушкина", "amenity": "cafe", "name": "Северянин" }, "geometry": { "type": "Point", "coordinates": [ 416315.202681242953986, 6186914.616649459116161 ] } },
{ "type": "Feature", "properties": { "fid": 2375, "addr:housenumber": null, "addr:street": null, "amenity": "cafe", "name": "Мацони" }, "geometry": { "type": "Point", "coordinates": [ 415868.027235401328653, 6187208.76835831720382 ] } },
{ "type": "Feature", "properties": { "fid": 2377, "addr:housenumber": null, "addr:street": null, "amenity": "cafe", "name": "Авин" }, "geometry": { "type": "Point", "coordinates": [ 415634.522275566996541, 6187442.821650386787951 ] } },
{ "type": "Feature", "properties": { "fid": 2380, "addr:housenumber": null, "addr:street": null, "amenity": "cafe", "name": null }, "geometry": { "type": "Point", "coordinates": [ 413618.920826074667275, 6185481.359015626832843 ] } },
{ "type": "Feature", "properties": { "fid": 2383, "addr:housenumber": null, "addr:street": null, "amenity": "cafe", "name": "Полянка" }, "geometry": { "type": "Point", "coordinates": [ 416489.4971281462349, 6184144.168525839224458 ] } },
{ "type": "Feature", "properties": { "fid": 2387, "addr:housenumber": null, "addr:street": null, "amenity": "cafe", "name": "Сирийская кухня" }, "geometry": { "type": "Point", "coordinates": [ 415525.455139082390815, 6187798.879828809760511 ] } },
{ "type": "Feature", "properties": { "fid": 2397, "addr:housenumber": null, "addr:street": null, "amenity": "cafe", "name": "Бургерная" }, "geometry": { "type": "Point", "coordinates": [ 413734.699724325793795, 6187147.099597644992173 ] } },
{ "type": "Feature", "properties": { "fid": 2398, "addr:housenumber": null, "addr:street": null, "amenity": "cafe", "name": "Пекарня" }, "geometry": { "type": "Point", "coordinates": [ 415159.718088447232731, 6188489.667556109838188 ] } },
{ "type": "Feature", "properties": { "fid": 2421, "addr:housenumber": null, "addr:street": null, "amenity": "cafe", "name": "Смарт Кофе" }, "geometry": { "type": "Point", "coordinates": [ 413826.514169772504829, 6188856.003934884443879 ] } },
{ "type": "Feature", "properties": { "fid": 2427, "addr:housenumber": null, "addr:street": null, "amenity": "cafe", "name": "Кура" }, "geometry": { "type": "Point", "coordinates": [ 413570.860069427057169, 6186507.017167271114886 ] } },
{ "type": "Feature", "properties": { "fid": 2458, "addr:housenumber": null, "addr:street": null, "amenity": "cafe", "name": "La prima pizzeria Margarita" }, "geometry": { "type": "Point", "coordinates": [ 414258.638861816260032, 6183206.433300777338445 ] } },
{ "type": "Feature", "properties": { "fid": 2460, "addr:housenumber": null, "addr:street": null, "amenity": "cafe", "name": "Зам Зам" }, "geometry": { "type": "Point", "coordinates": [ 413003.131440793862566, 6182579.827247147448361 ] } },
{ "type": "Feature", "properties": { "fid": 2464, "addr:housenumber": null, "addr:street": null, "amenity": "cafe", "name": "Кинобуфет" }, "geometry": { "type": "Point", "coordinates": [ 413380.767072777904104, 6189083.420767382718623 ] } },
{ "type": "Feature", "properties": { "fid": 2471, "addr:housenumber": null, "addr:street": null, "amenity": "cafe", "name": "Росизо" }, "geometry": { "type": "Point", "coordinates": [ 413554.19049184769392, 6188018.025917476043105 ] } },
{ "type": "Feature", "properties": { "fid": 2519, "addr:housenumber": null, "addr:street": null, "amenity": "cafe", "name": "Cofix" }, "geometry": { "type": "Point", "coordinates": [ 417233.962380332639441, 6183500.650928636081517 ] } },
{ "type": "Feature", "properties": { "fid": 2526, "addr:housenumber": null, "addr:street": null, "amenity": "cafe", "name": "Шоколадница" }, "geometry": { "type": "Point", "coordinates": [ 416472.660611756436992, 6189666.984324460849166 ] } },
{ "type": "Feature", "properties": { "fid": 2527, "addr:housenumber": null, "addr:street": null, "amenity": "cafe", "name": "Шоколадница" }, "geometry": { "type": "Point", "coordinates": [ 413310.595956543635111, 6184148.987305535934865 ] } },
{ "type": "Feature", "properties": { "fid": 2536, "addr:housenumber": null, "addr:street": null, "amenity": "cafe", "name": "Paparino" }, "geometry": { "type": "Point", "coordinates": [ 414393.33790769794723, 6188924.829748349264264 ] } },
{ "type": "Feature", "properties": { "fid": 2544, "addr:housenumber": null, "addr:street": null, "amenity": "cafe", "name": "Хинкальная" }, "geometry": { "type": "Point", "coordinates": [ 413075.088947298529092, 6183595.09391163289547 ] } },
{ "type": "Feature", "properties": { "fid": 2545, "addr:housenumber": null, "addr:street": null, "amenity": "cafe", "name": "Ферма" }, "geometry": { "type": "Point", "coordinates": [ 413968.738342780678067, 6189039.239278105087578 ] } },
{ "type": "Feature", "properties": { "fid": 2554, "addr:housenumber": null, "addr:street": null, "amenity": "cafe", "name": "Под ракетой" }, "geometry": { "type": "Point", "coordinates": [ 414744.678853925492149, 6187178.399107054807246 ] } },
{ "type": "Feature", "properties": { "fid": 2573, "addr:housenumber": null, "addr:street": null, "amenity": "cafe", "name": "Point 242" }, "geometry": { "type": "Point", "coordinates": [ 414375.59076647600159, 6183090.007175507955253 ] } },
{ "type": "Feature", "properties": { "fid": 2574, "addr:housenumber": null, "addr:street": null, "amenity": "cafe", "name": "Mr. croissant" }, "geometry": { "type": "Point", "coordinates": [ 414595.639033935964108, 6185333.818385192193091 ] } },
{ "type": "Feature", "properties": { "fid": 2578, "addr:housenumber": null, "addr:street": null, "amenity": "cafe", "name": "Чайхона" }, "geometry": { "type": "Point", "coordinates": [ 416708.916197438258678, 6187917.818567465059459 ] } },
{ "type": "Feature", "properties": { "fid": 2598, "addr:housenumber": null, "addr:street": null, "amenity": "cafe", "name": "Пан Запекан" }, "geometry": { "type": "Point", "coordinates": [ 412774.187876488431357, 6184527.66244834009558 ] } },
{ "type": "Feature", "properties": { "fid": 2599, "addr:housenumber": null, "addr:street": null, "amenity": "cafe", "name": "Пекарня" }, "geometry": { "type": "Point", "coordinates": [ 415913.891365463263355, 6188299.763242371380329 ] } },
{ "type": "Feature", "properties": { "fid": 2605, "addr:housenumber": null, "addr:street": null, "amenity": "cafe", "name": "Барбекю" }, "geometry": { "type": "Point", "coordinates": [ 413176.089361551916227, 6184609.069094629026949 ] } },
{ "type": "Feature", "properties": { "fid": 2606, "addr:housenumber": null, "addr:street": null, "amenity": "cafe", "name": "Кулинарная лавка братьев Караваевых" }, "geometry": { "type": "Point", "coordinates": [ 414644.864544007228687, 6185711.389459067955613 ] } },
{ "type": "Feature", "properties": { "fid": 2614, "addr:housenumber": null, "addr:street": null, "amenity": "cafe", "name": "ЛяКафе" }, "geometry": { "type": "Point", "coordinates": [ 414783.258906901115552, 6183159.985124162398279 ] } },
{ "type": "Feature", "properties": { "fid": 2670, "addr:housenumber": null, "addr:street": null, "amenity": "cafe", "name": null }, "geometry": { "type": "Point", "coordinates": [ 416518.257013590249699, 6188837.472648726776242 ] } },
{ "type": "Feature", "properties": { "fid": 2718, "addr:housenumber": null, "addr:street": null, "amenity": "cafe", "name": "Шоколадница" }, "geometry": { "type": "Point", "coordinates": [ 414373.746742310759146, 6183549.515476781874895 ] } },
{ "type": "Feature", "properties": { "fid": 2955, "addr:housenumber": null, "addr:street": null, "amenity": "cafe", "name": "Coffee Like" }, "geometry": { "type": "Point", "coordinates": [ 414565.525947905669454, 6185850.793507036752999 ] } },
{ "type": "Feature", "properties": { "fid": 2956, "addr:housenumber": null, "addr:street": null, "amenity": "cafe", "name": "Coffee Like" }, "geometry": { "type": "Point", "coordinates": [ 416275.349529257975519, 6189541.053149589337409 ] } },
{ "type": "Feature", "properties": { "fid": 3011, "addr:housenumber": null, "addr:street": null, "amenity": "cafe", "name": "Шоколадница" }, "geometry": { "type": "Point", "coordinates": [ 414797.867342483717948, 6189922.055601449683309 ] } },
{ "type": "Feature", "properties": { "fid": 3080, "addr:housenumber": null, "addr:street": null, "amenity": "cafe", "name": "Суши Wok" }, "geometry": { "type": "Point", "coordinates": [ 413700.048030704085249, 6187390.279669986106455 ] } },
{ "type": "Feature", "properties": { "fid": 3085, "addr:housenumber": null, "addr:street": null, "amenity": "cafe", "name": "33 пингвина" }, "geometry": { "type": "Point", "coordinates": [ 416254.131283824564889, 6189729.869161928072572 ] } },
{ "type": "Feature", "properties": { "fid": 3089, "addr:housenumber": null, "addr:street": null, "amenity": "cafe", "name": "Космос" }, "geometry": { "type": "Point", "coordinates": [ 413671.590057260298636, 6188621.403679669834673 ] } },
{ "type": "Feature", "properties": { "fid": 3092, "addr:housenumber": null, "addr:street": null, "amenity": "cafe", "name": "Провинчи" }, "geometry": { "type": "Point", "coordinates": [ 412868.54915765253827, 6183999.494805801659822 ] } },
{ "type": "Feature", "properties": { "fid": 3160, "addr:housenumber": null, "addr:street": null, "amenity": "cafe", "name": "Виктория" }, "geometry": { "type": "Point", "coordinates": [ 415959.933104937197641, 6182986.99715110566467 ] } },
{ "type": "Feature", "properties": { "fid": 3178, "addr:housenumber": null, "addr:street": null, "amenity": "cafe", "name": "Bloom-n-brew" }, "geometry": { "type": "Point", "coordinates": [ 415710.063758760050405, 6182956.225516642443836 ] } },
{ "type": "Feature", "properties": { "fid": 3190, "addr:housenumber": null, "addr:street": null, "amenity": "cafe", "name": "Alpini" }, "geometry": { "type": "Point", "coordinates": [ 418170.175601822789758, 6182729.527427215129137 ] } },
{ "type": "Feature", "properties": { "fid": 3207, "addr:housenumber": null, "addr:street": null, "amenity": "cafe", "name": "Tropic" }, "geometry": { "type": "Point", "coordinates": [ 415846.693680036347359, 6183105.277860103175044 ] } },
{ "type": "Feature", "properties": { "fid": 3213, "addr:housenumber": "19", "addr:street": "3-й Красносельский переулок", "amenity": "cafe", "name": "Empath Cafe" }, "geometry": { "type": "Point", "coordinates": [ 415712.662252351874486, 6182896.806000054813921 ] } },
{ "type": "Feature", "properties": { "fid": 3220, "addr:housenumber": null, "addr:street": null, "amenity": "cafe", "name": "Мимино" }, "geometry": { "type": "Point", "coordinates": [ 414375.485638794139959, 6183534.953270345926285 ] } },
{ "type": "Feature", "properties": { "fid": 3240, "addr:housenumber": null, "addr:street": null, "amenity": "cafe", "name": null }, "geometry": { "type": "Point", "coordinates": [ 417996.106053300609346, 6186342.00192620139569 ] } },
{ "type": "Feature", "properties": { "fid": 3249, "addr:housenumber": null, "addr:street": null, "amenity": "cafe", "name": "Вкусная столовая" }, "geometry": { "type": "Point", "coordinates": [ 414532.443268363247626, 6184816.453451731242239 ] } },
{ "type": "Feature", "properties": { "fid": 3283, "addr:housenumber": null, "addr:street": null, "amenity": "cafe", "name": "Кофе муз" }, "geometry": { "type": "Point", "coordinates": [ 414472.403029752313159, 6183193.925558503717184 ] } },
{ "type": "Feature", "properties": { "fid": 3299, "addr:housenumber": null, "addr:street": null, "amenity": "cafe", "name": "Казимир" }, "geometry": { "type": "Point", "coordinates": [ 414889.743496905895881, 6185244.770834595896304 ] } },
{ "type": "Feature", "properties": { "fid": 3377, "addr:housenumber": null, "addr:street": null, "amenity": "cafe", "name": "Столовая" }, "geometry": { "type": "Point", "coordinates": [ 417818.859590006293729, 6182882.414061294868588 ] } },
{ "type": "Feature", "properties": { "fid": 3476, "addr:housenumber": null, "addr:street": null, "amenity": "cafe", "name": null }, "geometry": { "type": "Point", "coordinates": [ 413010.593563745496795, 6184409.033015193417668 ] } },
{ "type": "Feature", "properties": { "fid": 3485, "addr:housenumber": null, "addr:street": null, "amenity": "cafe", "name": "Алиса" }, "geometry": { "type": "Point", "coordinates": [ 416097.435685802483931, 6187656.536761248484254 ] } },
{ "type": "Feature", "properties": { "fid": 3556, "addr:housenumber": null, "addr:street": null, "amenity": "cafe", "name": "Алёнка" }, "geometry": { "type": "Point", "coordinates": [ 415946.676880174316466, 6183180.155632683075964 ] } },
{ "type": "Feature", "properties": { "fid": 3560, "addr:housenumber": null, "addr:street": null, "amenity": "cafe", "name": null }, "geometry": { "type": "Point", "coordinates": [ 415484.366941828106064, 6189212.196419064886868 ] } },
{ "type": "Feature", "properties": { "fid": 3606, "addr:housenumber": null, "addr:street": null, "amenity": "cafe", "name": "Совиный дом" }, "geometry": { "type": "Point", "coordinates": [ 414340.258436590782367, 6183685.302252020686865 ] } },
{ "type": "Feature", "properties": { "fid": 3617, "addr:housenumber": null, "addr:street": null, "amenity": "cafe", "name": "Vizir" }, "geometry": { "type": "Point", "coordinates": [ 413441.367258194542956, 6184651.241922254674137 ] } },
{ "type": "Feature", "properties": { "fid": 3620, "addr:housenumber": null, "addr:street": null, "amenity": "cafe", "name": null }, "geometry": { "type": "Point", "coordinates": [ 413816.752257487620227, 6185960.336089209653437 ] } },
{ "type": "Feature", "properties": { "fid": 3641, "addr:housenumber": null, "addr:street": null, "amenity": "cafe", "name": "Милти" }, "geometry": { "type": "Point", "coordinates": [ 415744.582833354303148, 6186520.171764139086008 ] } },
{ "type": "Feature", "properties": { "fid": 3665, "addr:housenumber": null, "addr:street": null, "amenity": "cafe", "name": "Ставр" }, "geometry": { "type": "Point", "coordinates": [ 418048.028373543056659, 6183681.075884031131864 ] } },
{ "type": "Feature", "properties": { "fid": 3673, "addr:housenumber": null, "addr:street": null, "amenity": "cafe", "name": "Dizengof99" }, "geometry": { "type": "Point", "coordinates": [ 415729.463757116929628, 6182928.597036220133305 ] } },
{ "type": "Feature", "properties": { "fid": 3695, "addr:housenumber": null, "addr:street": null, "amenity": "cafe", "name": "CoffeeShots" }, "geometry": { "type": "Point", "coordinates": [ 414248.457192091736943, 6182792.927929715253413 ] } },
{ "type": "Feature", "properties": { "fid": 3723, "addr:housenumber": null, "addr:street": null, "amenity": "cafe", "name": "Ан Нам" }, "geometry": { "type": "Point", "coordinates": [ 414449.918570286943577, 6182842.436716959811747 ] } },
{ "type": "Feature", "properties": { "fid": 3730, "addr:housenumber": null, "addr:street": null, "amenity": "cafe", "name": "Старт кофе" }, "geometry": { "type": "Point", "coordinates": [ 416109.565972871670965, 6186171.323123722337186 ] } },
{ "type": "Feature", "properties": { "fid": 3735, "addr:housenumber": null, "addr:street": null, "amenity": "cafe", "name": "Джойя" }, "geometry": { "type": "Point", "coordinates": [ 414335.350561761122663, 6183551.263377227820456 ] } },
{ "type": "Feature", "properties": { "fid": 3746, "addr:housenumber": null, "addr:street": null, "amenity": "cafe", "name": null }, "geometry": { "type": "Point", "coordinates": [ 414800.300674087135121, 6188952.114741606637836 ] } },
{ "type": "Feature", "properties": { "fid": 3797, "addr:housenumber": null, "addr:street": null, "amenity": "cafe", "name": "StBrown" }, "geometry": { "type": "Point", "coordinates": [ 413889.986283838399686, 6185479.11251387745142 ] } },
{ "type": "Feature", "properties": { "fid": 3815, "addr:housenumber": null, "addr:street": null, "amenity": "cafe", "name": "Чайхана" }, "geometry": { "type": "Point", "coordinates": [ 414423.871648082975298, 6182881.61285665538162 ] } },
{ "type": "Feature", "properties": { "fid": 4014, "addr:housenumber": null, "addr:street": null, "amenity": "cafe", "name": "Еда без вреда" }, "geometry": { "type": "Point", "coordinates": [ 416357.19439750246238, 6182825.859635544940829 ] } },
{ "type": "Feature", "properties": { "fid": 4035, "addr:housenumber": null, "addr:street": null, "amenity": "cafe", "name": "Он мой" }, "geometry": { "type": "Point", "coordinates": [ 414313.45323683245806, 6182748.239922299049795 ] } },
{ "type": "Feature", "properties": { "fid": 4046, "addr:housenumber": null, "addr:street": null, "amenity": "cafe", "name": "У Акопа" }, "geometry": { "type": "Point", "coordinates": [ 416520.156140429025982, 6183801.837777017615736 ] } },
{ "type": "Feature", "properties": { "fid": 4049, "addr:housenumber": null, "addr:street": null, "amenity": "cafe", "name": "Пекарня Буханка" }, "geometry": { "type": "Point", "coordinates": [ 415514.839408839121461, 6189963.093092159368098 ] } },
{ "type": "Feature", "properties": { "fid": 4129, "addr:housenumber": null, "addr:street": null, "amenity": "cafe", "name": "Jeffrey's" }, "geometry": { "type": "Point", "coordinates": [ 414203.416995188745204, 6189982.632338903844357 ] } },
{ "type": "Feature", "properties": { "fid": 4130, "addr:housenumber": null, "addr:street": null, "amenity": "cafe", "name": "Гедонист" }, "geometry": { "type": "Point", "coordinates": [ 414197.691031922237016, 6189972.748584110289812 ] } },
{ "type": "Feature", "properties": { "fid": 4175, "addr:housenumber": null, "addr:street": null, "amenity": "cafe", "name": "Лаборатория мороженого" }, "geometry": { "type": "Point", "coordinates": [ 414288.030692178115714, 6188397.799715741537511 ] } },
{ "type": "Feature", "properties": { "fid": 4177, "addr:housenumber": null, "addr:street": null, "amenity": "cafe", "name": "Park Point" }, "geometry": { "type": "Point", "coordinates": [ 413098.650973364710808, 6188816.961034568026662 ] } },
{ "type": "Feature", "properties": { "fid": 4178, "addr:housenumber": null, "addr:street": null, "amenity": "cafe", "name": "Grace" }, "geometry": { "type": "Point", "coordinates": [ 413282.99896613083547, 6188918.407173772342503 ] } },
{ "type": "Feature", "properties": { "fid": 4179, "addr:housenumber": null, "addr:street": null, "amenity": "cafe", "name": null }, "geometry": { "type": "Point", "coordinates": [ 413467.821138266415801, 6188943.303174369037151 ] } },
{ "type": "Feature", "properties": { "fid": 4188, "addr:housenumber": null, "addr:street": null, "amenity": "cafe", "name": "Vigor Maker" }, "geometry": { "type": "Point", "coordinates": [ 414613.975501234526746, 6187558.05183994024992 ] } },
{ "type": "Feature", "properties": { "fid": 4198, "addr:housenumber": null, "addr:street": null, "amenity": "cafe", "name": "Не/медленно кофе" }, "geometry": { "type": "Point", "coordinates": [ 414288.081425314419903, 6183611.29844709765166 ] } },
{ "type": "Feature", "properties": { "fid": 4342, "addr:housenumber": null, "addr:street": null, "amenity": "cafe", "name": "Кулинарная лавка братьев Караваевых" }, "geometry": { "type": "Point", "coordinates": [ 417166.074092013703194, 6183357.692647712305188 ] } },
{ "type": "Feature", "properties": { "fid": 4348, "addr:housenumber": null, "addr:street": null, "amenity": "cafe", "name": null }, "geometry": { "type": "Point", "coordinates": [ 416673.4156453628093, 6187912.700492856092751 ] } },
{ "type": "Feature", "properties": { "fid": 4372, "addr:housenumber": null, "addr:street": null, "amenity": "cafe", "name": "Даблби" }, "geometry": { "type": "Point", "coordinates": [ 414770.899198634317145, 6189661.548796004615724 ] } },
{ "type": "Feature", "properties": { "fid": 4396, "addr:housenumber": null, "addr:street": null, "amenity": "cafe", "name": "FOB's" }, "geometry": { "type": "Point", "coordinates": [ 414824.407487199059688, 6189674.579721259884536 ] } },
{ "type": "Feature", "properties": { "fid": 4476, "addr:housenumber": null, "addr:street": null, "amenity": "cafe", "name": "Мос Кофе" }, "geometry": { "type": "Point", "coordinates": [ 416303.519852079683915, 6183707.74176327791065 ] } },
{ "type": "Feature", "properties": { "fid": 4760, "addr:housenumber": null, "addr:street": null, "amenity": "cafe", "name": "Бамбл Кофе" }, "geometry": { "type": "Point", "coordinates": [ 414277.538659691228531, 6183264.906756835989654 ] } },
{ "type": "Feature", "properties": { "fid": 4813, "addr:housenumber": null, "addr:street": null, "amenity": "cafe", "name": "Всё лень" }, "geometry": { "type": "Point", "coordinates": [ 413248.04368314234307, 6188709.956643098965287 ] } },
{ "type": "Feature", "properties": { "fid": 4893, "addr:housenumber": null, "addr:street": null, "amenity": "cafe", "name": null }, "geometry": { "type": "Point", "coordinates": [ 414406.287147042516153, 6188504.028964062221348 ] } },
{ "type": "Feature", "properties": { "fid": 4913, "addr:housenumber": null, "addr:street": null, "amenity": "cafe", "name": "Грамотный кофе" }, "geometry": { "type": "Point", "coordinates": [ 413268.911701338132843, 6188912.243130818009377 ] } },
{ "type": "Feature", "properties": { "fid": 4942, "addr:housenumber": null, "addr:street": null, "amenity": "cafe", "name": "Coffprice" }, "geometry": { "type": "Point", "coordinates": [ 417124.742707483703271, 6183519.309506461955607 ] } },
{ "type": "Feature", "properties": { "fid": 4943, "addr:housenumber": null, "addr:street": null, "amenity": "cafe", "name": "Много Лосося" }, "geometry": { "type": "Point", "coordinates": [ 413059.797409821301699, 6183115.929810715839267 ] } },
{ "type": "Feature", "properties": { "fid": 4982, "addr:housenumber": "119 с178", "addr:street": "Проспект Мира", "amenity": "cafe", "name": "Рёбрышки и крылышки" }, "geometry": { "type": "Point", "coordinates": [ 414106.685159339918755, 6188671.654563418589532 ] } },
{ "type": "Feature", "properties": { "fid": 5010, "addr:housenumber": null, "addr:street": null, "amenity": "cafe", "name": "Cinnabon" }, "geometry": { "type": "Point", "coordinates": [ 416291.235532750259154, 6183009.055044641718268 ] } },
{ "type": "Feature", "properties": { "fid": 5012, "addr:housenumber": null, "addr:street": null, "amenity": "cafe", "name": "Between" }, "geometry": { "type": "Point", "coordinates": [ 415173.13814519206062, 6185598.82532949000597 ] } },
{ "type": "Feature", "properties": { "fid": 5058, "addr:housenumber": null, "addr:street": null, "amenity": "cafe", "name": "Шоколо" }, "geometry": { "type": "Point", "coordinates": [ 413514.679497210716363, 6188376.928975456394255 ] } },
{ "type": "Feature", "properties": { "fid": 5131, "addr:housenumber": null, "addr:street": null, "amenity": "cafe", "name": "Скалка" }, "geometry": { "type": "Point", "coordinates": [ 416211.53116085723741, 6188464.005971846170723 ] } },
{ "type": "Feature", "properties": { "fid": 1211, "addr:housenumber": "119 с547", "addr:street": "проспект Мира", "amenity": "fast_food", "name": "Вкусно — и точка" }, "geometry": { "type": "Point", "coordinates": [ 414670.431337129673921, 6187839.130023350939155 ] } },
{ "type": "Feature", "properties": { "fid": 1413, "addr:housenumber": "26", "addr:street": "Русаковская улица", "amenity": "fast_food", "name": "Вкусно — и точка" }, "geometry": { "type": "Point", "coordinates": [ 417314.033801570360083, 6183354.708886885084212 ] } },
{ "type": "Feature", "properties": { "fid": 1487, "addr:housenumber": "1", "addr:street": "1-й Лучевой просек", "amenity": "fast_food", "name": "ДжиДжиГриль" }, "geometry": { "type": "Point", "coordinates": [ 416572.025984412408434, 6184117.664398455992341 ] } },
{ "type": "Feature", "properties": { "fid": 1506, "addr:housenumber": null, "addr:street": null, "amenity": "fast_food", "name": null }, "geometry": { "type": "Point", "coordinates": [ 417115.735900092346128, 6184130.189340157434344 ] } },
{ "type": "Feature", "properties": { "fid": 1507, "addr:housenumber": null, "addr:street": null, "amenity": "fast_food", "name": "Burger Heroes" }, "geometry": { "type": "Point", "coordinates": [ 416980.318401478289161, 6183851.011069985106587 ] } },
{ "type": "Feature", "properties": { "fid": 1517, "addr:housenumber": null, "addr:street": null, "amenity": "fast_food", "name": "Те самые пончики РусПыш" }, "geometry": { "type": "Point", "coordinates": [ 414641.720886151306331, 6187698.015413594432175 ] } },
{ "type": "Feature", "properties": { "fid": 1518, "addr:housenumber": null, "addr:street": null, "amenity": "fast_food", "name": "Настоящие Хот-Доги" }, "geometry": { "type": "Point", "coordinates": [ 414542.834736172400881, 6187611.814884764142334 ] } },
{ "type": "Feature", "properties": { "fid": 1615, "addr:housenumber": null, "addr:street": null, "amenity": "fast_food", "name": "Kaldi's" }, "geometry": { "type": "Point", "coordinates": [ 413393.001000514079351, 6188005.628323080949485 ] } },
{ "type": "Feature", "properties": { "fid": 1696, "addr:housenumber": null, "addr:street": null, "amenity": "fast_food", "name": "Kaldi's" }, "geometry": { "type": "Point", "coordinates": [ 412928.306937551766168, 6187149.991085395216942 ] } },
{ "type": "Feature", "properties": { "fid": 1702, "addr:housenumber": null, "addr:street": null, "amenity": "fast_food", "name": "Kaldi's" }, "geometry": { "type": "Point", "coordinates": [ 413049.585490789613687, 6187714.964802792295814 ] } },
{ "type": "Feature", "properties": { "fid": 1703, "addr:housenumber": null, "addr:street": null, "amenity": "fast_food", "name": "Kaldi's" }, "geometry": { "type": "Point", "coordinates": [ 412695.905853684875183, 6187700.49736191239208 ] } },
{ "type": "Feature", "properties": { "fid": 1706, "addr:housenumber": null, "addr:street": null, "amenity": "fast_food", "name": "Мишки любят кофе" }, "geometry": { "type": "Point", "coordinates": [ 414860.828304750088137, 6189387.631595283746719 ] } },
{ "type": "Feature", "properties": { "fid": 1707, "addr:housenumber": null, "addr:street": null, "amenity": "fast_food", "name": "Чебуреки" }, "geometry": { "type": "Point", "coordinates": [ 414860.5688469579909, 6189373.812806504778564 ] } },
{ "type": "Feature", "properties": { "fid": 1708, "addr:housenumber": null, "addr:street": null, "amenity": "fast_food", "name": "Lucky Souvlaki" }, "geometry": { "type": "Point", "coordinates": [ 414850.456750677258242, 6189380.718802065588534 ] } },
{ "type": "Feature", "properties": { "fid": 1729, "addr:housenumber": null, "addr:street": null, "amenity": "fast_food", "name": null }, "geometry": { "type": "Point", "coordinates": [ 416439.361993100610562, 6184041.395953442901373 ] } },
{ "type": "Feature", "properties": { "fid": 1730, "addr:housenumber": null, "addr:street": null, "amenity": "fast_food", "name": "Блинная" }, "geometry": { "type": "Point", "coordinates": [ 416449.159815210150555, 6184040.183261453174055 ] } },
{ "type": "Feature", "properties": { "fid": 1999, "addr:housenumber": null, "addr:street": null, "amenity": "fast_food", "name": null }, "geometry": { "type": "Point", "coordinates": [ 416998.578059256717097, 6184094.955391483381391 ] } },
{ "type": "Feature", "properties": { "fid": 2000, "addr:housenumber": null, "addr:street": null, "amenity": "fast_food", "name": null }, "geometry": { "type": "Point", "coordinates": [ 417007.062240740284324, 6184097.36480874940753 ] } },
{ "type": "Feature", "properties": { "fid": 1805, "addr:housenumber": null, "addr:street": null, "amenity": "ice_cream", "name": null }, "geometry": { "type": "Point", "coordinates": [ 416893.428866065980401, 6183620.313836812973022 ] } },
{ "type": "Feature", "properties": { "fid": 2263, "addr:housenumber": null, "addr:street": null, "amenity": "ice_cream", "name": null }, "geometry": { "type": "Point", "coordinates": [ 414802.645362464769278, 6189764.910968071781099 ] } },
{ "type": "Feature", "properties": { "fid": 755, "addr:housenumber": null, "addr:street": null, "amenity": "bar", "name": "У Славы" }, "geometry": { "type": "Point", "coordinates": [ 412649.233667989901733, 6182685.184233332052827 ] } },
{ "type": "Feature", "properties": { "fid": 1045, "addr:housenumber": null, "addr:street": null, "amenity": "bar", "name": "NX" }, "geometry": { "type": "Point", "coordinates": [ 413543.031904621224385, 6186184.024151595309377 ] } },
{ "type": "Feature", "properties": { "fid": 1073, "addr:housenumber": null, "addr:street": null, "amenity": "bar", "name": "Фортуна" }, "geometry": { "type": "Point", "coordinates": [ 413393.520220736216288, 6186714.191358 ] } },
{ "type": "Feature", "properties": { "fid": 1241, "addr:housenumber": null, "addr:street": null, "amenity": "bar", "name": "Галактика" }, "geometry": { "type": "Point", "coordinates": [ 413739.476513636414893, 6187155.354080077260733 ] } },
{ "type": "Feature", "properties": { "fid": 1317, "addr:housenumber": null, "addr:street": null, "amenity": "bar", "name": "Бигус" }, "geometry": { "type": "Point", "coordinates": [ 416836.566727513447404, 6182895.830005754716694 ] } },
{ "type": "Feature", "properties": { "fid": 1772, "addr:housenumber": null, "addr:street": null, "amenity": "bar", "name": "ТВ Бар" }, "geometry": { "type": "Point", "coordinates": [ 413269.281451318995096, 6186743.480460596270859 ] } },
{ "type": "Feature", "properties": { "fid": 2472, "addr:housenumber": null, "addr:street": null, "amenity": "bar", "name": "Океан" }, "geometry": { "type": "Point", "coordinates": [ 414507.603358188585844, 6185472.826623669825494 ] } },
{ "type": "Feature", "properties": { "fid": 2522, "addr:housenumber": null, "addr:street": null, "amenity": "bar", "name": "Крафт Бар" }, "geometry": { "type": "Point", "coordinates": [ 414399.617789995041676, 6185765.992978438735008 ] } },
{ "type": "Feature", "properties": { "fid": 3038, "addr:housenumber": null, "addr:street": null, "amenity": "bar", "name": "Бонгусто" }, "geometry": { "type": "Point", "coordinates": [ 417124.934208392805886, 6183536.249230483546853 ] } },
{ "type": "Feature", "properties": { "fid": 3115, "addr:housenumber": "2", "addr:street": "Шереметьевская улица", "amenity": "bar", "name": "Крафт будка" }, "geometry": { "type": "Point", "coordinates": [ 413411.996092507150024, 6183980.476373995654285 ] } },
{ "type": "Feature", "properties": { "fid": 3197, "addr:housenumber": null, "addr:street": null, "amenity": "bar", "name": "Прогресс" }, "geometry": { "type": "Point", "coordinates": [ 414301.151064242527355, 6183427.142523321323097 ] } },
{ "type": "Feature", "properties": { "fid": 4364, "addr:housenumber": null, "addr:street": null, "amenity": "bar", "name": "Бирманки" }, "geometry": { "type": "Point", "coordinates": [ 414824.622406675014645, 6190082.941184915602207 ] } },
{ "type": "Feature", "properties": { "fid": 5123, "addr:housenumber": null, "addr:street": null, "amenity": "bar", "name": "Craft Beer" }, "geometry": { "type": "Point", "coordinates": [ 414327.732929928053636, 6186534.589487101882696 ] } },
{ "type": "Feature", "properties": { "fid": 16, "addr:housenumber": "21", "addr:street": "Маломосковская улица", "amenity": "fast_food", "name": "Папа Джонс" }, "geometry": { "type": "Point", "coordinates": [ 415434.246809492702596, 6186137.607301722280681 ] } },
{ "type": "Feature", "properties": { "fid": 42, "addr:housenumber": null, "addr:street": null, "amenity": "fast_food", "name": null }, "geometry": { "type": "Point", "coordinates": [ 415953.468464149569627, 6183046.157259274274111 ] } },
{ "type": "Feature", "properties": { "fid": 88, "addr:housenumber": "97", "addr:street": "проспект Мира", "amenity": "fast_food", "name": "Вкусно — и точка" }, "geometry": { "type": "Point", "coordinates": [ 414552.69913455680944, 6185770.847217109054327 ] } },
{ "type": "Feature", "properties": { "fid": 99, "addr:housenumber": null, "addr:street": null, "amenity": "fast_food", "name": "Суши Wok" }, "geometry": { "type": "Point", "coordinates": [ 413507.555319514591247, 6183933.039890040643513 ] } },
{ "type": "Feature", "properties": { "fid": 127, "addr:housenumber": null, "addr:street": null, "amenity": "fast_food", "name": null }, "geometry": { "type": "Point", "coordinates": [ 417171.700126594514586, 6183340.241232886910439 ] } },
{ "type": "Feature", "properties": { "fid": 160, "addr:housenumber": null, "addr:street": null, "amenity": "fast_food", "name": null }, "geometry": { "type": "Point", "coordinates": [ 415735.883117784047499, 6188954.714805856347084 ] } },
{ "type": "Feature", "properties": { "fid": 217, "addr:housenumber": null, "addr:street": null, "amenity": "fast_food", "name": "Вкусно — и точка" }, "geometry": { "type": "Point", "coordinates": [ 413392.659666016348638, 6185028.02775760833174 ] } },
{ "type": "Feature", "properties": { "fid": 218, "addr:housenumber": null, "addr:street": null, "amenity": "fast_food", "name": "KFC" }, "geometry": { "type": "Point", "coordinates": [ 413392.8309423304745, 6185008.954180218279362 ] } },
{ "type": "Feature", "properties": { "fid": 220, "addr:housenumber": null, "addr:street": null, "amenity": "fast_food", "name": "Теремок" }, "geometry": { "type": "Point", "coordinates": [ 413388.437924149970058, 6185038.621166064403951 ] } },
{ "type": "Feature", "properties": { "fid": 237, "addr:housenumber": null, "addr:street": null, "amenity": "fast_food", "name": "100ловая" }, "geometry": { "type": "Point", "coordinates": [ 414843.139115655911155, 6184950.996307584457099 ] } },
{ "type": "Feature", "properties": { "fid": 260, "addr:housenumber": null, "addr:street": null, "amenity": "fast_food", "name": "Вкусно — и точка" }, "geometry": { "type": "Point", "coordinates": [ 414944.14247145713307, 6187710.916235968470573 ] } },
{ "type": "Feature", "properties": { "fid": 267, "addr:housenumber": null, "addr:street": null, "amenity": "fast_food", "name": null }, "geometry": { "type": "Point", "coordinates": [ 414929.575915611174423, 6184443.463597811758518 ] } },
{ "type": "Feature", "properties": { "fid": 296, "addr:housenumber": null, "addr:street": null, "amenity": "fast_food", "name": "Ёрш" }, "geometry": { "type": "Point", "coordinates": [ 416076.01223611983005, 6187047.950301561504602 ] } },
{ "type": "Feature", "properties": { "fid": 312, "addr:housenumber": null, "addr:street": null, "amenity": "fast_food", "name": "Стардог!s" }, "geometry": { "type": "Point", "coordinates": [ 417987.655278095509857, 6186175.099229570478201 ] } },
{ "type": "Feature", "properties": { "fid": 335, "addr:housenumber": null, "addr:street": null, "amenity": "fast_food", "name": "Крошка Картошка" }, "geometry": { "type": "Point", "coordinates": [ 414521.993693920550868, 6185558.5531842475757 ] } },
{ "type": "Feature", "properties": { "fid": 539, "addr:housenumber": null, "addr:street": null, "amenity": "fast_food", "name": "Бургер Кинг" }, "geometry": { "type": "Point", "coordinates": [ 413314.391389488941059, 6184086.836165554821491 ] } },
{ "type": "Feature", "properties": { "fid": 540, "addr:housenumber": null, "addr:street": null, "amenity": "fast_food", "name": "Теремок" }, "geometry": { "type": "Point", "coordinates": [ 413315.494484103750437, 6184095.597767014056444 ] } },
{ "type": "Feature", "properties": { "fid": 541, "addr:housenumber": null, "addr:street": null, "amenity": "fast_food", "name": "Крошка Картошка" }, "geometry": { "type": "Point", "coordinates": [ 413313.829684998490848, 6184104.882188585586846 ] } },
{ "type": "Feature", "properties": { "fid": 542, "addr:housenumber": null, "addr:street": null, "amenity": "fast_food", "name": "Вкусно — и точка" }, "geometry": { "type": "Point", "coordinates": [ 414428.253373710147571, 6187307.388078760355711 ] } },
{ "type": "Feature", "properties": { "fid": 545, "addr:housenumber": null, "addr:street": null, "amenity": "fast_food", "name": "Домино'с Пицца" }, "geometry": { "type": "Point", "coordinates": [ 414867.113857660035137, 6182799.174245692789555 ] } },
{ "type": "Feature", "properties": { "fid": 596, "addr:housenumber": null, "addr:street": null, "amenity": "fast_food", "name": "Вкусно — и точка" }, "geometry": { "type": "Point", "coordinates": [ 414214.331703050702345, 6182556.000523158349097 ] } },
{ "type": "Feature", "properties": { "fid": 617, "addr:housenumber": null, "addr:street": null, "amenity": "fast_food", "name": null }, "geometry": { "type": "Point", "coordinates": [ 414693.21136555634439, 6188029.337279470637441 ] } },
{ "type": "Feature", "properties": { "fid": 633, "addr:housenumber": null, "addr:street": null, "amenity": "fast_food", "name": "Pizza Hut" }, "geometry": { "type": "Point", "coordinates": [ 414964.166292161331512, 6187723.214712231419981 ] } },
{ "type": "Feature", "properties": { "fid": 638, "addr:housenumber": null, "addr:street": null, "amenity": "fast_food", "name": "KFC" }, "geometry": { "type": "Point", "coordinates": [ 413188.701161163218785, 6183975.449224967509508 ] } },
{ "type": "Feature", "properties": { "fid": 653, "addr:housenumber": null, "addr:street": null, "amenity": "fast_food", "name": "Чешские колбаски" }, "geometry": { "type": "Point", "coordinates": [ 417070.353077983367257, 6183939.245647716335952 ] } },
{ "type": "Feature", "properties": { "fid": 723, "addr:housenumber": null, "addr:street": null, "amenity": "fast_food", "name": "МагБургер" }, "geometry": { "type": "Point", "coordinates": [ 415561.866552444756962, 6188013.495657255873084 ] } },
{ "type": "Feature", "properties": { "fid": 740, "addr:housenumber": null, "addr:street": null, "amenity": "fast_food", "name": null }, "geometry": { "type": "Point", "coordinates": [ 416890.401492510922253, 6183991.979643303900957 ] } },
{ "type": "Feature", "properties": { "fid": 751, "addr:housenumber": null, "addr:street": null, "amenity": "fast_food", "name": null }, "geometry": { "type": "Point", "coordinates": [ 414172.109732005163096, 6186677.490158717148006 ] } },
{ "type": "Feature", "properties": { "fid": 815, "addr:housenumber": null, "addr:street": null, "amenity": "fast_food", "name": null }, "geometry": { "type": "Point", "coordinates": [ 416057.914378111890983, 6187032.169517927803099 ] } },
{ "type": "Feature", "properties": { "fid": 925, "addr:housenumber": null, "addr:street": null, "amenity": "fast_food", "name": "Coffee and the City" }, "geometry": { "type": "Point", "coordinates": [ 414478.68470199755393, 6187680.615008195862174 ] } },
{ "type": "Feature", "properties": { "fid": 926, "addr:housenumber": null, "addr:street": null, "amenity": "fast_food", "name": null }, "geometry": { "type": "Point", "coordinates": [ 414475.519889636896551, 6187686.956183856353164 ] } },
{ "type": "Feature", "properties": { "fid": 972, "addr:housenumber": null, "addr:street": null, "amenity": "fast_food", "name": "Gyros for Heroes" }, "geometry": { "type": "Point", "coordinates": [ 414213.495149035356008, 6188221.875512862578034 ] } },
{ "type": "Feature", "properties": { "fid": 973, "addr:housenumber": null, "addr:street": null, "amenity": "fast_food", "name": "Дымов гриль" }, "geometry": { "type": "Point", "coordinates": [ 414222.083408002741635, 6188229.698840296827257 ] } },
{ "type": "Feature", "properties": { "fid": 974, "addr:housenumber": null, "addr:street": null, "amenity": "fast_food", "name": "Pho" }, "geometry": { "type": "Point", "coordinates": [ 414260.175742060819175, 6188217.846338788047433 ] } },
{ "type": "Feature", "properties": { "fid": 975, "addr:housenumber": null, "addr:street": null, "amenity": "fast_food", "name": "Шаварма Хаус" }, "geometry": { "type": "Point", "coordinates": [ 414236.271159857860766, 6188197.189341468736529 ] } },
{ "type": "Feature", "properties": { "fid": 976, "addr:housenumber": null, "addr:street": null, "amenity": "fast_food", "name": "Shrimp box" }, "geometry": { "type": "Point", "coordinates": [ 414244.648878610809334, 6188204.50477747246623 ] } },
{ "type": "Feature", "properties": { "fid": 977, "addr:housenumber": null, "addr:street": null, "amenity": "fast_food", "name": "Те самые пончики" }, "geometry": { "type": "Point", "coordinates": [ 414254.168302813486662, 6188223.9321917174384 ] } },
{ "type": "Feature", "properties": { "fid": 978, "addr:housenumber": null, "addr:street": null, "amenity": "fast_food", "name": "Теремок" }, "geometry": { "type": "Point", "coordinates": [ 414230.658669741707854, 6188237.500175782479346 ] } },
{ "type": "Feature", "properties": { "fid": 980, "addr:housenumber": null, "addr:street": null, "amenity": "fast_food", "name": "Столовая №2" }, "geometry": { "type": "Point", "coordinates": [ 415425.332254086446483, 6182775.391438228078187 ] } },
{ "type": "Feature", "properties": { "fid": 981, "addr:housenumber": null, "addr:street": null, "amenity": "fast_food", "name": "Бургер Кинг" }, "geometry": { "type": "Point", "coordinates": [ 416385.21225867891917, 6189786.184767871163785 ] } },
{ "type": "Feature", "properties": { "fid": 982, "addr:housenumber": null, "addr:street": null, "amenity": "fast_food", "name": "Franklin's" }, "geometry": { "type": "Point", "coordinates": [ 416373.349433514522389, 6189792.336110949516296 ] } },
{ "type": "Feature", "properties": { "fid": 983, "addr:housenumber": null, "addr:street": null, "amenity": "fast_food", "name": "Крошка Картошка" }, "geometry": { "type": "Point", "coordinates": [ 416359.575709893426392, 6189797.155067515559494 ] } },
{ "type": "Feature", "properties": { "fid": 985, "addr:housenumber": null, "addr:street": null, "amenity": "fast_food", "name": null }, "geometry": { "type": "Point", "coordinates": [ 416351.728595514432527, 6189800.434729033149779 ] } },
{ "type": "Feature", "properties": { "fid": 986, "addr:housenumber": null, "addr:street": null, "amenity": "fast_food", "name": null }, "geometry": { "type": "Point", "coordinates": [ 416348.047779850137886, 6189809.946108838543296 ] } },
{ "type": "Feature", "properties": { "fid": 990, "addr:housenumber": null, "addr:street": null, "amenity": "fast_food", "name": "Subway" }, "geometry": { "type": "Point", "coordinates": [ 414905.538801631482784, 6186935.71318425796926 ] } },
{ "type": "Feature", "properties": { "fid": 1053, "addr:housenumber": null, "addr:street": null, "amenity": "fast_food", "name": "Столовая.ру" }, "geometry": { "type": "Point", "coordinates": [ 413387.181834935559891, 6186802.967103973962367 ] } },
{ "type": "Feature", "properties": { "fid": 1055, "addr:housenumber": null, "addr:street": null, "amenity": "fast_food", "name": "KFC" }, "geometry": { "type": "Point", "coordinates": [ 414503.235191474785097, 6187376.612560997717083 ] } },
{ "type": "Feature", "properties": { "fid": 1211, "addr:housenumber": null, "addr:street": null, "amenity": "fast_food", "name": null }, "geometry": { "type": "Point", "coordinates": [ 413094.851584647723939, 6184524.249517812393606 ] } },
{ "type": "Feature", "properties": { "fid": 1242, "addr:housenumber": null, "addr:street": null, "amenity": "fast_food", "name": "Бистро" }, "geometry": { "type": "Point", "coordinates": [ 414172.019659192301333, 6186684.026765871793032 ] } },
{ "type": "Feature", "properties": { "fid": 1256, "addr:housenumber": null, "addr:street": null, "amenity": "fast_food", "name": "Кебаб" }, "geometry": { "type": "Point", "coordinates": [ 413171.7974389573792, 6183971.311847095377743 ] } },
{ "type": "Feature", "properties": { "fid": 1319, "addr:housenumber": null, "addr:street": null, "amenity": "fast_food", "name": "KFC" }, "geometry": { "type": "Point", "coordinates": [ 417205.637319076107815, 6183576.344954870641232 ] } },
{ "type": "Feature", "properties": { "fid": 1325, "addr:housenumber": null, "addr:street": null, "amenity": "fast_food", "name": "Крошка Картошка" }, "geometry": { "type": "Point", "coordinates": [ 414013.802087543765083, 6182588.953481738455594 ] } },
{ "type": "Feature", "properties": { "fid": 1327, "addr:housenumber": null, "addr:street": null, "amenity": "fast_food", "name": "Бургер Кинг" }, "geometry": { "type": "Point", "coordinates": [ 417227.787482519284822, 6183507.403449354693294 ] } },
{ "type": "Feature", "properties": { "fid": 1400, "addr:housenumber": null, "addr:street": null, "amenity": "fast_food", "name": "Бургер Кинг" }, "geometry": { "type": "Point", "coordinates": [ 414508.080725467647426, 6183870.669321840628982 ] } },
{ "type": "Feature", "properties": { "fid": 1418, "addr:housenumber": null, "addr:street": null, "amenity": "fast_food", "name": null }, "geometry": { "type": "Point", "coordinates": [ 416812.567792640649714, 6184013.708470979705453 ] } },
{ "type": "Feature", "properties": { "fid": 1431, "addr:housenumber": null, "addr:street": null, "amenity": "fast_food", "name": "Шаурма" }, "geometry": { "type": "Point", "coordinates": [ 417240.047008255962282, 6183500.022903722710907 ] } },
{ "type": "Feature", "properties": { "fid": 1474, "addr:housenumber": null, "addr:street": null, "amenity": "fast_food", "name": "Domino's" }, "geometry": { "type": "Point", "coordinates": [ 414957.371753940708004, 6186456.755325652658939 ] } },
{ "type": "Feature", "properties": { "fid": 1510, "addr:housenumber": null, "addr:street": null, "amenity": "fast_food", "name": "Бургер Кинг" }, "geometry": { "type": "Point", "coordinates": [ 414467.697329912800342, 6187295.945173080079257 ] } },
{ "type": "Feature", "properties": { "fid": 1569, "addr:housenumber": null, "addr:street": null, "amenity": "fast_food", "name": "Бургер Кинг" }, "geometry": { "type": "Point", "coordinates": [ 413378.990693108527921, 6185010.75547566358 ] } },
{ "type": "Feature", "properties": { "fid": 1572, "addr:housenumber": null, "addr:street": null, "amenity": "fast_food", "name": "Барбекю" }, "geometry": { "type": "Point", "coordinates": [ 413392.702692436752841, 6185035.84199146181345 ] } },
{ "type": "Feature", "properties": { "fid": 1573, "addr:housenumber": null, "addr:street": null, "amenity": "fast_food", "name": "Krispy Kreme" }, "geometry": { "type": "Point", "coordinates": [ 413391.713152479147539, 6185100.330681221559644 ] } },
{ "type": "Feature", "properties": { "fid": 1574, "addr:housenumber": null, "addr:street": null, "amenity": "fast_food", "name": "Крошка Картошка" }, "geometry": { "type": "Point", "coordinates": [ 413394.667201154865324, 6185019.593720748089254 ] } },
{ "type": "Feature", "properties": { "fid": 1655, "addr:housenumber": null, "addr:street": null, "amenity": "fast_food", "name": "Burger Point" }, "geometry": { "type": "Point", "coordinates": [ 413387.288985988299828, 6187667.771462551318109 ] } },
{ "type": "Feature", "properties": { "fid": 1730, "addr:housenumber": null, "addr:street": null, "amenity": "fast_food", "name": "Domino's" }, "geometry": { "type": "Point", "coordinates": [ 413277.691560069913976, 6185196.454941865056753 ] } },
{ "type": "Feature", "properties": { "fid": 1762, "addr:housenumber": null, "addr:street": null, "amenity": "fast_food", "name": "Udon&Soba" }, "geometry": { "type": "Point", "coordinates": [ 413386.090448909904808, 6185005.815667410381138 ] } },
{ "type": "Feature", "properties": { "fid": 1765, "addr:housenumber": null, "addr:street": null, "amenity": "fast_food", "name": "Шаурма" }, "geometry": { "type": "Point", "coordinates": [ 413193.415156405302696, 6185411.819066607393324 ] } },
{ "type": "Feature", "properties": { "fid": 1776, "addr:housenumber": null, "addr:street": null, "amenity": "fast_food", "name": "Kaldi's" }, "geometry": { "type": "Point", "coordinates": [ 413346.935015759023372, 6187511.662634114734828 ] } },
{ "type": "Feature", "properties": { "fid": 1778, "addr:housenumber": null, "addr:street": null, "amenity": "fast_food", "name": null }, "geometry": { "type": "Point", "coordinates": [ 417033.111282655736431, 6183927.700271691195667 ] } },
{ "type": "Feature", "properties": { "fid": 1781, "addr:housenumber": null, "addr:street": null, "amenity": "fast_food", "name": "Subway" }, "geometry": { "type": "Point", "coordinates": [ 414606.350356363051105, 6188827.716450380161405 ] } },
{ "type": "Feature", "properties": { "fid": 1782, "addr:housenumber": null, "addr:street": null, "amenity": "fast_food", "name": "Столовая троллейбусного парка" }, "geometry": { "type": "Point", "coordinates": [ 414974.084810108528472, 6187730.835310133174062 ] } },
{ "type": "Feature", "properties": { "fid": 1788, "addr:housenumber": null, "addr:street": null, "amenity": "fast_food", "name": "Cofix" }, "geometry": { "type": "Point", "coordinates": [ 416261.132779662730172, 6189761.595058616250753 ] } },
{ "type": "Feature", "properties": { "fid": 1827, "addr:housenumber": null, "addr:street": null, "amenity": "fast_food", "name": "Чешский трдельник" }, "geometry": { "type": "Point", "coordinates": [ 416874.82947333069751, 6183992.645045786164701 ] } },
{ "type": "Feature", "properties": { "fid": 1845, "addr:housenumber": null, "addr:street": null, "amenity": "fast_food", "name": "Те самые пончики" }, "geometry": { "type": "Point", "coordinates": [ 413381.509542169165798, 6187900.503804246895015 ] } },
{ "type": "Feature", "properties": { "fid": 2255, "addr:housenumber": null, "addr:street": null, "amenity": "fast_food", "name": "Столовая" }, "geometry": { "type": "Point", "coordinates": [ 416771.544350128271617, 6183731.19862865190953 ] } },
{ "type": "Feature", "properties": { "fid": 2266, "addr:housenumber": null, "addr:street": null, "amenity": "fast_food", "name": "Coffee Kaldi's" }, "geometry": { "type": "Point", "coordinates": [ 416999.442395861609839, 6184134.603412398137152 ] } },
{ "type": "Feature", "properties": { "fid": 2269, "addr:housenumber": null, "addr:street": null, "amenity": "fast_food", "name": "Subway" }, "geometry": { "type": "Point", "coordinates": [ 417225.096513626340311, 6183538.001773471012712 ] } },
{ "type": "Feature", "properties": { "fid": 2270, "addr:housenumber": null, "addr:street": null, "amenity": "fast_food", "name": "Subway" }, "geometry": { "type": "Point", "coordinates": [ 416944.807340199244209, 6184144.475947484374046 ] } },
{ "type": "Feature", "properties": { "fid": 2324, "addr:housenumber": null, "addr:street": null, "amenity": "fast_food", "name": "Столовая" }, "geometry": { "type": "Point", "coordinates": [ 414463.398176454822533, 6188885.629527667537332 ] } },
{ "type": "Feature", "properties": { "fid": 2350, "addr:housenumber": null, "addr:street": null, "amenity": "fast_food", "name": "Бургер Кинг" }, "geometry": { "type": "Point", "coordinates": [ 414189.576056680234615, 6182561.755043692886829 ] } },
{ "type": "Feature", "properties": { "fid": 2370, "addr:housenumber": null, "addr:street": null, "amenity": "fast_food", "name": null }, "geometry": { "type": "Point", "coordinates": [ 418008.700553117902018, 6183625.433281718753278 ] } },
{ "type": "Feature", "properties": { "fid": 2439, "addr:housenumber": null, "addr:street": null, "amenity": "fast_food", "name": null }, "geometry": { "type": "Point", "coordinates": [ 415315.385454554227181, 6184921.464375857263803 ] } },
{ "type": "Feature", "properties": { "fid": 2459, "addr:housenumber": null, "addr:street": null, "amenity": "fast_food", "name": "KFC" }, "geometry": { "type": "Point", "coordinates": [ 414618.34630763262976, 6185500.749219954945147 ] } },
{ "type": "Feature", "properties": { "fid": 2483, "addr:housenumber": null, "addr:street": null, "amenity": "fast_food", "name": "Ивис" }, "geometry": { "type": "Point", "coordinates": [ 417712.883338586019818, 6183461.627913139760494 ] } },
{ "type": "Feature", "properties": { "fid": 2520, "addr:housenumber": null, "addr:street": null, "amenity": "fast_food", "name": null }, "geometry": { "type": "Point", "coordinates": [ 418191.168167686788365, 6184446.223986771889031 ] } },
{ "type": "Feature", "properties": { "fid": 2523, "addr:housenumber": null, "addr:street": null, "amenity": "fast_food", "name": null }, "geometry": { "type": "Point", "coordinates": [ 413872.24819577508606, 6185504.635209605097771 ] } },
{ "type": "Feature", "properties": { "fid": 2546, "addr:housenumber": null, "addr:street": null, "amenity": "fast_food", "name": null }, "geometry": { "type": "Point", "coordinates": [ 416067.796297315915581, 6190128.866415823809803 ] } },
{ "type": "Feature", "properties": { "fid": 2547, "addr:housenumber": null, "addr:street": null, "amenity": "fast_food", "name": "Домино'c" }, "geometry": { "type": "Point", "coordinates": [ 416933.429231987916864, 6183156.933316214941442 ] } },
{ "type": "Feature", "properties": { "fid": 2550, "addr:housenumber": null, "addr:street": null, "amenity": "fast_food", "name": null }, "geometry": { "type": "Point", "coordinates": [ 414968.573037240770645, 6186452.606030379422009 ] } },
{ "type": "Feature", "properties": { "fid": 2581, "addr:housenumber": null, "addr:street": null, "amenity": "fast_food", "name": "Take and wake" }, "geometry": { "type": "Point", "coordinates": [ 417139.748373182315845, 6183492.483791812323034 ] } },
{ "type": "Feature", "properties": { "fid": 2591, "addr:housenumber": null, "addr:street": null, "amenity": "fast_food", "name": "Додо Пицца" }, "geometry": { "type": "Point", "coordinates": [ 413579.03707321791444, 6186522.606962121091783 ] } },
{ "type": "Feature", "properties": { "fid": 2597, "addr:housenumber": null, "addr:street": null, "amenity": "fast_food", "name": "Вкусняк" }, "geometry": { "type": "Point", "coordinates": [ 412625.071767921966966, 6183092.467474581673741 ] } },
{ "type": "Feature", "properties": { "fid": 2632, "addr:housenumber": null, "addr:street": null, "amenity": "fast_food", "name": "Донёр Кинг" }, "geometry": { "type": "Point", "coordinates": [ 414529.619277551595587, 6185552.602969051338732 ] } },
{ "type": "Feature", "properties": { "fid": 2671, "addr:housenumber": null, "addr:street": null, "amenity": "fast_food", "name": "Шаурма" }, "geometry": { "type": "Point", "coordinates": [ 416418.372311221435666, 6188694.029429135844111 ] } },
{ "type": "Feature", "properties": { "fid": 2676, "addr:housenumber": null, "addr:street": null, "amenity": "fast_food", "name": null }, "geometry": { "type": "Point", "coordinates": [ 414457.598869165231008, 6187993.900873069651425 ] } },
{ "type": "Feature", "properties": { "fid": 2685, "addr:housenumber": null, "addr:street": null, "amenity": "fast_food", "name": null }, "geometry": { "type": "Point", "coordinates": [ 414560.42773525044322, 6187787.090180206112564 ] } },
{ "type": "Feature", "properties": { "fid": 2716, "addr:housenumber": null, "addr:street": null, "amenity": "fast_food", "name": "Синкопа" }, "geometry": { "type": "Point", "coordinates": [ 416038.146882963133976, 6182877.689983489923179 ] } },
{ "type": "Feature", "properties": { "fid": 2719, "addr:housenumber": null, "addr:street": null, "amenity": "fast_food", "name": null }, "geometry": { "type": "Point", "coordinates": [ 413175.176529279793613, 6184420.411755937151611 ] } },
{ "type": "Feature", "properties": { "fid": 2722, "addr:housenumber": null, "addr:street": null, "amenity": "fast_food", "name": null }, "geometry": { "type": "Point", "coordinates": [ 413052.782245842157863, 6183381.593939531594515 ] } },
{ "type": "Feature", "properties": { "fid": 2723, "addr:housenumber": null, "addr:street": null, "amenity": "fast_food", "name": null }, "geometry": { "type": "Point", "coordinates": [ 417071.558602285338566, 6183933.73439272120595 ] } },
{ "type": "Feature", "properties": { "fid": 2724, "addr:housenumber": null, "addr:street": null, "amenity": "fast_food", "name": null }, "geometry": { "type": "Point", "coordinates": [ 417030.679361973074265, 6183934.014231129549444 ] } },
{ "type": "Feature", "properties": { "fid": 2785, "addr:housenumber": null, "addr:street": null, "amenity": "fast_food", "name": null }, "geometry": { "type": "Point", "coordinates": [ 413396.966127803665586, 6187728.429338781163096 ] } },
{ "type": "Feature", "properties": { "fid": 2954, "addr:housenumber": null, "addr:street": null, "amenity": "fast_food", "name": "Coffee Like" }, "geometry": { "type": "Point", "coordinates": [ 417098.553766056429595, 6183489.930152487941086 ] } },
{ "type": "Feature", "properties": { "fid": 3044, "addr:housenumber": null, "addr:street": null, "amenity": "fast_food", "name": null }, "geometry": { "type": "Point", "coordinates": [ 415680.701819841284305, 6190138.818505574017763 ] } },
{ "type": "Feature", "properties": { "fid": 3083, "addr:housenumber": null, "addr:street": null, "amenity": "fast_food", "name": "Домино’c" }, "geometry": { "type": "Point", "coordinates": [ 414356.481379617878702, 6186551.266308451071382 ] } },
{ "type": "Feature", "properties": { "fid": 3090, "addr:housenumber": null, "addr:street": null, "amenity": "fast_food", "name": "Бургер" }, "geometry": { "type": "Point", "coordinates": [ 415048.795046156854369, 6186979.662343652918935 ] } },
{ "type": "Feature", "properties": { "fid": 3091, "addr:housenumber": null, "addr:street": null, "amenity": "fast_food", "name": "KFC" }, "geometry": { "type": "Point", "coordinates": [ 416483.460403444827534, 6182504.622519019991159 ] } },
{ "type": "Feature", "properties": { "fid": 3097, "addr:housenumber": null, "addr:street": null, "amenity": "fast_food", "name": null }, "geometry": { "type": "Point", "coordinates": [ 414164.89257810136769, 6183585.510246029123664 ] } },
{ "type": "Feature", "properties": { "fid": 3116, "addr:housenumber": null, "addr:street": null, "amenity": "fast_food", "name": "Coffee Like" }, "geometry": { "type": "Point", "coordinates": [ 414541.497958200459834, 6185974.058487785980105 ] } },
{ "type": "Feature", "properties": { "fid": 3161, "addr:housenumber": null, "addr:street": null, "amenity": "fast_food", "name": null }, "geometry": { "type": "Point", "coordinates": [ 412804.047538930783048, 6183291.407141910865903 ] } },
{ "type": "Feature", "properties": { "fid": 3174, "addr:housenumber": null, "addr:street": null, "amenity": "fast_food", "name": "Subway" }, "geometry": { "type": "Point", "coordinates": [ 415655.689801097731106, 6183704.132191985845566 ] } },
{ "type": "Feature", "properties": { "fid": 3176, "addr:housenumber": null, "addr:street": null, "amenity": "fast_food", "name": "Додо Пицца" }, "geometry": { "type": "Point", "coordinates": [ 417269.921630398486741, 6183628.120927411131561 ] } },
{ "type": "Feature", "properties": { "fid": 3248, "addr:housenumber": null, "addr:street": null, "amenity": "fast_food", "name": null }, "geometry": { "type": "Point", "coordinates": [ 415444.228955589351244, 6185138.195700981654227 ] } },
{ "type": "Feature", "properties": { "fid": 3271, "addr:housenumber": null, "addr:street": null, "amenity": "fast_food", "name": null }, "geometry": { "type": "Point", "coordinates": [ 417111.308362748939544, 6183495.353080955334008 ] } },
{ "type": "Feature", "properties": { "fid": 3410, "addr:housenumber": null, "addr:street": null, "amenity": "fast_food", "name": null }, "geometry": { "type": "Point", "coordinates": [ 417135.605918435729109, 6183509.105431222356856 ] } },
{ "type": "Feature", "properties": { "fid": 3504, "addr:housenumber": null, "addr:street": null, "amenity": "fast_food", "name": "Милано" }, "geometry": { "type": "Point", "coordinates": [ 416263.41611222102074, 6183065.097152995876968 ] } },
{ "type": "Feature", "properties": { "fid": 3505, "addr:housenumber": null, "addr:street": null, "amenity": "fast_food", "name": "Теремок" }, "geometry": { "type": "Point", "coordinates": [ 416266.354309474525508, 6183072.710717440582812 ] } },
{ "type": "Feature", "properties": { "fid": 3506, "addr:housenumber": null, "addr:street": null, "amenity": "fast_food", "name": "KFC" }, "geometry": { "type": "Point", "coordinates": [ 416271.302280435338616, 6183084.682830860838294 ] } },
{ "type": "Feature", "properties": { "fid": 3507, "addr:housenumber": null, "addr:street": null, "amenity": "fast_food", "name": "Крошка Картошка" }, "geometry": { "type": "Point", "coordinates": [ 416255.924800728622358, 6183101.466277725994587 ] } },
{ "type": "Feature", "properties": { "fid": 3508, "addr:housenumber": null, "addr:street": null, "amenity": "fast_food", "name": "Бургер Кинг" }, "geometry": { "type": "Point", "coordinates": [ 416229.926853531156667, 6183073.323953307233751 ] } },
{ "type": "Feature", "properties": { "fid": 3510, "addr:housenumber": null, "addr:street": null, "amenity": "fast_food", "name": "Бургер Кинг" }, "geometry": { "type": "Point", "coordinates": [ 416231.805852549325209, 6183066.018284329213202 ] } },
{ "type": "Feature", "properties": { "fid": 3511, "addr:housenumber": null, "addr:street": null, "amenity": "fast_food", "name": "Mr.Doodls" }, "geometry": { "type": "Point", "coordinates": [ 416234.159038541838527, 6183060.206342460587621 ] } },
{ "type": "Feature", "properties": { "fid": 3512, "addr:housenumber": null, "addr:street": null, "amenity": "fast_food", "name": "Гриль хаус" }, "geometry": { "type": "Point", "coordinates": [ 416242.085129863175098, 6183040.861316421069205 ] } },
{ "type": "Feature", "properties": { "fid": 3513, "addr:housenumber": null, "addr:street": null, "amenity": "fast_food", "name": "Pho Bo Ichiban" }, "geometry": { "type": "Point", "coordinates": [ 416248.884728458477184, 6183044.426167719997466 ] } },
{ "type": "Feature", "properties": { "fid": 3520, "addr:housenumber": null, "addr:street": null, "amenity": "fast_food", "name": "Суши Маркет" }, "geometry": { "type": "Point", "coordinates": [ 416264.817797246505506, 6183032.374380402266979 ] } },
{ "type": "Feature", "properties": { "fid": 3521, "addr:housenumber": null, "addr:street": null, "amenity": "fast_food", "name": "Yummy mix" }, "geometry": { "type": "Point", "coordinates": [ 416297.023388589906972, 6183020.665899350307882 ] } },
{ "type": "Feature", "properties": { "fid": 3541, "addr:housenumber": null, "addr:street": null, "amenity": "fast_food", "name": "KFC" }, "geometry": { "type": "Point", "coordinates": [ 414449.929518097254913, 6183867.88464524410665 ] } },
{ "type": "Feature", "properties": { "fid": 3575, "addr:housenumber": null, "addr:street": null, "amenity": "fast_food", "name": null }, "geometry": { "type": "Point", "coordinates": [ 413939.925741781305987, 6188669.216752546839416 ] } },
{ "type": "Feature", "properties": { "fid": 3619, "addr:housenumber": null, "addr:street": null, "amenity": "fast_food", "name": "Донер номер 1" }, "geometry": { "type": "Point", "coordinates": [ 413811.841861440741923, 6185966.556531148031354 ] } },
{ "type": "Feature", "properties": { "fid": 3675, "addr:housenumber": null, "addr:street": null, "amenity": "fast_food", "name": null }, "geometry": { "type": "Point", "coordinates": [ 414367.033121859596577, 6183460.320568076334894 ] } },
{ "type": "Feature", "properties": { "fid": 3696, "addr:housenumber": null, "addr:street": null, "amenity": "fast_food", "name": "Донер Шаурма" }, "geometry": { "type": "Point", "coordinates": [ 416628.126560513162985, 6183927.340542662888765 ] } },
{ "type": "Feature", "properties": { "fid": 3727, "addr:housenumber": null, "addr:street": null, "amenity": "fast_food", "name": "Tutta la pizza" }, "geometry": { "type": "Point", "coordinates": [ 417088.183288717933465, 6182758.546288995072246 ] } },
{ "type": "Feature", "properties": { "fid": 3793, "addr:housenumber": null, "addr:street": null, "amenity": "fast_food", "name": null }, "geometry": { "type": "Point", "coordinates": [ 416427.675671304459684, 6183049.955629526637495 ] } },
{ "type": "Feature", "properties": { "fid": 3800, "addr:housenumber": null, "addr:street": null, "amenity": "fast_food", "name": null }, "geometry": { "type": "Point", "coordinates": [ 413966.509644103003666, 6185305.596843968145549 ] } },
{ "type": "Feature", "properties": { "fid": 3818, "addr:housenumber": null, "addr:street": null, "amenity": "fast_food", "name": "Spot" }, "geometry": { "type": "Point", "coordinates": [ 416155.239584186114371, 6189703.292951075360179 ] } },
{ "type": "Feature", "properties": { "fid": 3819, "addr:housenumber": null, "addr:street": null, "amenity": "fast_food", "name": "Yoda Express" }, "geometry": { "type": "Point", "coordinates": [ 416159.877091384492815, 6189691.124494692310691 ] } },
{ "type": "Feature", "properties": { "fid": 3904, "addr:housenumber": null, "addr:street": null, "amenity": "fast_food", "name": "Нейборс" }, "geometry": { "type": "Point", "coordinates": [ 414819.326306534465402, 6189928.825460132211447 ] } },
{ "type": "Feature", "properties": { "fid": 3950, "addr:housenumber": null, "addr:street": null, "amenity": "fast_food", "name": "Столовая 01" }, "geometry": { "type": "Point", "coordinates": [ 415625.695055913587566, 6187442.948811059817672 ] } },
{ "type": "Feature", "properties": { "fid": 4027, "addr:housenumber": null, "addr:street": null, "amenity": "fast_food", "name": "Кафе быстрого питания" }, "geometry": { "type": "Point", "coordinates": [ 413707.427278920775279, 6187388.863748850300908 ] } },
{ "type": "Feature", "properties": { "fid": 4034, "addr:housenumber": null, "addr:street": null, "amenity": "fast_food", "name": "Cofix" }, "geometry": { "type": "Point", "coordinates": [ 414331.230194085219409, 6182779.628111761063337 ] } },
{ "type": "Feature", "properties": { "fid": 4115, "addr:housenumber": null, "addr:street": null, "amenity": "fast_food", "name": "One Price Coffee" }, "geometry": { "type": "Point", "coordinates": [ 413459.59441743377829, 6185075.186578351072967 ] } },
{ "type": "Feature", "properties": { "fid": 4116, "addr:housenumber": null, "addr:street": null, "amenity": "fast_food", "name": "One Price Coffee" }, "geometry": { "type": "Point", "coordinates": [ 413276.226384782290552, 6184155.195319782011211 ] } },
{ "type": "Feature", "properties": { "fid": 4117, "addr:housenumber": null, "addr:street": null, "amenity": "fast_food", "name": "One Price Coffee" }, "geometry": { "type": "Point", "coordinates": [ 413017.577756631071679, 6182570.309094422496855 ] } },
{ "type": "Feature", "properties": { "fid": 4118, "addr:housenumber": null, "addr:street": null, "amenity": "fast_food", "name": "One Price Coffee" }, "geometry": { "type": "Point", "coordinates": [ 414635.266744985186961, 6185335.87770021148026 ] } },
{ "type": "Feature", "properties": { "fid": 4119, "addr:housenumber": null, "addr:street": null, "amenity": "fast_food", "name": "One Price Coffee" }, "geometry": { "type": "Point", "coordinates": [ 414930.228002830699552, 6186957.861440156586468 ] } },
{ "type": "Feature", "properties": { "fid": 4120, "addr:housenumber": null, "addr:street": null, "amenity": "fast_food", "name": "One Price Coffee" }, "geometry": { "type": "Point", "coordinates": [ 417085.871960155316629, 6183492.265093586407602 ] } },
{ "type": "Feature", "properties": { "fid": 4121, "addr:housenumber": null, "addr:street": null, "amenity": "fast_food", "name": "One Price Coffee" }, "geometry": { "type": "Point", "coordinates": [ 414336.975092738401145, 6182622.0456432858482 ] } },
{ "type": "Feature", "properties": { "fid": 4132, "addr:housenumber": null, "addr:street": null, "amenity": "fast_food", "name": "Чешский Трдельник" }, "geometry": { "type": "Point", "coordinates": [ 416984.445599189435598, 6184129.245982360094786 ] } },
{ "type": "Feature", "properties": { "fid": 4153, "addr:housenumber": null, "addr:street": null, "amenity": "fast_food", "name": "Чешский Трдельник" }, "geometry": { "type": "Point", "coordinates": [ 417104.62834879627917, 6184140.0417735343799 ] } },
{ "type": "Feature", "properties": { "fid": 4154, "addr:housenumber": null, "addr:street": null, "amenity": "fast_food", "name": "shawarma house" }, "geometry": { "type": "Point", "coordinates": [ 417087.436802753421944, 6183890.293479704298079 ] } },
{ "type": "Feature", "properties": { "fid": 4176, "addr:housenumber": null, "addr:street": null, "amenity": "fast_food", "name": "Чебуречная история" }, "geometry": { "type": "Point", "coordinates": [ 413231.928011887590401, 6188102.390129674226046 ] } },
{ "type": "Feature", "properties": { "fid": 4180, "addr:housenumber": null, "addr:street": null, "amenity": "fast_food", "name": "Coffee Kaldi's" }, "geometry": { "type": "Point", "coordinates": [ 413869.706259259139188, 6189197.029246160760522 ] } },
{ "type": "Feature", "properties": { "fid": 4181, "addr:housenumber": null, "addr:street": null, "amenity": "fast_food", "name": "Coffee Kaldi's" }, "geometry": { "type": "Point", "coordinates": [ 412915.560189013194758, 6188426.670243219472468 ] } },
{ "type": "Feature", "properties": { "fid": 4186, "addr:housenumber": null, "addr:street": null, "amenity": "fast_food", "name": "Теремок" }, "geometry": { "type": "Point", "coordinates": [ 414455.785628061217722, 6185522.463325439952314 ] } },
{ "type": "Feature", "properties": { "fid": 4190, "addr:housenumber": null, "addr:street": null, "amenity": "fast_food", "name": null }, "geometry": { "type": "Point", "coordinates": [ 414258.093317313992884, 6186011.042184689082205 ] } },
{ "type": "Feature", "properties": { "fid": 4196, "addr:housenumber": null, "addr:street": null, "amenity": "fast_food", "name": "Shawarma house" }, "geometry": { "type": "Point", "coordinates": [ 414626.705769382650033, 6187714.20266951713711 ] } },
{ "type": "Feature", "properties": { "fid": 4330, "addr:housenumber": "211 к2", "addr:street": "проспект Мира", "amenity": "fast_food", "name": "Farsh" }, "geometry": { "type": "Point", "coordinates": [ 416093.798516176640987, 6189724.11961324699223 ] } },
{ "type": "Feature", "properties": { "fid": 4367, "addr:housenumber": null, "addr:street": null, "amenity": "fast_food", "name": "Farsh" }, "geometry": { "type": "Point", "coordinates": [ 417265.929766592744272, 6183468.270318422466516 ] } },
{ "type": "Feature", "properties": { "fid": 4383, "addr:housenumber": null, "addr:street": null, "amenity": "fast_food", "name": "Додо Пицца" }, "geometry": { "type": "Point", "coordinates": [ 415814.774229601258412, 6186177.833394665271044 ] } },
{ "type": "Feature", "properties": { "fid": 4386, "addr:housenumber": null, "addr:street": null, "amenity": "fast_food", "name": "One Price Coffee" }, "geometry": { "type": "Point", "coordinates": [ 416336.432885074580554, 6183067.709099032916129 ] } },
{ "type": "Feature", "properties": { "fid": 4387, "addr:housenumber": null, "addr:street": null, "amenity": "fast_food", "name": "One Price Coffee" }, "geometry": { "type": "Point", "coordinates": [ 414493.53480823233258, 6185502.760815545916557 ] } },
{ "type": "Feature", "properties": { "fid": 4395, "addr:housenumber": null, "addr:street": null, "amenity": "fast_food", "name": "Дэнди пицца" }, "geometry": { "type": "Point", "coordinates": [ 414325.584519357478712, 6189916.102833221666515 ] } },
{ "type": "Feature", "properties": { "fid": 4673, "addr:housenumber": null, "addr:street": null, "amenity": "fast_food", "name": "Саибаси" }, "geometry": { "type": "Point", "coordinates": [ 414774.056614220025949, 6190087.119187068194151 ] } },
{ "type": "Feature", "properties": { "fid": 4804, "addr:housenumber": null, "addr:street": null, "amenity": "fast_food", "name": null }, "geometry": { "type": "Point", "coordinates": [ 416101.896833344595507, 6186172.473304039798677 ] } },
{ "type": "Feature", "properties": { "fid": 4819, "addr:housenumber": null, "addr:street": null, "amenity": "fast_food", "name": "Lukumades" }, "geometry": { "type": "Point", "coordinates": [ 414241.601491293637082, 6188237.973983774892986 ] } },
{ "type": "Feature", "properties": { "fid": 4888, "addr:housenumber": null, "addr:street": null, "amenity": "fast_food", "name": null }, "geometry": { "type": "Point", "coordinates": [ 414773.852891632064711, 6189683.711369748227298 ] } },
{ "type": "Feature", "properties": { "fid": 4914, "addr:housenumber": null, "addr:street": null, "amenity": "fast_food", "name": "Farsh" }, "geometry": { "type": "Point", "coordinates": [ 413326.241196841001511, 6184149.187113123945892 ] } },
{ "type": "Feature", "properties": { "fid": 5011, "addr:housenumber": null, "addr:street": null, "amenity": "fast_food", "name": "Крошка Картошка" }, "geometry": { "type": "Point", "coordinates": [ 414443.424954052607063, 6187360.102140395902097 ] } },
{ "type": "Feature", "properties": { "fid": 5019, "addr:housenumber": null, "addr:street": null, "amenity": "fast_food", "name": "Coffee Like" }, "geometry": { "type": "Point", "coordinates": [ 416233.041110165708233, 6189724.921974875964224 ] } },
{ "type": "Feature", "properties": { "fid": 5056, "addr:housenumber": null, "addr:street": null, "amenity": "fast_food", "name": "Те самые пончики" }, "geometry": { "type": "Point", "coordinates": [ 414248.107389406999573, 6188230.798393157310784 ] } },
{ "type": "Feature", "properties": { "fid": 5057, "addr:housenumber": null, "addr:street": null, "amenity": "fast_food", "name": "Coffee Kaldis" }, "geometry": { "type": "Point", "coordinates": [ 413815.690238657873124, 6188579.661926945671439 ] } },
{ "type": "Feature", "properties": { "fid": 5156, "addr:housenumber": null, "addr:street": null, "amenity": "fast_food", "name": "Stardogs" }, "geometry": { "type": "Point", "coordinates": [ 414694.605571345076896, 6186114.266320081427693 ] } },
{ "type": "Feature", "properties": { "fid": 5162, "addr:housenumber": null, "addr:street": null, "amenity": "fast_food", "name": "Сказка Египта" }, "geometry": { "type": "Point", "coordinates": [ 417519.4324048376875, 6183613.111536737531424 ] } },
{ "type": "Feature", "properties": { "fid": 18, "addr:housenumber": "10 к5", "addr:street": "Ярославская улица", "amenity": "pub", "name": "ШтирБирЛиц" }, "geometry": { "type": "Point", "coordinates": [ 415351.547592054936104, 6186760.713201242499053 ] } },
{ "type": "Feature", "properties": { "fid": 106, "addr:housenumber": "124 к4", "addr:street": "проспект Мира", "amenity": "pub", "name": "Бирхаус" }, "geometry": { "type": "Point", "coordinates": [ 414745.589589222450741, 6186402.131365190260112 ] } },
{ "type": "Feature", "properties": { "fid": 208, "addr:housenumber": null, "addr:street": null, "amenity": "pub", "name": "Джонни Грин Паб" }, "geometry": { "type": "Point", "coordinates": [ 414483.048675081925467, 6185284.2687321389094 ] } },
{ "type": "Feature", "properties": { "fid": 216, "addr:housenumber": null, "addr:street": null, "amenity": "pub", "name": "Вилладж-Паб" }, "geometry": { "type": "Point", "coordinates": [ 414474.693240808323026, 6187298.590382196009159 ] } },
{ "type": "Feature", "properties": { "fid": 247, "addr:housenumber": null, "addr:street": null, "amenity": "pub", "name": "Локо" }, "geometry": { "type": "Point", "coordinates": [ 412853.175419051549397, 6183470.513659242540598 ] } },
{ "type": "Feature", "properties": { "fid": 257, "addr:housenumber": null, "addr:street": null, "amenity": "pub", "name": "Beerлога" }, "geometry": { "type": "Point", "coordinates": [ 414625.417720766330604, 6185158.663515655323863 ] } },
{ "type": "Feature", "properties": { "fid": 332, "addr:housenumber": null, "addr:street": null, "amenity": "pub", "name": "Rainbow Pub" }, "geometry": { "type": "Point", "coordinates": [ 417080.389456648787018, 6183556.959442101418972 ] } },
{ "type": "Feature", "properties": { "fid": 1047, "addr:housenumber": null, "addr:street": null, "amenity": "pub", "name": "Beef time" }, "geometry": { "type": "Point", "coordinates": [ 414542.633547282835934, 6184780.172360838390887 ] } },
{ "type": "Feature", "properties": { "fid": 1557, "addr:housenumber": null, "addr:street": null, "amenity": "pub", "name": "Paulaner Brauhaus" }, "geometry": { "type": "Point", "coordinates": [ 413682.046929025498684, 6182984.046501646749675 ] } },
{ "type": "Feature", "properties": { "fid": 1829, "addr:housenumber": null, "addr:street": null, "amenity": "pub", "name": "Bradu bar" }, "geometry": { "type": "Point", "coordinates": [ 416614.135137307166588, 6184399.955162344500422 ] } },
{ "type": "Feature", "properties": { "fid": 2461, "addr:housenumber": null, "addr:street": null, "amenity": "pub", "name": "Шварц Кайзер" }, "geometry": { "type": "Point", "coordinates": [ 412990.28286405839026, 6182577.646492583677173 ] } },
{ "type": "Feature", "properties": { "fid": 2466, "addr:housenumber": null, "addr:street": null, "amenity": "pub", "name": "Roy Castle" }, "geometry": { "type": "Point", "coordinates": [ 413083.824052111711353, 6183306.272927092388272 ] } },
{ "type": "Feature", "properties": { "fid": 3480, "addr:housenumber": null, "addr:street": null, "amenity": "pub", "name": "Пивдом" }, "geometry": { "type": "Point", "coordinates": [ 413449.761757780739572, 6190260.282054481096566 ] } },
{ "type": "Feature", "properties": { "fid": 3557, "addr:housenumber": null, "addr:street": null, "amenity": "pub", "name": "Аут Паб" }, "geometry": { "type": "Point", "coordinates": [ 415964.408316802873742, 6182948.537250353954732 ] } },
{ "type": "Feature", "properties": { "fid": 4067, "addr:housenumber": null, "addr:street": null, "amenity": "pub", "name": "Фора" }, "geometry": { "type": "Point", "coordinates": [ 415812.858200866030529, 6185805.345411979593337 ] } },
{ "type": "Feature", "properties": { "fid": 6, "addr:housenumber": null, "addr:street": null, "amenity": "restaurant", "name": "Рыбацкое подворье" }, "geometry": { "type": "Point", "coordinates": [ 413968.637802970362827, 6188939.147726392373443 ] } },
{ "type": "Feature", "properties": { "fid": 31, "addr:housenumber": null, "addr:street": null, "amenity": "restaurant", "name": "Beer roll" }, "geometry": { "type": "Point", "coordinates": [ 416102.202175760583486, 6188791.221564437262714 ] } },
{ "type": "Feature", "properties": { "fid": 43, "addr:housenumber": null, "addr:street": null, "amenity": "restaurant", "name": "Восточный сад" }, "geometry": { "type": "Point", "coordinates": [ 417830.198577838309575, 6182828.208171945996583 ] } },
{ "type": "Feature", "properties": { "fid": 44, "addr:housenumber": null, "addr:street": null, "amenity": "restaurant", "name": "Тбилиси" }, "geometry": { "type": "Point", "coordinates": [ 417169.452796251047403, 6182934.522836688905954 ] } },
{ "type": "Feature", "properties": { "fid": 96, "addr:housenumber": null, "addr:street": null, "amenity": "restaurant", "name": "IL Патио" }, "geometry": { "type": "Point", "coordinates": [ 413307.529938118648715, 6184120.437729612924159 ] } },
{ "type": "Feature", "properties": { "fid": 98, "addr:housenumber": null, "addr:street": null, "amenity": "restaurant", "name": "Планета Суши" }, "geometry": { "type": "Point", "coordinates": [ 413300.970145162777044, 6184121.080788297578692 ] } },
{ "type": "Feature", "properties": { "fid": 102, "addr:housenumber": null, "addr:street": null, "amenity": "restaurant", "name": "Тануки" }, "geometry": { "type": "Point", "coordinates": [ 414725.53036775928922, 6185965.684960830956697 ] } },
{ "type": "Feature", "properties": { "fid": 128, "addr:housenumber": null, "addr:street": null, "amenity": "restaurant", "name": null }, "geometry": { "type": "Point", "coordinates": [ 417165.722592352540232, 6183334.655478873290122 ] } },
{ "type": "Feature", "properties": { "fid": 164, "addr:housenumber": null, "addr:street": null, "amenity": "restaurant", "name": "Москва" }, "geometry": { "type": "Point", "coordinates": [ 417270.160158217709977, 6183263.578101338818669 ] } },
{ "type": "Feature", "properties": { "fid": 178, "addr:housenumber": null, "addr:street": null, "amenity": "restaurant", "name": null }, "geometry": { "type": "Point", "coordinates": [ 417213.733433704939671, 6183560.816919052042067 ] } },
{ "type": "Feature", "properties": { "fid": 182, "addr:housenumber": null, "addr:street": null, "amenity": "restaurant", "name": "АндерСон" }, "geometry": { "type": "Point", "coordinates": [ 414227.879615201673005, 6182855.80977097991854 ] } },
{ "type": "Feature", "properties": { "fid": 203, "addr:housenumber": null, "addr:street": null, "amenity": "restaurant", "name": "Итальянский дворик" }, "geometry": { "type": "Point", "coordinates": [ 417278.875806229130831, 6183619.768138572573662 ] } },
{ "type": "Feature", "properties": { "fid": 207, "addr:housenumber": null, "addr:street": null, "amenity": "restaurant", "name": "Тануки" }, "geometry": { "type": "Point", "coordinates": [ 416070.627342320221942, 6187037.512044902890921 ] } },
{ "type": "Feature", "properties": { "fid": 226, "addr:housenumber": null, "addr:street": null, "amenity": "restaurant", "name": "Страдивари" }, "geometry": { "type": "Point", "coordinates": [ 416007.850350679480471, 6182916.78251339495182 ] } },
{ "type": "Feature", "properties": { "fid": 227, "addr:housenumber": null, "addr:street": null, "amenity": "restaurant", "name": "Тещин Борщ" }, "geometry": { "type": "Point", "coordinates": [ 414500.451441571465693, 6185770.807428556494415 ] } },
{ "type": "Feature", "properties": { "fid": 264, "addr:housenumber": null, "addr:street": null, "amenity": "restaurant", "name": "В Темноте?!" }, "geometry": { "type": "Point", "coordinates": [ 413092.066974682791624, 6182991.489627192728221 ] } },
{ "type": "Feature", "properties": { "fid": 265, "addr:housenumber": null, "addr:street": null, "amenity": "restaurant", "name": "Ecle" }, "geometry": { "type": "Point", "coordinates": [ 413060.423182049766183, 6183079.179706221446395 ] } },
{ "type": "Feature", "properties": { "fid": 299, "addr:housenumber": null, "addr:street": null, "amenity": "restaurant", "name": "ПрофТесто" }, "geometry": { "type": "Point", "coordinates": [ 412879.180008629744407, 6183955.107253964990377 ] } },
{ "type": "Feature", "properties": { "fid": 304, "addr:housenumber": null, "addr:street": null, "amenity": "restaurant", "name": "Ваби Саби" }, "geometry": { "type": "Point", "coordinates": [ 417151.683554507035296, 6183460.540176690556109 ] } },
{ "type": "Feature", "properties": { "fid": 306, "addr:housenumber": null, "addr:street": null, "amenity": "restaurant", "name": "Академия" }, "geometry": { "type": "Point", "coordinates": [ 413476.721231304167304, 6186435.774185311980546 ] } },
{ "type": "Feature", "properties": { "fid": 310, "addr:housenumber": null, "addr:street": null, "amenity": "restaurant", "name": "Menza" }, "geometry": { "type": "Point", "coordinates": [ 417151.999910291633569, 6183120.297497307881713 ] } },
{ "type": "Feature", "properties": { "fid": 329, "addr:housenumber": null, "addr:street": null, "amenity": "restaurant", "name": "Суши Маке" }, "geometry": { "type": "Point", "coordinates": [ 413377.765579024329782, 6185017.548547497950494 ] } },
{ "type": "Feature", "properties": { "fid": 330, "addr:housenumber": null, "addr:street": null, "amenity": "restaurant", "name": "Черетто Мясо" }, "geometry": { "type": "Point", "coordinates": [ 414455.948991329874843, 6183004.685393259860575 ] } },
{ "type": "Feature", "properties": { "fid": 333, "addr:housenumber": null, "addr:street": null, "amenity": "restaurant", "name": "Штетл" }, "geometry": { "type": "Point", "coordinates": [ 412743.358949838904664, 6183707.049122740514576 ] } },
{ "type": "Feature", "properties": { "fid": 354, "addr:housenumber": null, "addr:street": null, "amenity": "restaurant", "name": "Ricciocafe" }, "geometry": { "type": "Point", "coordinates": [ 412584.293197541614063, 6183580.118211906403303 ] } },
{ "type": "Feature", "properties": { "fid": 366, "addr:housenumber": "79", "addr:street": "проспект Мира", "amenity": "restaurant", "name": "Масала хаус" }, "geometry": { "type": "Point", "coordinates": [ 414345.77830884658033, 6183582.273293578997254 ] } },
{ "type": "Feature", "properties": { "fid": 370, "addr:housenumber": null, "addr:street": null, "amenity": "restaurant", "name": "Тбилисо" }, "geometry": { "type": "Point", "coordinates": [ 414415.092256041942164, 6183682.479955399408937 ] } },
{ "type": "Feature", "properties": { "fid": 371, "addr:housenumber": null, "addr:street": null, "amenity": "restaurant", "name": "Vasilchuki Chaihona №1" }, "geometry": { "type": "Point", "coordinates": [ 416222.393605102726724, 6189769.969417328946292 ] } },
{ "type": "Feature", "properties": { "fid": 626, "addr:housenumber": null, "addr:street": null, "amenity": "restaurant", "name": "Potato house" }, "geometry": { "type": "Point", "coordinates": [ 413041.172460457193665, 6183654.842453339137137 ] } },
{ "type": "Feature", "properties": { "fid": 651, "addr:housenumber": null, "addr:street": null, "amenity": "restaurant", "name": "Шашлычная" }, "geometry": { "type": "Point", "coordinates": [ 416894.845962331048213, 6184142.949275848455727 ] } },
{ "type": "Feature", "properties": { "fid": 765, "addr:housenumber": null, "addr:street": null, "amenity": "restaurant", "name": "Горох" }, "geometry": { "type": "Point", "coordinates": [ 412908.928390394430608, 6184297.896553963422775 ] } },
{ "type": "Feature", "properties": { "fid": 956, "addr:housenumber": null, "addr:street": null, "amenity": "restaurant", "name": "Остерия Итальяна" }, "geometry": { "type": "Point", "coordinates": [ 414468.940099583007395, 6188123.839368210174143 ] } },
{ "type": "Feature", "properties": { "fid": 987, "addr:housenumber": null, "addr:street": null, "amenity": "restaurant", "name": "Рассольников" }, "geometry": { "type": "Point", "coordinates": [ 414448.858125537750311, 6183275.634176553227007 ] } },
{ "type": "Feature", "properties": { "fid": 1027, "addr:housenumber": null, "addr:street": null, "amenity": "restaurant", "name": "Московское небо" }, "geometry": { "type": "Point", "coordinates": [ 413924.732153595774435, 6188607.309177082031965 ] } },
{ "type": "Feature", "properties": { "fid": 1029, "addr:housenumber": null, "addr:street": null, "amenity": "restaurant", "name": "Таможня дает добро" }, "geometry": { "type": "Point", "coordinates": [ 413313.912746962101664, 6184133.235261608846486 ] } },
{ "type": "Feature", "properties": { "fid": 1048, "addr:housenumber": null, "addr:street": null, "amenity": "restaurant", "name": "IL Патио" }, "geometry": { "type": "Point", "coordinates": [ 413727.052645889169071, 6187147.674706658348441 ] } },
{ "type": "Feature", "properties": { "fid": 1079, "addr:housenumber": null, "addr:street": null, "amenity": "restaurant", "name": "Арарат" }, "geometry": { "type": "Point", "coordinates": [ 414405.261772486963309, 6188088.937068402767181 ] } },
{ "type": "Feature", "properties": { "fid": 1127, "addr:housenumber": "118", "addr:street": "проспект Мира", "amenity": "restaurant", "name": "Джонджоли" }, "geometry": { "type": "Point", "coordinates": [ 414655.341659995086957, 6185820.170897260308266 ] } },
{ "type": "Feature", "properties": { "fid": 1250, "addr:housenumber": null, "addr:street": null, "amenity": "restaurant", "name": "Хижина" }, "geometry": { "type": "Point", "coordinates": [ 414583.217964583192952, 6186834.829462395049632 ] } },
{ "type": "Feature", "properties": { "fid": 1303, "addr:housenumber": null, "addr:street": null, "amenity": "restaurant", "name": "Оттепель" }, "geometry": { "type": "Point", "coordinates": [ 413495.870161408442073, 6188177.450633279047906 ] } },
{ "type": "Feature", "properties": { "fid": 1304, "addr:housenumber": null, "addr:street": null, "amenity": "restaurant", "name": "Свадьба соек" }, "geometry": { "type": "Point", "coordinates": [ 413926.234511147951707, 6188902.316494484432042 ] } },
{ "type": "Feature", "properties": { "fid": 1387, "addr:housenumber": null, "addr:street": null, "amenity": "restaurant", "name": "Твин Пигз" }, "geometry": { "type": "Point", "coordinates": [ 412743.081942856661044, 6187022.896544837392867 ] } },
{ "type": "Feature", "properties": { "fid": 1417, "addr:housenumber": null, "addr:street": null, "amenity": "restaurant", "name": "La Pepela" }, "geometry": { "type": "Point", "coordinates": [ 412848.27866934373742, 6183651.617246826179326 ] } },
{ "type": "Feature", "properties": { "fid": 1442, "addr:housenumber": null, "addr:street": null, "amenity": "restaurant", "name": "Византий" }, "geometry": { "type": "Point", "coordinates": [ 414202.53079135925509, 6183547.628496575169265 ] } },
{ "type": "Feature", "properties": { "fid": 1449, "addr:housenumber": null, "addr:street": null, "amenity": "restaurant", "name": "Тапчан" }, "geometry": { "type": "Point", "coordinates": [ 417031.982733744138386, 6183133.096969088539481 ] } },
{ "type": "Feature", "properties": { "fid": 1550, "addr:housenumber": null, "addr:street": null, "amenity": "restaurant", "name": "Oxus" }, "geometry": { "type": "Point", "coordinates": [ 413350.377230746671557, 6183399.87173614744097 ] } },
{ "type": "Feature", "properties": { "fid": 1652, "addr:housenumber": null, "addr:street": null, "amenity": "restaurant", "name": "Hong Kong" }, "geometry": { "type": "Point", "coordinates": [ 417253.447828457050491, 6183257.862718846648932 ] } },
{ "type": "Feature", "properties": { "fid": 1653, "addr:housenumber": null, "addr:street": null, "amenity": "restaurant", "name": "Хинкальная" }, "geometry": { "type": "Point", "coordinates": [ 416071.514817896240856, 6189640.077659965492785 ] } },
{ "type": "Feature", "properties": { "fid": 1774, "addr:housenumber": null, "addr:street": null, "amenity": "restaurant", "name": "Планета Суши" }, "geometry": { "type": "Point", "coordinates": [ 412912.801919279969297, 6182563.613157672807574 ] } },
{ "type": "Feature", "properties": { "fid": 1775, "addr:housenumber": null, "addr:street": null, "amenity": "restaurant", "name": "IL Патио" }, "geometry": { "type": "Point", "coordinates": [ 412926.213023669901304, 6182565.370506002567708 ] } },
{ "type": "Feature", "properties": { "fid": 1801, "addr:housenumber": null, "addr:street": null, "amenity": "restaurant", "name": "Jai Hind" }, "geometry": { "type": "Point", "coordinates": [ 413724.268757429090329, 6183015.792759573087096 ] } },
{ "type": "Feature", "properties": { "fid": 1846, "addr:housenumber": null, "addr:street": null, "amenity": "restaurant", "name": "Седьмое небо" }, "geometry": { "type": "Point", "coordinates": [ 413016.682322090433445, 6186886.370761883445084 ] } },
{ "type": "Feature", "properties": { "fid": 2290, "addr:housenumber": null, "addr:street": null, "amenity": "restaurant", "name": "My place" }, "geometry": { "type": "Point", "coordinates": [ 414061.644992326328065, 6182718.95872762426734 ] } },
{ "type": "Feature", "properties": { "fid": 2382, "addr:housenumber": null, "addr:street": null, "amenity": "restaurant", "name": "Сварня" }, "geometry": { "type": "Point", "coordinates": [ 414420.014972684555687, 6183549.371740924194455 ] } },
{ "type": "Feature", "properties": { "fid": 2504, "addr:housenumber": null, "addr:street": null, "amenity": "restaurant", "name": null }, "geometry": { "type": "Point", "coordinates": [ 414445.573431028984487, 6188841.406290865503252 ] } },
{ "type": "Feature", "properties": { "fid": 2511, "addr:housenumber": null, "addr:street": null, "amenity": "restaurant", "name": "TGI Friday's" }, "geometry": { "type": "Point", "coordinates": [ 416140.445308083784766, 6189723.350459584034979 ] } },
{ "type": "Feature", "properties": { "fid": 2512, "addr:housenumber": null, "addr:street": null, "amenity": "restaurant", "name": "Якитория" }, "geometry": { "type": "Point", "coordinates": [ 414543.930666936968919, 6185771.587613663636148 ] } },
{ "type": "Feature", "properties": { "fid": 2513, "addr:housenumber": null, "addr:street": null, "amenity": "restaurant", "name": "IL Патио" }, "geometry": { "type": "Point", "coordinates": [ 416167.37694296205882, 6189708.746887424960732 ] } },
{ "type": "Feature", "properties": { "fid": 2514, "addr:housenumber": null, "addr:street": null, "amenity": "restaurant", "name": "Планета Суши" }, "geometry": { "type": "Point", "coordinates": [ 417161.720964652835391, 6183341.244189425371587 ] } },
{ "type": "Feature", "properties": { "fid": 2515, "addr:housenumber": null, "addr:street": null, "amenity": "restaurant", "name": "Планета Суши" }, "geometry": { "type": "Point", "coordinates": [ 416260.932345472858287, 6189759.973588309250772 ] } },
{ "type": "Feature", "properties": { "fid": 2535, "addr:housenumber": null, "addr:street": null, "amenity": "restaurant", "name": "КПСС" }, "geometry": { "type": "Point", "coordinates": [ 414594.445789960445836, 6188813.322709393687546 ] } },
{ "type": "Feature", "properties": { "fid": 2607, "addr:housenumber": null, "addr:street": null, "amenity": "restaurant", "name": "Симирин" }, "geometry": { "type": "Point", "coordinates": [ 414753.016034888336435, 6186460.130690432153642 ] } },
{ "type": "Feature", "properties": { "fid": 2613, "addr:housenumber": null, "addr:street": null, "amenity": "restaurant", "name": "FireLake" }, "geometry": { "type": "Point", "coordinates": [ 413872.054634069907479, 6182967.528581649065018 ] } },
{ "type": "Feature", "properties": { "fid": 2638, "addr:housenumber": null, "addr:street": null, "amenity": "restaurant", "name": "Амадеус" }, "geometry": { "type": "Point", "coordinates": [ 413629.522624758421443, 6183159.537615295499563 ] } },
{ "type": "Feature", "properties": { "fid": 3113, "addr:housenumber": "5 к1", "addr:street": "Лазоревый проезд", "amenity": "restaurant", "name": "Ели Сацебели" }, "geometry": { "type": "Point", "coordinates": [ 414544.233292165561579, 6189963.541767329908907 ] } },
{ "type": "Feature", "properties": { "fid": 3147, "addr:housenumber": null, "addr:street": null, "amenity": "restaurant", "name": null }, "geometry": { "type": "Point", "coordinates": [ 415295.289304620120674, 6187107.408603272400796 ] } },
{ "type": "Feature", "properties": { "fid": 3162, "addr:housenumber": null, "addr:street": null, "amenity": "restaurant", "name": "Miragrill" }, "geometry": { "type": "Point", "coordinates": [ 414749.321830877102911, 6186434.809955331496894 ] } },
{ "type": "Feature", "properties": { "fid": 3509, "addr:housenumber": null, "addr:street": null, "amenity": "restaurant", "name": "Шикари" }, "geometry": { "type": "Point", "coordinates": [ 416223.795396325236652, 6183080.333129102364182 ] } },
{ "type": "Feature", "properties": { "fid": 3669, "addr:housenumber": null, "addr:street": null, "amenity": "restaurant", "name": "Darbars" }, "geometry": { "type": "Point", "coordinates": [ 414363.537605766090564, 6183628.523805444128811 ] } },
{ "type": "Feature", "properties": { "fid": 3734, "addr:housenumber": null, "addr:street": null, "amenity": "restaurant", "name": "Ашхабад" }, "geometry": { "type": "Point", "coordinates": [ 414430.144114754803013, 6183059.920960118062794 ] } },
{ "type": "Feature", "properties": { "fid": 3940, "addr:housenumber": null, "addr:street": null, "amenity": "restaurant", "name": "Green Park Sokolniki" }, "geometry": { "type": "Point", "coordinates": [ 416886.234846204752102, 6183970.228872155770659 ] } },
{ "type": "Feature", "properties": { "fid": 3984, "addr:housenumber": null, "addr:street": null, "amenity": "restaurant", "name": "New Life" }, "geometry": { "type": "Point", "coordinates": [ 414656.852724035037681, 6190042.579577813856304 ] } },
{ "type": "Feature", "properties": { "fid": 4024, "addr:housenumber": null, "addr:street": null, "amenity": "restaurant", "name": "Gagawa" }, "geometry": { "type": "Point", "coordinates": [ 416099.312875391449779, 6189700.311787767335773 ] } },
{ "type": "Feature", "properties": { "fid": 4064, "addr:housenumber": null, "addr:street": null, "amenity": "restaurant", "name": "Клешни и хвосты" }, "geometry": { "type": "Point", "coordinates": [ 414657.722816752386279, 6185837.969521361403167 ] } },
{ "type": "Feature", "properties": { "fid": 4381, "addr:housenumber": null, "addr:street": null, "amenity": "restaurant", "name": "Реберная № 1" }, "geometry": { "type": "Point", "coordinates": [ 417049.708903514198028, 6183158.028792490251362 ] } },
{ "type": "Feature", "properties": { "fid": 4402, "addr:housenumber": null, "addr:street": null, "amenity": "restaurant", "name": "Джорджио и Джорджия" }, "geometry": { "type": "Point", "coordinates": [ 414758.970522592775524, 6189644.516715440899134 ] } },
{ "type": "Feature", "properties": { "fid": 4945, "addr:housenumber": null, "addr:street": null, "amenity": "restaurant", "name": "колбасофф" }, "geometry": { "type": "Point", "coordinates": [ 417135.058870959444903, 6183298.281077744439244 ] } },
{ "type": "Feature", "properties": { "fid": 4946, "addr:housenumber": null, "addr:street": null, "amenity": "restaurant", "name": "Shevol" }, "geometry": { "type": "Point", "coordinates": [ 414076.139643439324573, 6188721.098586758598685 ] } },
{ "type": "Feature", "properties": { "fid": 4973, "addr:housenumber": null, "addr:street": null, "amenity": "restaurant", "name": "Ricci Capricci" }, "geometry": { "type": "Point", "coordinates": [ 414456.548355359875131, 6188290.694089652039111 ] } },
{ "type": "Feature", "properties": { "fid": 5127, "addr:housenumber": null, "addr:street": null, "amenity": "restaurant", "name": "Домик в саду" }, "geometry": { "type": "Point", "coordinates": [ 414282.399012799956836, 6188295.780532791279256 ] } },
{ "type": "Feature", "properties": { "fid": 96, "addr:housenumber": "7А с17", "addr:street": "1-я Останкинская улица", "amenity": "restaurant", "name": "Лав" }, "geometry": { "type": "Point", "coordinates": [ 413201.230465030297637, 6187875.415315419435501 ] } },
{ "type": "Feature", "properties": { "fid": 397, "addr:housenumber": null, "addr:street": null, "amenity": "restaurant", "name": "Бакинский домик" }, "geometry": { "type": "Point", "coordinates": [ 416965.5889984141686, 6183053.883254808373749 ] } },
{ "type": "Feature", "properties": { "fid": 468, "addr:housenumber": "119 с136", "addr:street": "проспект Мира", "amenity": "restaurant", "name": "АндерСон на даче" }, "geometry": { "type": "Point", "coordinates": [ 414030.059575866616797, 6187797.492712339386344 ] } },
{ "type": "Feature", "properties": { "fid": 469, "addr:housenumber": "119 с521", "addr:street": "проспект Мира", "amenity": "restaurant", "name": "Вареничная №1" }, "geometry": { "type": "Point", "coordinates": [ 414259.540061037463602, 6187761.913168164901435 ] } },
{ "type": "Feature", "properties": { "fid": 718, "addr:housenumber": "11", "addr:street": "проезд Сокольнического Круга", "amenity": "restaurant", "name": "Соколиная охота" }, "geometry": { "type": "Point", "coordinates": [ 417145.954875260998961, 6183879.289424802176654 ] } },
{ "type": "Feature", "properties": { "fid": 1138, "addr:housenumber": "119 с531", "addr:street": "проспект Мира", "amenity": "restaurant", "name": "Владикавказ" }, "geometry": { "type": "Point", "coordinates": [ 413956.058156406972557, 6188082.541261554695666 ] } },
{ "type": "Feature", "properties": { "fid": 1179, "addr:housenumber": "169 к1", "addr:street": "проспект Мира", "amenity": "restaurant", "name": "Мимино" }, "geometry": { "type": "Point", "coordinates": [ 415934.670691175211687, 6188776.966418976895511 ] } },
{ "type": "Feature", "properties": { "fid": 1182, "addr:housenumber": "46 с1", "addr:street": "Большая Переяславская улица", "amenity": "restaurant", "name": "Шпинат" }, "geometry": { "type": "Point", "coordinates": [ 414802.704368046252057, 6183118.803322428837419 ] } },
{ "type": "Feature", "properties": { "fid": 1206, "addr:housenumber": null, "addr:street": null, "amenity": "restaurant", "name": "Шафран" }, "geometry": { "type": "Point", "coordinates": [ 415858.52933161216788, 6183090.668088056147099 ] } },
{ "type": "Feature", "properties": { "fid": 1245, "addr:housenumber": "5", "addr:street": "Песочная аллея", "amenity": "restaurant", "name": "Фиалка" }, "geometry": { "type": "Point", "coordinates": [ 416621.871966010832693, 6183939.157824292778969 ] } },
{ "type": "Feature", "properties": { "fid": 1368, "addr:housenumber": "119 с352", "addr:street": "проспект Мира", "amenity": "restaurant", "name": "Европейская кухня" }, "geometry": { "type": "Point", "coordinates": [ 415061.837666751351207, 6187909.844724369235337 ] } },
{ "type": "Feature", "properties": { "fid": 1416, "addr:housenumber": "24", "addr:street": "Звёздный бульвар", "amenity": "restaurant", "name": "Бакинская жемчужина" }, "geometry": { "type": "Point", "coordinates": [ 414051.853252242493909, 6186352.968421610072255 ] } },
{ "type": "Feature", "properties": { "fid": 1469, "addr:housenumber": "7А", "addr:street": "2-й Стрелецкий проезд", "amenity": "pub", "name": "Wooden House" }, "geometry": { "type": "Point", "coordinates": [ 412631.8211676205392, 6184424.37206606566906 ] } },
{ "type": "Feature", "properties": { "fid": 289, "addr:housenumber": null, "addr:street": null, "amenity": "ice_cream", "name": null }, "geometry": { "type": "Point", "coordinates": [ 414840.575162472261582, 6185522.801013548858464 ] } },
{ "type": "Feature", "properties": { "fid": 613, "addr:housenumber": null, "addr:street": null, "amenity": "ice_cream", "name": null }, "geometry": { "type": "Point", "coordinates": [ 414683.600406880374067, 6187399.568030637688935 ] } },
{ "type": "Feature", "properties": { "fid": 1867, "addr:housenumber": null, "addr:street": null, "amenity": "ice_cream", "name": null }, "geometry": { "type": "Point", "coordinates": [ 414507.392505279916804, 6188280.507038611918688 ] } },
{ "type": "Feature", "properties": { "fid": 2292, "addr:housenumber": null, "addr:street": null, "amenity": "ice_cream", "name": null }, "geometry": { "type": "Point", "coordinates": [ 416177.375191340630408, 6182726.228499143384397 ] } },
{ "type": "Feature", "properties": { "fid": 2567, "addr:housenumber": null, "addr:street": null, "amenity": "ice_cream", "name": null }, "geometry": { "type": "Point", "coordinates": [ 414355.145946401869878, 6182874.528716510161757 ] } },
{ "type": "Feature", "properties": { "fid": 3573, "addr:housenumber": null, "addr:street": null, "amenity": "ice_cream", "name": null }, "geometry": { "type": "Point", "coordinates": [ 414688.22932335495716, 6189485.977596016600728 ] } },
{ "type": "Feature", "properties": { "fid": 4184, "addr:housenumber": null, "addr:street": null, "amenity": "ice_cream", "name": null }, "geometry": { "type": "Point", "coordinates": [ 414483.904579983674921, 6185191.495606439188123 ] } },
{ "type": "Feature", "properties": { "fid": 4200, "addr:housenumber": null, "addr:street": null, "amenity": "ice_cream", "name": null }, "geometry": { "type": "Point", "coordinates": [ 416048.415802140254527, 6183749.747275992296636 ] } },
{ "type": "Feature", "properties": { "fid": 4310, "addr:housenumber": null, "addr:street": null, "amenity": "ice_cream", "name": null }, "geometry": { "type": "Point", "coordinates": [ 413432.032152144762222, 6188892.829575521871448 ] } }
]
}
