{
"type": "FeatureCollection",
"name": "leisure_and_art",
"crs": { "type": "name", "properties": { "name": "urn:ogc:def:crs:EPSG::32637" } },
"features": [
{ "type": "Feature", "properties": { "fid": 24, "addr:housenumber": "6 с1", "addr:street": "Новосущёвский переулок", "amenity": "community_centre", "name": "Дворец культуры РУТ" }, "geometry": { "type": "Point", "coordinates": [ 412560.90443886333378, 6183594.70358151383698 ] } },
{ "type": "Feature", "properties": { "fid": 424, "addr:housenumber": "28", "addr:street": "улица 12-я линия Красной Сосны", "amenity": "community_centre", "name": "Детский эколого-просветительский центр \"Красная Сосна\"" }, "geometry": { "type": "Point", "coordinates": [ 417978.202223623928148, 6190045.576759191229939 ] } },
{ "type": "Feature", "properties": { "fid": 471, "addr:housenumber": null, "addr:street": null, "amenity": "community_centre", "name": "ПОУ Ростокино ДОСААФ России СВАО г. Москвы" }, "geometry": { "type": "Point", "coordinates": [ 415519.654290761856828, 6189553.193412800319493 ] } },
{ "type": "Feature", "properties": { "fid": 1160, "addr:housenumber": "5А", "addr:street": "2-й Вышеславцев переулок", "amenity": "community_centre", "name": "Московский еврейский общинный центр" }, "geometry": { "type": "Point", "coordinates": [ 412739.357910780410748, 6183683.170982971787453 ] } },
{ "type": "Feature", "properties": { "fid": 1173, "addr:housenumber": "15 к2 с2", "addr:street": "Большая Марьинская улица", "amenity": "community_centre", "name": "Дом культуры \"Культурный центр\"" }, "geometry": { "type": "Point", "coordinates": [ 414344.93803061946528, 6185561.39232561737299 ] } },
{ "type": "Feature", "properties": { "fid": 1180, "addr:housenumber": "2 с1", "addr:street": "Суворовская площадь", "amenity": "community_centre", "name": "Центральный дом Российской армии имени М. В. Фрунзе" }, "geometry": { "type": "Point", "coordinates": [ 413294.209917691885494, 6182658.912179322913289 ] } },
{ "type": "Feature", "properties": { "fid": 1191, "addr:housenumber": "24", "addr:street": "Сельскохозяйственная улица", "amenity": "community_centre", "name": "Дом культуры имени Луначарского" }, "geometry": { "type": "Point", "coordinates": [ 414936.304323031916283, 6188791.238221948966384 ] } },
{ "type": "Feature", "properties": { "fid": 1246, "addr:housenumber": "5", "addr:street": "Митьковский проезд", "amenity": "community_centre", "name": "Дом детского творчества" }, "geometry": { "type": "Point", "coordinates": [ 416163.339399353193585, 6184101.025808189995587 ] } },
{ "type": "Feature", "properties": { "fid": 1285, "addr:housenumber": "5", "addr:street": "Стромынский переулок", "amenity": "community_centre", "name": "Дом культуры РГСУ" }, "geometry": { "type": "Point", "coordinates": [ 418177.014785430103075, 6183774.381242158822715 ] } },
{ "type": "Feature", "properties": { "fid": 1699, "addr:housenumber": null, "addr:street": null, "amenity": "community_centre", "name": "Детское посольство" }, "geometry": { "type": "Point", "coordinates": [ 413571.13373797055101, 6188152.048819919116795 ] } },
{ "type": "Feature", "properties": { "fid": 192, "addr:housenumber": null, "addr:street": null, "amenity": "community_centre", "name": "Центр творчества \"На Вадковском\"" }, "geometry": { "type": "Point", "coordinates": [ 414300.374929800746031, 6182683.138961723074317 ] } },
{ "type": "Feature", "properties": { "fid": 1255, "addr:housenumber": null, "addr:street": null, "amenity": "community_centre", "name": "Департамент социальной защиты населения г. Москвы" }, "geometry": { "type": "Point", "coordinates": [ 413558.236671179183759, 6183075.680112030357122 ] } },
{ "type": "Feature", "properties": { "fid": 1491, "addr:housenumber": null, "addr:street": null, "amenity": "community_centre", "name": "Курдский культурный центр" }, "geometry": { "type": "Point", "coordinates": [ 414443.909826140559744, 6188700.90119060035795 ] } },
{ "type": "Feature", "properties": { "fid": 1566, "addr:housenumber": null, "addr:street": null, "amenity": "community_centre", "name": "Мир путешествий" }, "geometry": { "type": "Point", "coordinates": [ 413629.52554520405829, 6187205.434317986480892 ] } },
{ "type": "Feature", "properties": { "fid": 1826, "addr:housenumber": null, "addr:street": null, "amenity": "community_centre", "name": "Паровозия" }, "geometry": { "type": "Point", "coordinates": [ 414271.661772201652639, 6183793.115996032953262 ] } },
{ "type": "Feature", "properties": { "fid": 2257, "addr:housenumber": null, "addr:street": null, "amenity": "community_centre", "name": "Центр искусств и творчества Марьина Роща" }, "geometry": { "type": "Point", "coordinates": [ 413013.203367644455284, 6184492.976410308852792 ] } },
{ "type": "Feature", "properties": { "fid": 2258, "addr:housenumber": null, "addr:street": null, "amenity": "community_centre", "name": "Дворец культуры \"Содружество\"" }, "geometry": { "type": "Point", "coordinates": [ 416119.064291154965758, 6186364.031170354224741 ] } },
{ "type": "Feature", "properties": { "fid": 2263, "addr:housenumber": null, "addr:street": null, "amenity": "community_centre", "name": null }, "geometry": { "type": "Point", "coordinates": [ 413476.831695692962967, 6188185.456307998858392 ] } },
{ "type": "Feature", "properties": { "fid": 2295, "addr:housenumber": null, "addr:street": null, "amenity": "community_centre", "name": "Детский культурный центр на Алексеевской" }, "geometry": { "type": "Point", "coordinates": [ 414470.961534236790612, 6185980.446530186571181 ] } },
{ "type": "Feature", "properties": { "fid": 3304, "addr:housenumber": null, "addr:street": null, "amenity": "community_centre", "name": "Детский молодежный центр \"Сокольники\"" }, "geometry": { "type": "Point", "coordinates": [ 417696.396732875844464, 6184358.289005036465824 ] } },
{ "type": "Feature", "properties": { "fid": 3363, "addr:housenumber": null, "addr:street": null, "amenity": "community_centre", "name": "Объединение Горских Евреев" }, "geometry": { "type": "Point", "coordinates": [ 417338.223696627712343, 6183240.50758548732847 ] } },
{ "type": "Feature", "properties": { "fid": 3383, "addr:housenumber": null, "addr:street": null, "amenity": "community_centre", "name": "Детский молодежный центр \"Сокольники\"" }, "geometry": { "type": "Point", "coordinates": [ 418140.615441974892747, 6184135.317796779796481 ] } },
{ "type": "Feature", "properties": { "fid": 3566, "addr:housenumber": null, "addr:street": null, "amenity": "community_centre", "name": "Скворечник" }, "geometry": { "type": "Point", "coordinates": [ 412630.967547295382246, 6183650.027225820347667 ] } },
{ "type": "Feature", "properties": { "fid": 3653, "addr:housenumber": null, "addr:street": null, "amenity": "community_centre", "name": "Приключение" }, "geometry": { "type": "Point", "coordinates": [ 416614.29775887861615, 6182676.530974206514657 ] } },
{ "type": "Feature", "properties": { "fid": 4353, "addr:housenumber": null, "addr:street": null, "amenity": "community_centre", "name": null }, "geometry": { "type": "Point", "coordinates": [ 417225.260298104665708, 6183683.175050971098244 ] } },
{ "type": "Feature", "properties": { "fid": 1155, "addr:housenumber": "109", "addr:street": "проспект Мира", "amenity": "cinema", "name": "Москино Космос" }, "geometry": { "type": "Point", "coordinates": [ 414583.305065281456336, 6186743.276042697951198 ] } },
{ "type": "Feature", "properties": { "fid": 1158, "addr:housenumber": "119 с541", "addr:street": "проспект Мира", "amenity": "cinema", "name": "Круговая кинопанорама" }, "geometry": { "type": "Point", "coordinates": [ 414167.855538892617915, 6187688.22374412138015 ] } },
{ "type": "Feature", "properties": { "fid": 1359, "addr:housenumber": "8", "addr:street": "Митьковский проезд", "amenity": "cinema", "name": "Москино" }, "geometry": { "type": "Point", "coordinates": [ 416604.153805253503378, 6184381.921168928034604 ] } },
{ "type": "Feature", "properties": { "fid": 1511, "addr:housenumber": null, "addr:street": null, "amenity": "cinema", "name": "Кинотеатр 5D" }, "geometry": { "type": "Point", "coordinates": [ 416719.913560099026654, 6183990.54226332064718 ] } },
{ "type": "Feature", "properties": { "fid": 1592, "addr:housenumber": null, "addr:street": null, "amenity": "cinema", "name": "Кинотеатр-лекторий" }, "geometry": { "type": "Point", "coordinates": [ 414069.521163088502362, 6188635.291463242843747 ] } },
{ "type": "Feature", "properties": { "fid": 62, "addr:housenumber": null, "addr:street": null, "amenity": "cinema", "name": "Люксор Центр" }, "geometry": { "type": "Point", "coordinates": [ 416527.776135248597711, 6189729.644800554960966 ] } },
{ "type": "Feature", "properties": { "fid": 233, "addr:housenumber": null, "addr:street": null, "amenity": "cinema", "name": "Каро Фильм" }, "geometry": { "type": "Point", "coordinates": [ 413396.21140399214346, 6185122.77334684599191 ] } },
{ "type": "Feature", "properties": { "fid": 1422, "addr:housenumber": null, "addr:street": null, "amenity": "cinema", "name": "Синема Стар Марьина Роща" }, "geometry": { "type": "Point", "coordinates": [ 413284.464556784078013, 6184100.414261519908905 ] } },
{ "type": "Feature", "properties": { "fid": 3445, "addr:housenumber": null, "addr:street": null, "amenity": "cinema", "name": "VR кинотеатр" }, "geometry": { "type": "Point", "coordinates": [ 414516.607898532645777, 6187985.779514245688915 ] } },
{ "type": "Feature", "properties": { "fid": 28, "addr:housenumber": null, "addr:street": null, "amenity": "studio", "name": "Телевизионный технический центр Останкино им. 50-летия Октября" }, "geometry": { "type": "Point", "coordinates": [ 412644.873489614692517, 6187240.169674081727862 ] } },
{ "type": "Feature", "properties": { "fid": 66, "addr:housenumber": "2", "addr:street": "Суворовская площадь", "amenity": "theatre", "name": "Театр Российской армии" }, "geometry": { "type": "Point", "coordinates": [ 413069.694932316662744, 6182777.757838816381991 ] } },
{ "type": "Feature", "properties": { "fid": 707, "addr:housenumber": "119 с545", "addr:street": "проспект Мира", "amenity": "theatre", "name": "Зелёный театр" }, "geometry": { "type": "Point", "coordinates": [ 413405.28091804345604, 6188191.030980733223259 ] } },
{ "type": "Feature", "properties": { "fid": 1162, "addr:housenumber": "2", "addr:street": "Шереметьевская улица", "amenity": "theatre", "name": "Планета КВН" }, "geometry": { "type": "Point", "coordinates": [ 413341.923931506928056, 6184017.72787891048938 ] } },
{ "type": "Feature", "properties": { "fid": 1286, "addr:housenumber": "40 с2", "addr:street": "3-й проезд Марьиной Рощи", "amenity": "theatre", "name": "Государственная академическая хоровая капелла России имени А. А. Юрлова" }, "geometry": { "type": "Point", "coordinates": [ 412863.353045578231104, 6184356.652195254340768 ] } },
{ "type": "Feature", "properties": { "fid": 1296, "addr:housenumber": "8", "addr:street": "Шереметьевская улица", "amenity": "theatre", "name": "Сатирикон" }, "geometry": { "type": "Point", "coordinates": [ 413354.180542846792378, 6184357.253078349865973 ] } },
{ "type": "Feature", "properties": { "fid": 34, "addr:housenumber": null, "addr:street": null, "amenity": "theatre", "name": "Московский детский камерный театр кукол" }, "geometry": { "type": "Point", "coordinates": [ 416153.554805475054309, 6188508.77703410666436 ] } },
{ "type": "Feature", "properties": { "fid": 48, "addr:housenumber": "3", "addr:street": "улица Стромынка", "amenity": "theatre", "name": "Жар-птица" }, "geometry": { "type": "Point", "coordinates": [ 417420.937358647235669, 6183567.971419146284461 ] } },
{ "type": "Feature", "properties": { "fid": 69, "addr:housenumber": null, "addr:street": null, "amenity": "theatre", "name": "Постскриптум" }, "geometry": { "type": "Point", "coordinates": [ 414931.42965817428194, 6188772.36509089358151 ] } },
{ "type": "Feature", "properties": { "fid": 116, "addr:housenumber": null, "addr:street": null, "amenity": "theatre", "name": "Большой концертный зал \"Космос\"" }, "geometry": { "type": "Point", "coordinates": [ 415149.528163469047286, 6187119.597237210720778 ] } },
{ "type": "Feature", "properties": { "fid": 873, "addr:housenumber": null, "addr:street": null, "amenity": "theatre", "name": "Todes" }, "geometry": { "type": "Point", "coordinates": [ 414504.385111777461134, 6185542.434964581392705 ] } },
{ "type": "Feature", "properties": { "fid": 874, "addr:housenumber": null, "addr:street": null, "amenity": "theatre", "name": "Тень" }, "geometry": { "type": "Point", "coordinates": [ 413060.027733866183553, 6183094.840056028217077 ] } },
{ "type": "Feature", "properties": { "fid": 1389, "addr:housenumber": "6 к2", "addr:street": "Шереметьевская улица", "amenity": "theatre", "name": "Высшая школа сценических искусств" }, "geometry": { "type": "Point", "coordinates": [ 413401.009208944335114, 6184263.274057308211923 ] } },
{ "type": "Feature", "properties": { "fid": 1579, "addr:housenumber": null, "addr:street": null, "amenity": "theatre", "name": "Театр Романа Виктюка" }, "geometry": { "type": "Point", "coordinates": [ 417687.790724509512074, 6183625.925866230390966 ] } },
{ "type": "Feature", "properties": { "fid": 2282, "addr:housenumber": "6", "addr:street": "Мурманский проезд", "amenity": "theatre", "name": "Вертикаль" }, "geometry": { "type": "Point", "coordinates": [ 414135.191717867739499, 6184978.377480274997652 ] } },
{ "type": "Feature", "properties": { "fid": 2525, "addr:housenumber": null, "addr:street": null, "amenity": "theatre", "name": "Зеленый театр ВДНХ Сцена на воде" }, "geometry": { "type": "Point", "coordinates": [ 413282.549948879983276, 6187941.634908229112625 ] } },
{ "type": "Feature", "properties": { "fid": 2541, "addr:housenumber": null, "addr:street": null, "amenity": "theatre", "name": "Концертный зал «Королёвский»" }, "geometry": { "type": "Point", "coordinates": [ 413220.085664586222265, 6186739.421052221208811 ] } },
{ "type": "Feature", "properties": { "fid": 2615, "addr:housenumber": null, "addr:street": null, "amenity": "theatre", "name": "Театр сказок" }, "geometry": { "type": "Point", "coordinates": [ 414076.574518009554595, 6187912.038099326193333 ] } },
{ "type": "Feature", "properties": { "fid": 3188, "addr:housenumber": null, "addr:street": null, "amenity": "theatre", "name": "Арлекин" }, "geometry": { "type": "Point", "coordinates": [ 414980.268508873647079, 6185488.41285724658519 ] } },
{ "type": "Feature", "properties": { "fid": 3401, "addr:housenumber": null, "addr:street": null, "amenity": "theatre", "name": "Театр - студия Отражение" }, "geometry": { "type": "Point", "coordinates": [ 414899.091137460549362, 6185250.810641285032034 ] } },
{ "type": "Feature", "properties": { "fid": 3633, "addr:housenumber": null, "addr:street": null, "amenity": "theatre", "name": null }, "geometry": { "type": "Point", "coordinates": [ 413535.513711821520701, 6188219.576431977562606 ] } },
{ "type": "Feature", "properties": { "fid": 3942, "addr:housenumber": null, "addr:street": null, "amenity": "theatre", "name": "Московский армянский театр" }, "geometry": { "type": "Point", "coordinates": [ 413360.471158368105534, 6183293.009118904359639 ] } },
{ "type": "Feature", "properties": { "fid": 4192, "addr:housenumber": null, "addr:street": null, "amenity": "theatre", "name": "Высокие Братья" }, "geometry": { "type": "Point", "coordinates": [ 412916.31514986557886, 6183331.915366862900555 ] } },
{ "type": "Feature", "properties": { "fid": 4193, "addr:housenumber": null, "addr:street": null, "amenity": "theatre", "name": "Эскизы в пространстве" }, "geometry": { "type": "Point", "coordinates": [ 412832.558223552361596, 6183348.95834273006767 ] } },
{ "type": "Feature", "properties": { "fid": 4194, "addr:housenumber": "9", "addr:street": "Олимпийский проспект", "amenity": "theatre", "name": "Гавит" }, "geometry": { "type": "Point", "coordinates": [ 413533.635691449278966, 6183303.318591477349401 ] } },
{ "type": "Feature", "properties": { "fid": 32, "addr:housenumber": null, "addr:street": null, "amenity": "arts_centre", "name": "Электромузей" }, "geometry": { "type": "Point", "coordinates": [ 416032.957869174832013, 6188611.625778927467763 ] } },
{ "type": "Feature", "properties": { "fid": 733, "addr:housenumber": null, "addr:street": null, "amenity": "arts_centre", "name": "Белый лофт" }, "geometry": { "type": "Point", "coordinates": [ 416339.240793232922442, 6183991.752859700471163 ] } },
{ "type": "Feature", "properties": { "fid": 352, "addr:housenumber": null, "addr:street": null, "amenity": "exhibition_centre", "name": "Конгрессно-выставочный центр «Сокольники»" }, "geometry": { "type": "Point", "coordinates": [ 416905.300668158801273, 6184586.350773090496659 ] } },
{ "type": "Feature", "properties": { "fid": 3326, "addr:housenumber": null, "addr:street": null, "amenity": "events_venue", "name": "Forest Hall" }, "geometry": { "type": "Point", "coordinates": [ 416326.502101822406985, 6183981.277801166288555 ] } },
{ "type": "Feature", "properties": { "fid": 3704, "addr:housenumber": null, "addr:street": null, "amenity": "events_venue", "name": "Никаких проблем" }, "geometry": { "type": "Point", "coordinates": [ 413069.853090028627776, 6185861.434517581947148 ] } },
{ "type": "Feature", "properties": { "fid": 3233, "addr:housenumber": null, "addr:street": null, "amenity": "library", "name": null }, "geometry": { "type": "Point", "coordinates": [ 416657.050070096738636, 6183280.730808654800057 ] } },
{ "type": "Feature", "properties": { "fid": 4595, "addr:housenumber": null, "addr:street": null, "amenity": "public_bookcase", "name": null }, "geometry": { "type": "Point", "coordinates": [ 416956.292663649539463, 6184288.898733205161989 ] } },
{ "type": "Feature", "properties": { "fid": 4904, "addr:housenumber": null, "addr:street": null, "amenity": "library", "name": null }, "geometry": { "type": "Point", "coordinates": [ 417702.036540904897265, 6183090.383096276782453 ] } },
{ "type": "Feature", "properties": { "fid": 1253, "addr:housenumber": null, "addr:street": null, "amenity": "hookah_lounge", "name": "Hookah Place" }, "geometry": { "type": "Point", "coordinates": [ 413093.099867308861576, 6183413.728468882851303 ] } },
{ "type": "Feature", "properties": { "fid": 1384, "addr:housenumber": null, "addr:street": null, "amenity": "nightclub", "name": "Mezzo forte" }, "geometry": { "type": "Point", "coordinates": [ 414301.114058919600211, 6187376.42624877858907 ] } },
{ "type": "Feature", "properties": { "fid": 1392, "addr:housenumber": null, "addr:street": null, "amenity": "hookah_lounge", "name": "F-lounge" }, "geometry": { "type": "Point", "coordinates": [ 412739.883533290121704, 6183951.135222624987364 ] } },
{ "type": "Feature", "properties": { "fid": 1642, "addr:housenumber": null, "addr:street": null, "amenity": "hookah_lounge", "name": "Misty Wood" }, "geometry": { "type": "Point", "coordinates": [ 414654.463562201184686, 6185810.903633738867939 ] } },
{ "type": "Feature", "properties": { "fid": 3561, "addr:housenumber": null, "addr:street": null, "amenity": "hookah_lounge", "name": "Мята Lounge" }, "geometry": { "type": "Point", "coordinates": [ 413856.806184848828707, 6183912.349611406214535 ] } },
{ "type": "Feature", "properties": { "fid": 3677, "addr:housenumber": null, "addr:street": null, "amenity": "hookah_lounge", "name": "Хука Хауз" }, "geometry": { "type": "Point", "coordinates": [ 414416.353625559131615, 6183312.288114288821816 ] } },
{ "type": "Feature", "properties": { "fid": 4013, "addr:housenumber": null, "addr:street": null, "amenity": "hookah_lounge", "name": "Мята Lounge" }, "geometry": { "type": "Point", "coordinates": [ 415767.125078315439168, 6183534.348871149122715 ] } },
{ "type": "Feature", "properties": { "fid": 4385, "addr:housenumber": null, "addr:street": null, "amenity": "hookah_lounge", "name": "HookahPlace" }, "geometry": { "type": "Point", "coordinates": [ 414789.993389504263178, 6189914.985344485379755 ] } },
{ "type": "Feature", "properties": { "fid": 754, "addr:housenumber": null, "addr:street": null, "amenity": "coworking_place", "name": "Дом у моря" }, "geometry": { "type": "Point", "coordinates": [ 412723.222767595609184, 6183242.109684706665576 ] } },
{ "type": "Feature", "properties": { "fid": 3177, "addr:housenumber": null, "addr:street": null, "amenity": "coworking_space", "name": "Buro" }, "geometry": { "type": "Point", "coordinates": [ 415704.479213154292665, 6182952.916225791908801 ] } },
{ "type": "Feature", "properties": { "fid": 3801, "addr:housenumber": null, "addr:street": null, "amenity": "coworking_space", "name": "Коворкинг \"Калибр\"" }, "geometry": { "type": "Point", "coordinates": [ 413975.591052863164805, 6185297.189895679242909 ] } },
{ "type": "Feature", "properties": { "fid": 4393, "addr:housenumber": null, "addr:street": null, "amenity": "coworking_space", "name": "Psycho Place" }, "geometry": { "type": "Point", "coordinates": [ 417417.728334990853909, 6183895.633585280738771 ] } },
{ "type": "Feature", "properties": { "fid": 4351, "addr:housenumber": null, "addr:street": null, "amenity": "internet_cafe", "name": "Colizeum" }, "geometry": { "type": "Point", "coordinates": [ 417178.145169080700725, 6183153.874918157234788 ] } },
{ "type": "Feature", "properties": { "fid": 1501, "addr:housenumber": null, "addr:street": null, "amenity": "events_venue", "name": null }, "geometry": { "type": "Point", "coordinates": [ 417161.234019801660907, 6183906.482931323349476 ] } },
{ "type": "Feature", "properties": { "fid": 2048, "addr:housenumber": null, "addr:street": null, "amenity": "arts_centre", "name": null }, "geometry": { "type": "Point", "coordinates": [ 416924.506802371994127, 6184347.781345455907285 ] } },
{ "type": "Feature", "properties": { "fid": 1510, "addr:housenumber": null, "addr:street": null, "amenity": "arts_centre", "name": null }, "geometry": { "type": "Point", "coordinates": [ 416909.827122381946538, 6183909.18416012916714 ] } },
{ "type": "Feature", "properties": { "fid": 466, "addr:housenumber": null, "addr:street": null, "amenity": "lounger", "name": "Кинополяна" }, "geometry": { "type": "Point", "coordinates": [ 416475.605854465218727, 6184294.284155677072704 ] } },
{ "type": "Feature", "properties": { "fid": 1514, "addr:housenumber": null, "addr:street": null, "amenity": "planetarium", "name": null }, "geometry": { "type": "Point", "coordinates": [ 413439.690766520099714, 6182652.526382814161479 ] } },
{ "type": "Feature", "properties": { "fid": 1791, "addr:housenumber": null, "addr:street": null, "amenity": "music_venue", "name": "Симфоническая эстрада" }, "geometry": { "type": "Point", "coordinates": [ 417202.61041913041845, 6184428.416916681453586 ] } }
]
}
