{
"type": "FeatureCollection",
"name": "religion",
"crs": { "type": "name", "properties": { "name": "urn:ogc:def:crs:EPSG::32637" } },
"features": [
{ "type": "Feature", "properties": { "fid": 86, "addr:housenumber": "35", "addr:street": "улица Гиляровского", "amenity": "place_of_worship", "name": "Церковь Митрополита Филиппа" }, "geometry": { "type": "Point", "coordinates": [ 414134.005340108298697, 6182545.548057835549116 ] } },
{ "type": "Feature", "properties": { "fid": 98, "addr:housenumber": "3 с1", "addr:street": "2-й Красносельский переулок", "amenity": "place_of_worship", "name": "Церковь Алексия Божьего человека" }, "geometry": { "type": "Point", "coordinates": [ 416272.334102071297821, 6182720.052943034097552 ] } },
{ "type": "Feature", "properties": { "fid": 104, "addr:housenumber": "7 с2", "addr:street": "1-я Останкинская улица", "amenity": "place_of_worship", "name": "Храм Троицы Живоначальной в Останкине" }, "geometry": { "type": "Point", "coordinates": [ 413144.586638759355992, 6187372.42488332092762 ] } },
{ "type": "Feature", "properties": { "fid": 1178, "addr:housenumber": "7 с8", "addr:street": "2-й Красносельский переулок", "amenity": "place_of_worship", "name": "Храм Всех Святых" }, "geometry": { "type": "Point", "coordinates": [ 416455.234280674951151, 6182880.061898889951408 ] } },
{ "type": "Feature", "properties": { "fid": 1187, "addr:housenumber": "19 к2", "addr:street": "улица Образцова", "amenity": "place_of_worship", "name": "Синагога при Московском еврейском общинном центре" }, "geometry": { "type": "Point", "coordinates": [ 412752.47823906049598, 6183636.019444608129561 ] } },
{ "type": "Feature", "properties": { "fid": 1188, "addr:housenumber": "12 с1", "addr:street": "улица Советской Армии", "amenity": "place_of_worship", "name": "Храм Сошествия Святого Духа на Апостолов" }, "geometry": { "type": "Point", "coordinates": [ 413376.986484788183589, 6183721.371348975226283 ] } },
{ "type": "Feature", "properties": { "fid": 1207, "addr:housenumber": "83Б с3", "addr:street": "Бакунинская улица", "amenity": "place_of_worship", "name": "Храм Покрова Пресвятой Богородицы" }, "geometry": { "type": "Point", "coordinates": [ 418171.406119159248192, 6182542.903142569586635 ] } },
{ "type": "Feature", "properties": { "fid": 1209, "addr:housenumber": "119 с500", "addr:street": "проспект Мира", "amenity": "place_of_worship", "name": null }, "geometry": { "type": "Point", "coordinates": [ 413336.001977226231247, 6188608.526498103514314 ] } },
{ "type": "Feature", "properties": { "fid": 1222, "addr:housenumber": "1/3 к17", "addr:street": "Рубцовско-Дворцовая улица", "amenity": "place_of_worship", "name": "Храм Живоначальной Троицы" }, "geometry": { "type": "Point", "coordinates": [ 418187.785476286022458, 6183205.248885095119476 ] } },
{ "type": "Feature", "properties": { "fid": 1230, "addr:housenumber": "130", "addr:street": "проспект Мира", "amenity": "place_of_worship", "name": "Храм Тихвинской иконы Божией Матери" }, "geometry": { "type": "Point", "coordinates": [ 415054.167572933714837, 6186673.093213067390025 ] } },
{ "type": "Feature", "properties": { "fid": 1231, "addr:housenumber": "61/2 к4", "addr:street": "улица Щепкина", "amenity": "place_of_worship", "name": "Всех скорбящих Радость" }, "geometry": { "type": "Point", "coordinates": [ 414026.106881552375853, 6182994.59151753410697 ] } },
{ "type": "Feature", "properties": { "fid": 1240, "addr:housenumber": "5 с1", "addr:street": "Дроболитейный переулок", "amenity": "place_of_worship", "name": "Храм Троицы Живоначальной на Пятницком кладбище" }, "geometry": { "type": "Point", "coordinates": [ 414710.651678927417379, 6184648.340632836334407 ] } },
{ "type": "Feature", "properties": { "fid": 1250, "addr:housenumber": "6", "addr:street": "Сокольническая площадь", "amenity": "place_of_worship", "name": "храм Воскресения Христова" }, "geometry": { "type": "Point", "coordinates": [ 417047.935358302725945, 6183608.386361114680767 ] } },
{ "type": "Feature", "properties": { "fid": 1255, "addr:housenumber": "2 с7", "addr:street": "1-й Рижский переулок", "amenity": "place_of_worship", "name": null }, "geometry": { "type": "Point", "coordinates": [ 415663.852763938426506, 6185534.158554831519723 ] } },
{ "type": "Feature", "properties": { "fid": 1269, "addr:housenumber": "38", "addr:street": "Трифоновская улица", "amenity": "place_of_worship", "name": "Церковь Трифона в Напрудном" }, "geometry": { "type": "Point", "coordinates": [ 413887.230337505927309, 6183372.095149052329361 ] } },
{ "type": "Feature", "properties": { "fid": 1272, "addr:housenumber": "9", "addr:street": "улица Матросская Тишина", "amenity": "place_of_worship", "name": "Храм Благовещения Пресвятой Богородицы в Сокольниках" }, "geometry": { "type": "Point", "coordinates": [ 417778.299431825405918, 6182956.920166586525738 ] } },
{ "type": "Feature", "properties": { "fid": 1282, "addr:housenumber": null, "addr:street": null, "amenity": "place_of_worship", "name": "храм Святителя Тихона Задонского" }, "geometry": { "type": "Point", "coordinates": [ 417449.521716212271713, 6184803.447529576718807 ] } },
{ "type": "Feature", "properties": { "fid": 1299, "addr:housenumber": "15 с1", "addr:street": "улица Докукина", "amenity": "place_of_worship", "name": "Храм Положения Ризы Божией Матери во Влахерне в Леоново" }, "geometry": { "type": "Point", "coordinates": [ 415101.244760308240075, 6189282.005172666162252 ] } },
{ "type": "Feature", "properties": { "fid": 1310, "addr:housenumber": "17 с1", "addr:street": "2-й Крестовский переулок", "amenity": "place_of_worship", "name": "Знаменский храм на Рижской" }, "geometry": { "type": "Point", "coordinates": [ 414740.148501081275754, 6183735.097196445800364 ] } },
{ "type": "Feature", "properties": { "fid": 1353, "addr:housenumber": "33 с1", "addr:street": "Шереметьевская улица", "amenity": "place_of_worship", "name": "Храм Иконы Божией Матери Нечаянная Радость в Марьиной Роще" }, "geometry": { "type": "Point", "coordinates": [ 413193.394566378905438, 6185310.403525216504931 ] } },
{ "type": "Feature", "properties": { "fid": 1480, "addr:housenumber": "3", "addr:street": "проезд Дубовой Рощи", "amenity": "place_of_worship", "name": "Часовня Успения Пресвятой Богородицы" }, "geometry": { "type": "Point", "coordinates": [ 413112.491994272626471, 6186608.099591555073857 ] } },
{ "type": "Feature", "properties": { "fid": 1488, "addr:housenumber": null, "addr:street": null, "amenity": "place_of_worship", "name": "Кафедральный собор Преображения Господня" }, "geometry": { "type": "Point", "coordinates": [ 413553.307199154049158, 6183370.086130412295461 ] } },
{ "type": "Feature", "properties": { "fid": 1575, "addr:housenumber": null, "addr:street": null, "amenity": "place_of_worship", "name": "Часовня св. бглв. Александра Невского и Иоанна Воина" }, "geometry": { "type": "Point", "coordinates": [ 413452.282768729550298, 6183144.733958903700113 ] } },
{ "type": "Feature", "properties": { "fid": 1604, "addr:housenumber": "2А с10", "addr:street": "Колодезный переулок", "amenity": "place_of_worship", "name": "Храм Рождества Иоанна Предтечи в Сокольниках" }, "geometry": { "type": "Point", "coordinates": [ 418157.480258629657328, 6184467.375992051325738 ] } },
{ "type": "Feature", "properties": { "fid": 1637, "addr:housenumber": null, "addr:street": null, "amenity": "place_of_worship", "name": "храм Казанской иконы Божией Матери" }, "geometry": { "type": "Point", "coordinates": [ 418098.495533438108396, 6185336.216650570742786 ] } },
{ "type": "Feature", "properties": { "fid": 1648, "addr:housenumber": "4 с6", "addr:street": "улица Вильгельма Пика", "amenity": "place_of_worship", "name": null }, "geometry": { "type": "Point", "coordinates": [ 414526.446223597333301, 6188626.737587651237845 ] } },
{ "type": "Feature", "properties": { "fid": 1679, "addr:housenumber": null, "addr:street": null, "amenity": "place_of_worship", "name": null }, "geometry": { "type": "Point", "coordinates": [ 413456.973669671919197, 6186290.27941869571805 ] } },
{ "type": "Feature", "properties": { "fid": 1774, "addr:housenumber": null, "addr:street": null, "amenity": "place_of_worship", "name": null }, "geometry": { "type": "Point", "coordinates": [ 413466.723317403811961, 6186324.531498653814197 ] } },
{ "type": "Feature", "properties": { "fid": 2019, "addr:housenumber": null, "addr:street": null, "amenity": "place_of_worship", "name": null }, "geometry": { "type": "Point", "coordinates": [ 413636.232891199935693, 6190070.991195914335549 ] } },
{ "type": "Feature", "properties": { "fid": 236, "addr:housenumber": null, "addr:street": null, "amenity": "place_of_worship", "name": "Часовня \"Неувядаемый Цвет\"" }, "geometry": { "type": "Point", "coordinates": [ 416354.11557640763931, 6182849.063076368533075 ] } },
{ "type": "Feature", "properties": { "fid": 359, "addr:housenumber": null, "addr:street": null, "amenity": "place_of_worship", "name": "Домовой храм в МИИТ" }, "geometry": { "type": "Point", "coordinates": [ 412718.472837277862709, 6183341.630633723922074 ] } },
{ "type": "Feature", "properties": { "fid": 634, "addr:housenumber": null, "addr:street": null, "amenity": "place_of_worship", "name": "Содружество церквей «Слово жизни»" }, "geometry": { "type": "Point", "coordinates": [ 415713.35201932315249, 6185859.009217481128871 ] } },
{ "type": "Feature", "properties": { "fid": 1134, "addr:housenumber": "2А", "addr:street": "улица Павла Корчагина", "amenity": "place_of_worship", "name": "Церковь «Слово Жизни»" }, "geometry": { "type": "Point", "coordinates": [ 415715.1327963701915, 6185856.770408219657838 ] } },
{ "type": "Feature", "properties": { "fid": 2237, "addr:housenumber": null, "addr:street": null, "amenity": "place_of_worship", "name": "Храм святого мученика Порфирия Ефесского" }, "geometry": { "type": "Point", "coordinates": [ 412752.831525894580409, 6187235.613262641243637 ] } },
{ "type": "Feature", "properties": { "fid": 2579, "addr:housenumber": null, "addr:street": null, "amenity": "place_of_worship", "name": null }, "geometry": { "type": "Point", "coordinates": [ 416001.046775473223533, 6188126.589499211870134 ] } },
{ "type": "Feature", "properties": { "fid": 2957, "addr:housenumber": null, "addr:street": null, "amenity": "place_of_worship", "name": "Храм иконы Богоматери «Целительница» Валаамского подворья" }, "geometry": { "type": "Point", "coordinates": [ 416495.990779228450265, 6187864.87033929862082 ] } },
{ "type": "Feature", "properties": { "fid": 3372, "addr:housenumber": null, "addr:street": null, "amenity": "place_of_worship", "name": "Местная религиозная организация христиан веры евангельской \"Сердце Христа\"" }, "geometry": { "type": "Point", "coordinates": [ 417996.760711964336224, 6183956.709671355783939 ] } },
{ "type": "Feature", "properties": { "fid": 3697, "addr:housenumber": null, "addr:street": null, "amenity": "place_of_worship", "name": "Павлу Петель" }, "geometry": { "type": "Point", "coordinates": [ 416660.940019702538848, 6185844.428215534426272 ] } },
{ "type": "Feature", "properties": { "fid": 3803, "addr:housenumber": null, "addr:street": null, "amenity": "place_of_worship", "name": "Храм духа святого" }, "geometry": { "type": "Point", "coordinates": [ 414113.107683803071268, 6185167.266251035034657 ] } },
{ "type": "Feature", "properties": { "fid": 4424, "addr:housenumber": null, "addr:street": null, "amenity": "place_of_worship", "name": "Московская Дзогчен-община Ринченлинг" }, "geometry": { "type": "Point", "coordinates": [ 415429.95809080125764, 6185135.278673657216132 ] } },
{ "type": "Feature", "properties": { "fid": 53, "addr:housenumber": "7", "addr:street": "2-й Красносельский переулок", "amenity": "monastery", "name": "Ново-Алексеевский монастырь" }, "geometry": { "type": "Point", "coordinates": [ 416447.835396507871337, 6182870.978215203620493 ] } }
]
}
